{"version": 0.6, "generator": "Overpass API 0.7.56.9 76e5016d", "osm3s": {"timestamp_osm_base": "2021-05-14T14:12:58Z", "copyright": "The data included in this document is from www.openstreetmap.org. The data is made available under ODbL."}, "elements": [{"type": "node", "id": 257535578, "lat": 42.3088801, "lon": -71.0561422, "tags": {"addr:city": "Dorchester", "addr:housenumber": "1216", "addr:postcode": "02125", "addr:state": "MA", "addr:street": "Dorchester Avenue", "amenity": "library", "attribution": "Office of Geographic and Environmental Information (MassGIS)", "name": "Campbell Resource Center Library", "office": "Boston Public Schools", "region": "Boston", "source_url": "http://mass.gov/mgis/libraries.htm", "type": "School"}}, {"type": "node", "id": 257535610, "lat": 42.3368236, "lon": -71.098744, "tags": {"addr:city": "Boston", "addr:housenumber": "621", "addr:state": "MA", "addr:street": "Huntington Avenue", "amenity": "library", "attribution": "Office of Geographic and Environmental Information (MassGIS)", "name": "Morton R. Godine Library", "office": "Massachusetts College Of Art", "region": "Boston", "source:url": "http://mass.gov/mgis/libraries.htm", "type": "Academic"}}, {"type": "node", "id": 257535635, "lat": 42.3508011, "lon": -71.0665318, "tags": {"addr:city": "Boston", "addr:housenumber": "154", "addr:state": "MA", "addr:street": "Stuart Street", "amenity": "library", "attribution": "Office of Geographic and Environmental Information (MassGIS)", "name": "New England School of Law Library", "office": "New England School Of Law", "region": "Boston", "source:url": "http://mass.gov/mgis/libraries.htm", "type": "Academic"}}, {"type": "node", "id": 257535636, "lat": 42.3570746, "lon": -71.148036, "tags": {"addr:city": "Boston", "addr:housenumber": "1", "addr:postcode": "02135", "addr:state": "MA", "addr:street": "Guest Street", "amenity": "library", "gnis:feature_id": "2345022", "library": "special", "name": "WGBH Media Library and Archives", "operator": "WGBH Educational Foundation", "website": "http://openvault.wgbh.org/visiting-the-archives"}}, {"type": "node", "id": 257535644, "lat": 42.3627265, "lon": -71.0674149, "tags": {"addr:city": "Boston", "addr:housenumber": "55", "addr:state": "MA", "addr:street": "Fruit Street", "amenity": "library", "attribution": "Office of Geographic and Environmental Information (MassGIS)", "name": "Treadwell Library", "office": "Massachusetts General Hospital", "region": "Boston", "source:url": "http://mass.gov/mgis/libraries.htm", "type": "Special"}}, {"type": "node", "id": 257535672, "lat": 42.3517086, "lon": -71.0674336, "tags": {"addr:city": "Boston", "addr:housenumber": "10", "addr:postcode": "02116", "addr:state": "MA", "addr:street": "Park Plaza", "amenity": "library", "attribution": "Office of Geographic and Environmental Information (MassGIS)", "ele": "5", "gnis:county_name": "Suffolk", "gnis:feature_id": "2341462", "gnis:import_uuid": "57871b70-0100-4405-bb30-88b2e001a944", "gnis:reviewed": "no", "name": "Massachusetts State Transportation Library", "office": "State Transportation Library", "region": "Boston", "source": "USGS Geonames", "source:url": "http://mass.gov/mgis/libraries.htm", "type": "Special"}}, {"type": "node", "id": 257535676, "lat": 42.3388012, "lon": -71.0967338, "tags": {"addr:city": "Boston", "addr:housenumber": "230", "addr:postcode": "02115", "addr:state": "MA", "addr:street": "Fenway", "amenity": "library", "attribution": "Office of Geographic and Environmental Information (MassGIS)", "name": "W. Van Alan Clark, Jr. Library", "office": "School Of The Museum Of Fine Arts", "region": "Boston", "type": "Academic"}}, {"type": "node", "id": 257535693, "lat": 42.3812739, "lon": -71.0608723, "tags": {"addr:city": "Charlestown", "addr:housenumber": "240", "addr:postcode": "02129", "addr:state": "MA", "addr:street": "Medford Street", "amenity": "library", "attribution": "Office of Geographic and Environmental Information (MassGIS)", "name": "Charlestown High School Library", "office": "Charlestown High School", "region": "Boston", "source_url": "http://mass.gov/mgis/libraries.htm", "type": "School"}}, {"type": "node", "id": 257535701, "lat": 42.3167344, "lon": -71.0456409, "tags": {"addr:city": "Dorchester", "addr:housenumber": "150", "addr:postcode": "02125", "addr:state": "MA", "addr:street": "William T. Morrissey Boulevard", "amenity": "library", "attribution": "Office of Geographic and Environmental Information (MassGIS)", "name": "Corcoran Library", "office": "Boston College High School", "region": "Boston", "source_url": "http://mass.gov/mgis/libraries.htm", "type": "School"}}, {"type": "node", "id": 257535752, "lat": 42.3254426, "lon": -71.1779064, "tags": {"addr:city": "Newton", "addr:housenumber": "300", "addr:state": "MA", "addr:street": "Hammond Pond Parkway", "amenity": "library", "attribution": "Office of Geographic and Environmental Information (MassGIS)", "ele": "51", "gnis:county_name": "Middlesex", "gnis:feature_id": "1972815", "gnis:import_uuid": "57871b70-0100-4405-bb30-88b2e001a944", "gnis:reviewed": "no", "name": "Harry and Anna Feinberg Library", "office": "Congregation Mishkan Tefila", "region": "Metrowest", "source": "USGS Geonames", "source_url": "http://mass.gov/mgis/libraries.htm", "type": "Special"}}, {"type": "node", "id": 257535792, "lat": 42.33007, "lon": -71.10667, "tags": {"addr:city": "Boston", "addr:housenumber": "125", "addr:state": "MA", "addr:street": "Parker Hill Avenue", "amenity": "library", "attribution": "Office of Geographic and Environmental Information (MassGIS)", "name": "Paul E. Woodard Health Sciences Library", "office": "New England Baptist Hospital", "region": "Boston", "source_url": "http://mass.gov/mgis/libraries.htm", "type": "Special"}}, {"type": "node", "id": 257535793, "lat": 42.35616, "lon": -71.18949, "tags": {"addr:city": "Newton", "addr:housenumber": "527", "addr:postcode": "02458", "addr:state": "MA", "addr:street": "Washington Street", "amenity": "library", "attribution": "Office of Geographic and Environmental Information (MassGIS)", "name": "Newton History Museum Library", "office": "Newton History Museum", "region": "Metrowest", "source:url": "http://mass.gov/mgis/libraries.htm", "type": "Special"}}, {"type": "node", "id": 257535794, "lat": 42.3410229, "lon": -71.1075466, "tags": {"addr:city": "Boston", "addr:postcode": "02215", "addr:state": "MA", "addr:street": "Pilgrim Road", "amenity": "library", "attribution": "Office of Geographic and Environmental Information (MassGIS)", "name": "Winsor School Library", "office": "Winsor School", "region": "Boston", "source_url": "http://mass.gov/mgis/libraries.htm", "type": "School"}}, {"type": "node", "id": 257535860, "lat": 42.3589785, "lon": -71.061772, "tags": {"addr:city": "Boston", "addr:housenumber": "8", "addr:postcode": "02133", "addr:street": "Ashburton Place", "amenity": "library", "attribution": "Office of Geographic and Environmental Information (MassGIS)", "name": "Mildred F. Sawyer Library", "office": "Suffolk University", "region": "Boston", "source:url": "http://mass.gov/mgis/libraries.htm", "type": "Academic", "website": "https://www.suffolk.edu/sawlib/", "wheelchair": "yes"}}, {"type": "node", "id": 257535903, "lat": 42.3390136, "lon": -71.1331158, "tags": {"addr:city": "Brookline", "addr:housenumber": "1581", "addr:state": "MA", "addr:street": "Beacon Street", "amenity": "library", "attribution": "Office of Geographic and Environmental Information (MassGIS)", "name": "Boston Graduate School of Psychoanalysis Library", "office": "Boston Graduate School Of Psychoanalysis", "region": "Metrowest", "source_url": "http://mass.gov/mgis/libraries.htm", "type": "Academic"}}, {"type": "node", "id": 257535918, "lat": 42.3114342, "lon": -71.0733773, "tags": {"addr:city": "Dorchester", "addr:housenumber": "206", "addr:state": "MA", "addr:street": "Magnolia Street", "amenity": "library", "attribution": "Office of Geographic and Environmental Information (MassGIS)", "name": "Quincy Dickerman Elementary School Library", "office": "Quincy Dickerman Elementary School", "region": "Boston", "source_url": "http://mass.gov/mgis/libraries.htm", "type": "School"}}, {"type": "node", "id": 257535981, "lat": 42.3524539, "lon": -71.143259, "tags": {"addr:city": "Brighton", "addr:housenumber": "617", "addr:postcode": "02135", "addr:state": "MA", "addr:street": "Cambridge Street", "amenity": "library", "gnis:import_uuid": "57871b70-0100-4405-bb30-88b2e001a944", "name": "Mount Saint Joseph Academy Library", "office": "Mt. St. Joseph Academy", "region": "Boston", "source": "USGS Geonames", "source:url": "http://mass.gov/mgis/libraries.htm", "type": "School"}}, {"type": "node", "id": 257535986, "lat": 42.374487, "lon": -71.1042697, "tags": {"addr:city": "Cambridge", "addr:housenumber": "1493", "addr:state": "MA", "addr:street": "Cambridge Street", "amenity": "library", "attribution": "Office of Geographic and Environmental Information (MassGIS)", "name": "Cambridge Hospital Bor Medical Library", "office": "Cambridge Hospital, Cambridge Health Alliance", "region": "Metrowest", "source_url": "http://mass.gov/mgis/libraries.htm", "type": "Special"}}, {"type": "node", "id": 257536133, "lat": 42.3454876, "lon": -71.0903462, "tags": {"addr:city": "Boston", "addr:housenumber": "8", "addr:postcode": "02215", "addr:state": "MA", "addr:street": "Fenway", "amenity": "library", "attribution": "Office of Geographic and Environmental Information (MassGIS)", "name": "Albert Alphin Library", "office": "The Boston Conservatory", "region": "Boston", "source:url": "http://mass.gov/mgis/libraries.htm", "type": "Academic"}}, {"type": "node", "id": 257536135, "lat": 42.3649336, "lon": -71.1690979, "tags": {"addr:city": "Watertown", "addr:housenumber": "125", "addr:postcode": "02472", "addr:state": "MA", "addr:street": "Walnut Street", "amenity": "library", "attribution": "Office of Geographic and Environmental Information (MassGIS)", "name": "Library", "region": "Metrowest", "source:url": "http://mass.gov/mgis/libraries.htm", "type": "Special"}}, {"type": "node", "id": 257536149, "lat": 42.3522439, "lon": -71.0655492, "tags": {"addr:city": "Boston", "addr:housenumber": "120", "addr:postcode": "02116", "addr:state": "MA", "addr:street": "Boylston Street", "amenity": "library", "attribution": "Office of Geographic and Environmental Information (MassGIS)", "name": "Emerson College Library", "region": "Boston", "source:url": "http://mass.gov/mgis/libraries.htm", "type": "Academic"}}, {"type": "node", "id": 257536173, "lat": 42.3083577, "lon": -71.0609723, "tags": {"addr:city": "Dorchester", "addr:housenumber": "1", "addr:postcode": "02122", "addr:state": "MA", "addr:street": "Parish Street", "amenity": "library", "attribution": "Office of Geographic and Environmental Information (MassGIS)", "name": "Mather Elementary School Library", "office": "Mather Elementary School", "region": "Boston", "source_url": "http://mass.gov/mgis/libraries.htm", "type": "School"}}, {"type": "node", "id": 257536184, "lat": 42.3755807, "lon": -71.1139584, "tags": {"addr:city": "Cambridge", "addr:housenumber": "1737", "addr:postcode": "02138", "addr:state": "MA", "addr:street": "Cambridge Street", "amenity": "library", "attribution": "Office of Geographic and Environmental Information (MassGIS)", "name": "Cmes Teaching Resource Center", "office": "Center For Middle East Studies, Harvard U.", "region": "Metrowest", "source_url": "http://mass.gov/mgis/libraries.htm", "type": "Special"}}, {"type": "node", "id": 257536214, "lat": 42.39574, "lon": -71.12342, "tags": {"addr:city": "Somerville", "addr:housenumber": "58", "addr:postcode": "02144", "addr:state": "MA", "addr:street": "Day Street", "amenity": "library", "attribution": "Office of Geographic and Environmental Information (MassGIS)", "name": "Amnesty International-Northeast Regional Office Library", "office": "Amnesty International--Northeast Regional Office", "region": "Metrowest", "source_url": "http://mass.gov/mgis/libraries.htm", "type": "Special"}}, {"type": "node", "id": 257536220, "lat": 42.34609, "lon": -71.06345, "tags": {"addr:city": "Boston", "addr:housenumber": "321", "addr:postcode": "02118", "addr:state": "MA", "addr:street": "Harrison Avenue", "amenity": "library", "attribution": "Office of Geographic and Environmental Information (MassGIS)", "name": "Sylvan Engineering Information Center", "office": "Teradyne, Inc.", "region": "Boston", "source:url": "http://mass.gov/mgis/libraries.htm", "type": "Special"}}, {"type": "node", "id": 257536224, "lat": 42.3520334, "lon": -71.1203123, "tags": {"addr:city": "Boston", "addr:housenumber": "989", "addr:postcode": "02215", "addr:state": "MA", "addr:street": "Commonwealth Avenue", "amenity": "library", "attribution": "Office of Geographic and Environmental Information (MassGIS)", "name": "Adult Literacy Resource Center", "office": "Alri/Sabes Boston Regional Support Center", "region": "Boston", "source_url": "http://mass.gov/mgis/libraries.htm", "type": "Special-Institutional"}}, {"type": "node", "id": 257536231, "lat": 42.28995, "lon": -71.07146, "tags": {"addr:city": "Dorchester", "addr:housenumber": "622", "addr:postcode": "02124", "addr:state": "MA", "addr:street": "Washington Street", "amenity": "library", "attribution": "Office of Geographic and Environmental Information (MassGIS)", "name": "Greater Boston Center For Healthy Communities Resource Library", "office": "Greater Boston Center For Healthy Communities", "region": "Boston", "source_url": "http://mass.gov/mgis/libraries.htm", "type": "Special"}}, {"type": "node", "id": 257536233, "lat": 42.3614039, "lon": -71.1780458, "tags": {"addr:city": "Watertown", "addr:housenumber": "175", "addr:postcode": "02172", "addr:state": "MA", "addr:street": "North Beacon Street", "amenity": "library", "attribution": "Office of Geographic and Environmental Information (MassGIS)", "ele": "14", "gnis:county_name": "Middlesex", "gnis:feature_id": "1972151;2341711", "gnis:import_uuid": "57871b70-0100-4405-bb30-88b2e001a944", "gnis:reviewed": "no", "name": "Braille & Talking Book Library", "office": "Perkins School For The Blind", "region": "Metrowest", "source": "USGS Geonames", "source:url": "http://mass.gov/mgis/libraries.htm", "type": "Special", "wheelchair": "yes"}}, {"type": "node", "id": 257536260, "lat": 42.3384719, "lon": -71.0875505, "tags": {"addr:state": "MA", "alt_name": "The Globe Collections", "amenity": "library", "attribution": "Office of Geographic and Environmental Information (MassGIS)", "name": "The Boston Globe Library", "operator": "Northeastern University", "region": "Boston", "source_url": "http://mass.gov/mgis/libraries.htm", "type": "Special", "website": "https://globe.library.northeastern.edu/"}}, {"type": "node", "id": 257536288, "lat": 42.3635926, "lon": -71.0787469, "tags": {"addr:city": "Boston", "addr:housenumber": "245", "addr:state": "MA", "addr:street": "First St", "amenity": "library", "attribution": "Office of Geographic and Environmental Information (MassGIS)", "name": "Percy Howe Memorial Library", "office": "Forsyth Institute", "region": "Boston", "source:url": "http://mass.gov/mgis/libraries.htm", "type": "Special"}}, {"type": "node", "id": 257536299, "lat": 42.3548137, "lon": -71.1999357, "tags": {"addr:city": "Newton", "addr:housenumber": "29", "addr:postcode": "02458", "addr:state": "MA", "addr:street": "Crafts Street", "amenity": "library", "attribution": "Office of Geographic and Environmental Information (MassGIS)", "name": "Silent Spring Information Center", "office": "Silent Spring Institute", "region": "Metrowest", "source:url": "http://mass.gov/mgis/libraries.htm", "type": "Special"}}, {"type": "node", "id": 257536373, "lat": 42.3578104, "lon": -71.0577759, "tags": {"addr:city": "Boston", "addr:housenumber": "250", "addr:postcode": "02108", "addr:state": "MA", "addr:street": "Washington Street", "amenity": "library", "attribution": "Office of Geographic and Environmental Information (MassGIS)", "name": "Massachusetts Department of Public Health Central Library", "office": "Massachusetts Department Of Public Health", "region": "Boston", "source:url": "http://mass.gov/mgis/libraries.htm", "type": "Special"}}, {"type": "node", "id": 257536397, "lat": 42.3520191, "lon": -71.0629688, "tags": {"addr:city": "Boston", "addr:housenumber": "178", "addr:state": "MA", "addr:street": "Tremont Street", "amenity": "library", "attribution": "Office of Geographic and Environmental Information (MassGIS)", "name": "Urban College of Boston Learning Resource Center", "office": "Urban College Of Boston", "region": "Boston", "source:url": "http://mass.gov/mgis/libraries.htm", "type": "Academic"}}, {"type": "node", "id": 257536400, "lat": 42.3184451, "lon": -71.1649223, "tags": {"addr:city": "Chestnut Hill", "addr:housenumber": "791", "addr:postcode": "02467", "addr:state": "MA", "addr:street": "Hammond Street", "amenity": "library", "attribution": "Office of Geographic and Environmental Information (MassGIS)", "name": "Beaver Country Day School Library", "office": "Beaver Country Day School", "region": "Metrowest", "source_url": "http://mass.gov/mgis/libraries.htm", "type": "School"}}, {"type": "node", "id": 257536403, "lat": 42.3366267, "lon": -71.1010151, "tags": {"addr:city": "Boston", "addr:housenumber": "179", "addr:postcode": "02115", "addr:state": "MA", "addr:street": "Longwood Avenue", "amenity": "library", "attribution": "Office of Geographic and Environmental Information (MassGIS)", "name": "Sheppard Library", "office": "Massachusetts College Of Pharmacy And Health Sciences", "region": "Boston", "source:url": "http://mass.gov/mgis/libraries.htm", "type": "Academic"}}, {"type": "node", "id": 257536456, "lat": 42.3163726, "lon": -71.0851334, "tags": {"addr:city": "Boston", "addr:housenumber": "205", "addr:state": "MA", "addr:street": "Townsend Street", "amenity": "library", "attribution": "Office of Geographic and Environmental Information (MassGIS)", "name": "Boston Latin Academy Library", "office": "Boston Latin Academy", "region": "Boston", "source_url": "http://mass.gov/mgis/libraries.htm", "type": "School"}}, {"type": "node", "id": 257536466, "lat": 42.2524566, "lon": -71.0034082, "tags": {"addr:city": "Quincy", "addr:housenumber": "24", "addr:state": "MA", "addr:street": "Saville Avenue", "amenity": "library", "attribution": "Office of Geographic and Environmental Information (MassGIS)", "name": "Anselmo Library", "office": "Quincy College", "region": "Southeastern", "source_url": "http://mass.gov/mgis/libraries.htm", "type": "Academic"}}, {"type": "node", "id": 257536473, "lat": 42.35811, "lon": -71.06221, "tags": {"addr:city": "Boston", "addr:housenumber": "14", "addr:state": "MA", "addr:street": "Beacon Street", "amenity": "library", "attribution": "Office of Geographic and Environmental Information (MassGIS)", "name": "Library Resource Center On Racism", "office": "Community Change, Inc.", "region": "Boston", "source:url": "http://mass.gov/mgis/libraries.htm", "type": "Special", "wikidata": "Q5160743"}}, {"type": "node", "id": 257536475, "lat": 42.3586706, "lon": -71.0576063, "tags": {"addr:city": "Boston", "addr:housenumber": "206", "addr:state": "MA", "addr:street": "Washington Street", "amenity": "library", "attribution": "Office of Geographic and Environmental Information (MassGIS)", "name": "The Bostonian Society Library and Special Collections", "office": "The Bostonian Society", "region": "Boston", "source:url": "http://mass.gov/mgis/libraries.htm", "type": "Special-Institutional"}}, {"type": "node", "id": 257536482, "lat": 42.3633915, "lon": -71.0694278, "tags": {"addr:city": "Boston", "addr:housenumber": "243", "addr:postcode": "02114", "addr:state": "MA", "addr:street": "Charles Street", "amenity": "library", "attribution": "Office of Geographic and Environmental Information (MassGIS)", "name": "The Libraries", "office": "Massachusetts Eye And Ear Infirmary", "region": "Boston", "source:url": "http://mass.gov/mgis/libraries.htm", "type": "Special-Medical"}}, {"type": "node", "id": 257536490, "lat": 42.3514733, "lon": -71.0486803, "tags": {"addr:city": "Boston", "addr:housenumber": "44", "addr:state": "MA", "addr:street": "Farnsworth Street", "amenity": "library", "attribution": "Office of Geographic and Environmental Information (MassGIS)", "name": "Research And Training Institute Library", "office": "John Snow, Inc.", "region": "Boston", "source:url": "http://mass.gov/mgis/libraries.htm", "type": "Special"}}, {"type": "node", "id": 257536494, "lat": 42.3462039, "lon": -71.0702198, "tags": {"addr:city": "Boston", "addr:housenumber": "41", "addr:postcode": "02116", "addr:state": "MA", "addr:street": "Berkeley Street", "amenity": "library", "attribution": "Office of Geographic and Environmental Information (MassGIS)", "ele": "3", "gnis:county_name": "Suffolk", "gnis:feature_id": "2341396", "gnis:import_uuid": "57871b70-0100-4405-bb30-88b2e001a944", "gnis:reviewed": "no", "name": "Lufkin Library", "office": "Benjamin Franklin Institute Of Technology", "region": "Boston", "source": "USGS Geonames", "source:url": "http://mass.gov/mgis/libraries.htm", "type": "Academic"}}, {"type": "node", "id": 257536519, "lat": 42.3589283, "lon": -71.0553015, "tags": {"addr:housenumber": "75", "addr:street": "State Street", "addr:unit": "701", "amenity": "library", "attribution": "Office of Geographic and Environmental Information (MassGIS)", "name": "Herman G. Dresser Library", "note": "In 2015 Camp, Dresser & McKee (now CDM Smith) has moved to 75 State St, suite 701", "office": "Camp, Dresser And Mckee", "region": "Metrowest", "source:url": "http://mass.gov/mgis/libraries.htm", "type": "Special"}}, {"type": "node", "id": 257536521, "lat": 42.3806833, "lon": -71.1309842, "tags": {"addr:city": "Cambridge", "addr:housenumber": "80", "addr:postcode": "02138", "addr:state": "MA", "addr:street": "Sparks Street", "amenity": "library", "attribution": "Office of Geographic and Environmental Information (MassGIS)", "office": "Buckingham, Brown And Nichols Middle School", "region": "Metrowest", "source:url": "https://mblc.state.ma.us/directories/libraries/library.php?record_id=2676", "type": "School", "website": "http://bbn-ms-llc.weebly.com"}}, {"type": "node", "id": 257536558, "lat": 42.2298607, "lon": -71.0253398, "tags": {"addr:city": "Quincy", "addr:housenumber": "1", "addr:state": "MA", "addr:street": "Batterymarch Park", "amenity": "library", "attribution": "Office of Geographic and Environmental Information (MassGIS)", "name": "Charles S. Morgan Technical Library", "office": "National Fire Protection Association", "region": "Southeastern", "source_url": "http://mass.gov/mgis/libraries.htm", "type": "Special"}}, {"type": "node", "id": 257536639, "lat": 42.3632172, "lon": -71.1753987, "tags": {"addr:city": "Watertown", "addr:housenumber": "175", "addr:state": "MA", "addr:street": "North Beacon Street", "amenity": "library", "attribution": "Office of Geographic and Environmental Information (MassGIS)", "ele": "14", "gnis:county_name": "Middlesex", "gnis:feature_id": "2343392", "gnis:import_uuid": "57871b70-0100-4405-bb30-88b2e001a944", "gnis:reviewed": "no", "name": "Samuel P. Hayes Research Library", "office": "Perkins School For The Blind", "region": "Metrowest", "source": "USGS Geonames", "source:url": "http://mass.gov/mgis/libraries.htm", "type": "Special"}}, {"type": "node", "id": 257536648, "lat": 42.301215, "lon": -71.1282428, "tags": {"addr:city": "Boston", "addr:housenumber": "1153", "addr:postcode": "02130", "addr:state": "MA", "addr:street": "Centre Street", "amenity": "library", "attribution": "Office of Geographic and Environmental Information (MassGIS)", "name": "Medical Library", "office": "Faulkner Hospital", "region": "Boston", "source_url": "http://mass.gov/mgis/libraries.htm", "type": "Special-Medical"}}, {"type": "node", "id": 257536665, "lat": 42.3329215, "lon": -71.0709394, "tags": {"addr:city": "Boston", "addr:housenumber": "20", "addr:postcode": "02118", "addr:state": "MA", "addr:street": "Bradston Street", "amenity": "library", "attribution": "Office of Geographic and Environmental Information (MassGIS)", "name": "Suffolk County House of Corrections Library", "office": "Suffolk County House Of Corrections", "region": "Boston", "source_url": "http://mass.gov/mgis/libraries.htm", "type": "Special"}}, {"type": "node", "id": 257536679, "lat": 42.3358388, "lon": -71.2079074, "tags": {"addr:city": "Newton Centre", "addr:housenumber": "330", "addr:state": "MA", "addr:street": "Homer Street", "amenity": "library", "attribution": "Office of Geographic and Environmental Information (MassGIS)", "ele": "30", "gnis:county_name": "Middlesex", "gnis:feature_id": "1973339", "gnis:import_uuid": "57871b70-0100-4405-bb30-88b2e001a944", "gnis:reviewed": "no", "name": "Newton Free Public Library", "office": "Newton", "region": "Metrowest", "source": "USGS Geonames", "source_url": "http://mass.gov/mgis/libraries.htm", "toilets:wheelchair": "yes", "type": "Public", "wheelchair": "yes"}}, {"type": "node", "id": 257536736, "lat": 42.2991367, "lon": -71.1015014, "tags": {"addr:city": "Jamaica Plain", "addr:housenumber": "170", "addr:postcode": "02130", "addr:state": "MA", "addr:street": "Morton Street", "alt_name": "Lemuel Shattuck Hospital Medical Library", "amenity": "library", "attribution": "Office of Geographic and Environmental Information (MassGIS)", "ele": "15", "gnis:county_name": "Suffolk", "gnis:feature_id": "1973004", "gnis:import_uuid": "57871b70-0100-4405-bb30-88b2e001a944", "gnis:reviewed": "no", "name": "Bettencourt Medical Library", "office": "Lemuel Shattuck Hospital", "region": "Boston", "source": "USGS Geonames", "source_url": "http://mass.gov/mgis/libraries.htm", "type": "Special"}}, {"type": "node", "id": 257536752, "lat": 42.3569831, "lon": -71.0568523, "tags": {"addr:city": "Boston", "addr:housenumber": "5", "addr:postcode": "02109", "addr:state": "MA", "addr:street": "Post Office Square", "addr:unit": "Suite 100", "amenity": "library", "name": "EPA Region 1 Library", "phone": "+1 617 918 1990", "region": "Boston", "type": "Special", "website": "https://www.epa.gov/libraries/region-1-library-services"}}, {"type": "node", "id": 257536781, "lat": 42.3787529, "lon": -71.1233952, "tags": {"addr:city": "Cambridge", "addr:housenumber": "1", "addr:postcode": "02138", "addr:state": "MA", "addr:street": "Follen Street", "amenity": "library", "attribution": "Office of Geographic and Environmental Information (MassGIS)", "name": "Bakalar Music Library", "office": "Longy School Of Music", "region": "Metrowest", "source_url": "http://mass.gov/mgis/libraries.htm", "type": "Academic"}}, {"type": "node", "id": 257536901, "lat": 42.3515705, "lon": -71.0485784, "tags": {"addr:city": "Boston", "addr:housenumber": "44", "addr:state": "MA", "addr:street": "Farnsworth Street", "amenity": "library", "attribution": "Office of Geographic and Environmental Information (MassGIS)", "name": "Resource Center", "office": "World Education/Sabes", "region": "Boston", "source:url": "http://mass.gov/mgis/libraries.htm", "type": "Special"}}, {"type": "node", "id": 257536941, "lat": 42.36324, "lon": -71.20151, "tags": {"addr:city": "Newton", "addr:housenumber": "55", "addr:state": "MA", "addr:street": "Chapel Street", "amenity": "library", "attribution": "Office of Geographic and Environmental Information (MassGIS)", "name": "Higher Education Center Library", "office": "Higher Education Center For Alcohol And Other Drug Preven", "region": "Metrowest", "source:url": "http://mass.gov/mgis/libraries.htm", "type": "Special"}}, {"type": "node", "id": 257536976, "lat": 42.3854932, "lon": -71.0992628, "tags": {"addr:city": "Somerville", "addr:housenumber": "42", "addr:postcode": "02143", "addr:state": "MA", "addr:street": "Prescott Street", "amenity": "library", "attribution": "Office of Geographic and Environmental Information (MassGIS)", "name": "Cummings School Library", "note": "FIXME: not sure which school building contains the library", "office": "Cummings School", "region": "Metrowest", "source_url": "http://mass.gov/mgis/libraries.htm", "type": "School"}}, {"type": "node", "id": 257537001, "lat": 42.35559, "lon": -71.06053, "tags": {"addr:city": "Boston", "addr:housenumber": "1", "addr:state": "MA", "addr:street": "Winter Street", "amenity": "library", "attribution": "Office of Geographic and Environmental Information (MassGIS)", "name": "Massachusetts Environmental Library", "office": "Massachusetts Environmental", "region": "Boston", "source:url": "http://mass.gov/mgis/libraries.htm", "toilets": "yes", "type": "Special"}}, {"type": "node", "id": 257537005, "lat": 42.33834, "lon": -71.08225, "tags": {"addr:city": "Boston", "addr:housenumber": "801", "addr:state": "MA", "addr:street": "Tremont Street", "amenity": "library", "attribution": "Office of Geographic and Environmental Information (MassGIS)", "name": "Wayne S. Wright Community Resource Cent", "office": "The Multicultrual Aids Coalition, Inc.", "region": "Boston", "source_url": "http://mass.gov/mgis/libraries.htm", "type": "Special"}}, {"type": "node", "id": 257537033, "lat": 42.336164, "lon": -71.1069506, "tags": {"addr:city": "Boston", "addr:housenumber": "75", "addr:postcode": "02115", "addr:state": "MA", "addr:street": "Francis Street", "amenity": "library", "attribution": "Office of Geographic and Environmental Information (MassGIS)", "ele": "12", "gnis:county_name": "Suffolk", "gnis:feature_id": "2342024", "gnis:import_uuid": "57871b70-0100-4405-bb30-88b2e001a944", "gnis:reviewed": "no", "name": "Brigham and Women's Medical Library", "office": "Brigham And Women's", "region": "Boston", "source": "USGS Geonames", "source_url": "http://mass.gov/mgis/libraries.htm", "type": "Special-Medical"}}, {"type": "node", "id": 257537184, "lat": 42.358874, "lon": -71.0611127, "tags": {"addr:city": "Boston", "addr:housenumber": "1", "addr:place": "Pemberton Square", "addr:postcode": "02108", "addr:state": "MA", "addr:street": "Pemberton Square", "addr:unit": "4100", "amenity": "library", "attribution": "Office of Geographic and Environmental Information (MassGIS)", "name": "Social Law Library", "office": "Social Law Library", "phone": "+1-617-226-1500", "region": "Boston", "source:url": "http://mass.gov/mgis/libraries.htm", "type": "Special-Law", "website": "https://www.socialaw.com/", "wikidata": "Q7550701"}}, {"type": "node", "id": 257537188, "lat": 42.3413628, "lon": -71.0861271, "tags": {"addr:city": "Boston", "addr:housenumber": "33", "addr:postcode": "02115", "addr:state": "MA", "addr:street": "Gainsborough Street", "amenity": "library", "attribution": "Office of Geographic and Environmental Information (MassGIS)", "name": "Harriet M. Spaulding Library", "operator": "New England Conservatory Of Music", "region": "Boston", "source:url": "http://mass.gov/mgis/libraries.htm", "type": "Academic"}}, {"type": "node", "id": 257537199, "lat": 42.36324, "lon": -71.20151, "tags": {"addr:city": "Newton", "addr:housenumber": "55", "addr:postcode": "02458", "addr:state": "MA", "addr:street": "Chapel Street", "amenity": "library", "attribution": "Office of Geographic and Environmental Information (MassGIS)", "name": "Library", "office": "Children'S Safety Network", "region": "Metrowest", "source:url": "http://mass.gov/mgis/libraries.htm", "type": "Special"}}, {"type": "node", "id": 257537206, "lat": 42.36948, "lon": -71.0794, "tags": {"addr:city": "Cambridge", "addr:housenumber": "40", "addr:postcode": "02141", "addr:state": "MA", "addr:street": "Thorndike Street", "amenity": "library", "attribution": "Office of Geographic and Environmental Information (MassGIS)", "name": "Middlesex Law Library", "office": "Massachusetts Trial Court Law Libraries", "region": "Metrowest", "source:url": "http://mass.gov/mgis/libraries.htm", "type": "Special-Law"}}, {"type": "node", "id": 257537239, "lat": 42.3432777, "lon": -71.0851429, "tags": {"addr:city": "Boston", "addr:housenumber": "300", "addr:street": "Massachusetts Avenue", "amenity": "library", "email": "libstaff@mfa.org", "name": "William Morris Hunt Memorial Library", "office": "Museum Of Fine Arts", "region": "Boston", "type": "Special", "website": "https://www.mfa.org/collections/libraries-and-archives"}}, {"type": "node", "id": 257537264, "lat": 42.3363949, "lon": -71.107225, "tags": {"addr:city": "Boston", "addr:housenumber": "75", "addr:postcode": "02115", "addr:state": "MA", "addr:street": "Francis Street", "amenity": "library", "attribution": "Office of Geographic and Environmental Information (MassGIS)", "ele": "11", "gnis:county_name": "Suffolk", "gnis:feature_id": "2341330", "gnis:import_uuid": "57871b70-0100-4405-bb30-88b2e001a944", "gnis:reviewed": "no", "name": "Kessler Health Education Library", "office": "Brigham And Women's Hospital Bretholtz Center For Patient", "region": "Boston", "source": "USGS Geonames", "source_url": "http://mass.gov/mgis/libraries.htm", "type": "Special-Medical"}}, {"type": "node", "id": 257537277, "lat": 42.3644143, "lon": -71.1025321, "tags": {"addr:city": "Cambridge", "addr:housenumber": "552", "addr:postcode": "02139", "addr:state": "MA", "addr:street": "Massachusetts Avenue", "amenity": "library", "attribution": "Office of Geographic and Environmental Information (MassGIS)", "ele": "5", "gnis:county_name": "Middlesex", "gnis:feature_id": "2341767", "gnis:import_uuid": "57871b70-0100-4405-bb30-88b2e001a944", "gnis:reviewed": "no", "name": "Regional Center For Healthy Communities", "office": "Regional Center For Healthy Communities", "region": "Metrowest", "source": "MassGIS Libraries (http://mass.gov/mgis/libraries.htm)", "type": "Special"}}, {"type": "node", "id": 257537362, "lat": 42.3501823, "lon": -71.0690611, "tags": {"addr:city": "Boston", "addr:housenumber": "250", "addr:postcode": "02116", "addr:state": "MA", "addr:street": "Stuart Street", "amenity": "library", "attribution": "Office of Geographic and Environmental Information (MassGIS)", "ele": "4", "gnis:county_name": "Suffolk", "gnis:feature_id": "2342003", "gnis:import_uuid": "57871b70-0100-4405-bb30-88b2e001a944", "gnis:reviewed": "no", "name": "Boston Renaissance Charter School Media Center", "office": "Boston Renaissance Charter School", "region": "Boston", "source": "USGS Geonames", "source:url": "http://mass.gov/mgis/libraries.htm", "type": "School"}}, {"type": "node", "id": 257537368, "lat": 42.3578244, "lon": -71.0620325}, {"type": "node", "id": 257537377, "lat": 42.3500662, "lon": -71.0622921, "tags": {"addr:city": "Boston", "addr:housenumber": "145", "addr:postcode": "02111", "addr:state": "MA", "addr:street": "Harrison Avenue", "amenity": "library", "attribution": "Office of Geographic and Environmental Information (MassGIS)", "ele": "5", "gnis:county_name": "Suffolk", "gnis:feature_id": "2344937", "gnis:import_uuid": "57871b70-0100-4405-bb30-88b2e001a944", "gnis:reviewed": "no", "name": "Tufts University Hirsh Health Sciences Library", "office": "Tufts University Health Sciences", "region": "Boston", "source": "USGS Geonames", "source:url": "http://mass.gov/mgis/libraries.htm", "type": "Academic"}}, {"type": "node", "id": 257537379, "lat": 42.3621237, "lon": -71.0845627, "tags": {"addr:city": "Cambridge", "addr:housenumber": "238", "addr:postcode": "02142", "addr:state": "MA", "addr:street": "Main Street", "amenity": "library", "attribution": "Office of Geographic and Environmental Information (MassGIS)", "name": "Information Resource Center", "office": "Gradient Corporation", "region": "Metrowest", "source:url": "http://mass.gov/mgis/libraries.htm", "type": "Special"}}, {"type": "node", "id": 257537408, "lat": 42.3759427, "lon": -71.0702095, "tags": {"addr:city": "Boston", "addr:housenumber": "250", "addr:state": "MA", "addr:street": "New Rutherford Avenue", "amenity": "library", "attribution": "Office of Geographic and Environmental Information (MassGIS)", "ele": "5", "gnis:county_name": "Middlesex", "gnis:feature_id": "1971054", "gnis:import_uuid": "57871b70-0100-4405-bb30-88b2e001a944", "gnis:reviewed": "no", "name": "Bunker Hill Community College Library", "region": "Boston", "source": "USGS Geonames", "source:url": "http://mass.gov/mgis/libraries.htm", "type": "Academic"}}, {"type": "node", "id": 257537415, "lat": 42.2559824, "lon": -71.0704744, "tags": {"addr:city": "Milton", "addr:housenumber": "170", "addr:state": "MA", "addr:street": "Centre Street", "amenity": "library", "attribution": "Office of Geographic and Environmental Information (MassGIS)", "ele": "20", "gnis:county_name": "Norfolk", "gnis:feature_id": "2342162", "gnis:import_uuid": "57871b70-0100-4405-bb30-88b2e001a944", "gnis:reviewed": "no", "name": "Cox Library", "office": "Milton Academy", "region": "Southeastern", "source": "USGS Geonames", "source_url": "http://mass.gov/mgis/libraries.htm", "type": "School"}}, {"type": "node", "id": 257537465, "lat": 42.3466437, "lon": -71.0871413, "tags": {"addr:city": "Boston", "addr:housenumber": "150", "addr:postcode": "02115", "addr:state": "MA", "addr:street": "Massachusetts Avenue", "amenity": "library", "attribution": "Office of Geographic and Environmental Information (MassGIS)", "name": "Stan Getz Media Center And Library", "office": "Berklee College Of Music", "region": "Boston", "source:url": "http://mass.gov/mgis/libraries.htm", "type": "Academic"}}, {"type": "node", "id": 257537517, "lat": 42.354081, "lon": -71.0747674}, {"type": "node", "id": 257537584, "lat": 42.2857024, "lon": -71.0758634, "tags": {"addr:city": "Dorchester", "addr:housenumber": "9", "addr:postcode": "02124", "addr:state": "MA", "addr:street": "Peacevale Road", "amenity": "library", "attribution": "Office of Geographic and Environmental Information (MassGIS)", "name": "Dorchester High School Library", "office": "Dorchester High School", "region": "Boston", "source_url": "http://mass.gov/mgis/libraries.htm", "type": "School"}}, {"type": "node", "id": 257537589, "lat": 42.34973, "lon": -71.14805, "tags": {"addr:city": "Brighton", "addr:housenumber": "736", "addr:postcode": "02135", "addr:state": "MA", "addr:street": "Cambridge Street", "amenity": "library", "attribution": "Office of Geographic and Environmental Information (MassGIS)", "name": "Stohlman Library", "office": "St. Elizabeth's Medical Center", "region": "Boston", "source:url": "http://mass.gov/mgis/libraries.htm", "type": "Special"}}, {"type": "node", "id": 257537598, "lat": 42.3592441, "lon": -71.0638705, "tags": {"addr:city": "Boston", "addr:postcode": "02133", "addr:state": "MA", "amenity": "library", "attribution": "Office of Geographic and Environmental Information (MassGIS)", "name": "State Library Of Massachusetts", "phone": "+1 617 727 2590", "region": "Boston", "source:url": "http://mass.gov/mgis/libraries.htm", "type": "Special", "website": "https://www.mass.gov/orgs/state-library-of-massachusetts", "wikidata": "Q7603401", "wikipedia": "en:State Library of Massachusetts"}}, {"type": "node", "id": 257537599, "lat": 42.3505737, "lon": -71.0779829, "tags": {"addr:city": "Boston", "addr:housenumber": "150", "addr:postcode": "02116", "addr:state": "MA", "addr:street": "Newbury Street", "amenity": "library", "attribution": "Office of Geographic and Environmental Information (MassGIS)", "gnis:county_name": "Suffolk", "gnis:feature_id": "2343431", "name": "Snowden International School Library", "operator": "Snowden International School", "ref:isil": "OCLC-SNWIS", "region": "Boston", "source": "USGS Geonames", "source:url": "http://mass.gov/mgis/libraries.htm", "type": "School", "wikidata": "Q7548578"}}, {"type": "node", "id": 257537637, "lat": 42.3582426, "lon": -71.0721306, "tags": {"addr:city": "Boston", "addr:housenumber": "17", "addr:postcode": "02108", "addr:state": "MA", "addr:street": "Brimmer Street", "amenity": "library", "attribution": "Office of Geographic and Environmental Information (MassGIS)", "name": "Advent School Library", "office": "Advent School", "region": "Boston", "source:url": "http://mass.gov/mgis/libraries.htm", "type": "School"}}, {"type": "node", "id": 257537654, "lat": 42.3629815, "lon": -71.0685994, "tags": {"addr:city": "Boston", "addr:housenumber": "55", "addr:state": "MA", "addr:street": "Fruit Street", "amenity": "library", "attribution": "Office of Geographic and Environmental Information (MassGIS)", "name": "Patient And Family Learning Center", "office": "Massachusetts General Hospital", "region": "Boston", "source:url": "http://mass.gov/mgis/libraries.htm", "type": "Special"}}, {"type": "node", "id": 257537659, "lat": 42.254863, "lon": -71.0056264, "tags": {"addr:city": "Quincy", "addr:housenumber": "1102", "addr:postcode": "02169", "addr:state": "MA", "addr:street": "Hancock Street", "amenity": "library", "attribution": "Office of Geographic and Environmental Information (MassGIS)", "name": "Katherine Bacon Library", "office": "The Woodward School", "region": "Southeastern", "source_url": "http://mass.gov/mgis/libraries.htm", "type": "School"}}, {"type": "node", "id": 257537682, "lat": 42.367256, "lon": -71.070508, "tags": {"addr:city": "Boston", "addr:state": "MA", "addr:street": "Science Park", "amenity": "library", "attribution": "Office of Geographic and Environmental Information (MassGIS)", "ele": "4", "gnis:county_name": "Suffolk", "gnis:feature_id": "2342406", "gnis:import_uuid": "57871b70-0100-4405-bb30-88b2e001a944", "gnis:reviewed": "no", "name": "Harrison Lyman Library", "office": "Museum Of Science", "region": "Boston", "source": "USGS Geonames", "source:url": "http://mass.gov/mgis/libraries.htm", "type": "Special"}}, {"type": "node", "id": 257537721, "lat": 42.34128, "lon": -71.10468, "tags": {"addr:city": "Boston", "addr:housenumber": "330", "addr:postcode": "02215", "addr:state": "MA", "addr:street": "Brookline Avenue", "amenity": "library", "attribution": "Office of Geographic and Environmental Information (MassGIS)", "name": "The Learning Center", "office": "Beth Israel Deaconess Medical Center", "region": "Boston", "source_url": "http://mass.gov/mgis/libraries.htm", "type": "Special"}}, {"type": "node", "id": 257537741, "lat": 42.40563, "lon": -71.05693, "tags": {"addr:city": "Everett", "addr:housenumber": "410", "addr:state": "MA", "addr:street": "Broadway", "amenity": "library", "attribution": "Office of Geographic and Environmental Information (MassGIS)", "name": "Parlin Memorial Library", "office": "Everett", "region": "Northeast", "source_url": "http://mass.gov/mgis/libraries.htm", "type": "Public"}}, {"type": "node", "id": 257537750, "lat": 42.3356047, "lon": -71.0955638, "tags": {"addr:city": "Boston", "addr:housenumber": "550", "addr:state": "MA", "addr:street": "Huntington Avenue", "amenity": "library", "attribution": "Office of Geographic and Environmental Information (MassGIS)", "name": "Alumni Library", "office": "Wentworth Institute Of Technology", "region": "Boston", "source_url": "http://mass.gov/mgis/libraries.htm", "type": "Academic"}}, {"type": "node", "id": 257537789, "lat": 42.4269557, "lon": -71.046364, "tags": {"addr:city": "Malden", "addr:housenumber": "99", "addr:postcode": "02148", "addr:state": "MA", "addr:street": "Crystal Street", "amenity": "library", "attribution": "Office of Geographic and Environmental Information (MassGIS)", "name": "Library", "office": "Malden Catholic High School", "region": "Boston", "source_url": "http://mass.gov/mgis/libraries.htm", "type": "School"}}, {"type": "node", "id": 257537798, "lat": 42.331414, "lon": -71.1992186, "tags": {"addr:city": "Newton", "addr:housenumber": "149", "addr:state": "MA", "addr:street": "Pleasant Street", "amenity": "library", "attribution": "Office of Geographic and Environmental Information (MassGIS)", "name": "Library", "office": "Mason Rice Elementary School", "region": "Metrowest", "source:url": "http://mass.gov/mgis/libraries.htm", "type": "School"}}, {"type": "node", "id": 257537803, "lat": 42.3568568, "lon": -71.0609706, "tags": {"addr:city": "Boston", "addr:housenumber": "120", "addr:postcode": "02108", "addr:state": "MA", "addr:street": "Tremont Street", "amenity": "library", "attribution": "Office of Geographic and Environmental Information (MassGIS)", "name": "Moakley Law Library", "office": "Suffolk University Law School", "region": "Boston", "source:url": "http://mass.gov/mgis/libraries.htm", "type": "Academic"}}, {"type": "node", "id": 316901173, "lat": 42.2706944, "lon": -71.0125641, "tags": {"amenity": "library", "created_by": "Potlatch 0.10f", "is_in": "Eastern Nazarene College", "name": "Nease Library", "postal_code": "02170", "source": "http://library.enc.edu/"}}, {"type": "node", "id": 325299994, "lat": 42.3385651, "lon": -71.0885238}, {"type": "node", "id": 325302857, "lat": 42.3496115, "lon": -71.0784743}, {"type": "node", "id": 325308184, "lat": 42.3495076, "lon": -71.0778713}, {"type": "node", "id": 325313931, "lat": 42.3282442, "lon": -71.0835227}, {"type": "node", "id": 325317464, "lat": 42.3490134, "lon": -71.0781965}, {"type": "node", "id": 325323338, "lat": 42.3381042, "lon": -71.0878024}, {"type": "node", "id": 325339567, "lat": 42.3385412, "lon": -71.0876705}, {"type": "node", "id": 325339726, "lat": 42.349188, "lon": -71.0779982}, {"type": "node", "id": 325344342, "lat": 42.3386099, "lon": -71.0875028}, {"type": "node", "id": 325344710, "lat": 42.3491856, "lon": -71.1402164}, {"type": "node", "id": 325344711, "lat": 42.3492725, "lon": -71.1402817}, {"type": "node", "id": 325344712, "lat": 42.3493733, "lon": -71.1400023}, {"type": "node", "id": 325346555, "lat": 42.3430069, "lon": -71.1047768}, {"type": "node", "id": 325346556, "lat": 42.3430532, "lon": -71.1047801}, {"type": "node", "id": 325346557, "lat": 42.3430516, "lon": -71.1048208}, {"type": "node", "id": 325346558, "lat": 42.3431986, "lon": -71.1048311}, {"type": "node", "id": 325346560, "lat": 42.3432105, "lon": -71.1045213}, {"type": "node", "id": 325346561, "lat": 42.3431247, "lon": -71.1045153}, {"type": "node", "id": 325346563, "lat": 42.3431221, "lon": -71.1045831}, {"type": "node", "id": 325346564, "lat": 42.3430858, "lon": -71.1045805}, {"type": "node", "id": 325346565, "lat": 42.3430822, "lon": -71.1046746}, {"type": "node", "id": 325346566, "lat": 42.343011, "lon": -71.1046696}, {"type": "node", "id": 325431370, "lat": 42.3283257, "lon": -71.0835462}, {"type": "node", "id": 325441825, "lat": 42.3282882, "lon": -71.0836943}, {"type": "node", "id": 325443193, "lat": 42.3493729, "lon": -71.0778012}, {"type": "node", "id": 325443960, "lat": 42.3278141, "lon": -71.0833593}, {"type": "node", "id": 325459693, "lat": 42.3401264, "lon": -71.1016996}, {"type": "node", "id": 325461369, "lat": 42.3400848, "lon": -71.101651}, {"type": "node", "id": 325466772, "lat": 42.3401445, "lon": -71.1017146}, {"type": "node", "id": 325468216, "lat": 42.3400877, "lon": -71.1016553}, {"type": "node", "id": 325471775, "lat": 42.3401336, "lon": -71.1017058}, {"type": "node", "id": 325472182, "lat": 42.3400301, "lon": -71.1015209}, {"type": "node", "id": 325473525, "lat": 42.3400906, "lon": -71.1016594}, {"type": "node", "id": 325479669, "lat": 42.3401229, "lon": -71.1016963}, {"type": "node", "id": 325479965, "lat": 42.3400314, "lon": -71.1015264}, {"type": "node", "id": 325481447, "lat": 42.3400936, "lon": -71.1016634}, {"type": "node", "id": 325489789, "lat": 42.3401408, "lon": -71.1017117}, {"type": "node", "id": 325491611, "lat": 42.3400967, "lon": -71.1016673}, {"type": "node", "id": 325498978, "lat": 42.3406247, "lon": -71.101939}, {"type": "node", "id": 325500981, "lat": 42.3400998, "lon": -71.1016712}, {"type": "node", "id": 325506469, "lat": 42.3902369, "lon": -71.1086422}, {"type": "node", "id": 325506470, "lat": 42.3902665, "lon": -71.1087252}, {"type": "node", "id": 325506471, "lat": 42.3903758, "lon": -71.1086542}, {"type": "node", "id": 325506473, "lat": 42.3903461, "lon": -71.1085712}, {"type": "node", "id": 325522394, "lat": 42.3283329, "lon": -71.0836903}, {"type": "node", "id": 325536151, "lat": 42.3381644, "lon": -71.0882262}, {"type": "node", "id": 325539344, "lat": 42.3495337, "lon": -71.0777796}, {"type": "node", "id": 325546917, "lat": 42.3280997, "lon": -71.0833334}, {"type": "node", "id": 325552107, "lat": 42.3495472, "lon": -71.0781852}, {"type": "node", "id": 325552846, "lat": 42.3378873, "lon": -71.088204}, {"type": "node", "id": 325553493, "lat": 42.3282451, "lon": -71.0835403}, {"type": "node", "id": 325575636, "lat": 42.3490572, "lon": -71.0782193}, {"type": "node", "id": 325581650, "lat": 42.338617, "lon": -71.0884059}, {"type": "node", "id": 325588691, "lat": 42.3496314, "lon": -71.0783974}, {"type": "node", "id": 325591003, "lat": 42.3492575, "lon": -71.0773093}, {"type": "node", "id": 325605904, "lat": 42.3383413, "lon": -71.088362}, {"type": "node", "id": 325607415, "lat": 42.3282103, "lon": -71.0835258}, {"type": "node", "id": 325613978, "lat": 42.3281079, "lon": -71.0834975}, {"type": "node", "id": 325616594, "lat": 42.3387875, "lon": -71.0878748}, {"type": "node", "id": 325617121, "lat": 42.3282098, "lon": -71.0835158}, {"type": "node", "id": 325617672, "lat": 42.3380205, "lon": -71.0879576}, {"type": "node", "id": 325620430, "lat": 42.3495704, "lon": -71.0784537}, {"type": "node", "id": 325621432, "lat": 42.3493989, "lon": -71.0777095}, {"type": "node", "id": 325621792, "lat": 42.3282648, "lon": -71.0838088}, {"type": "node", "id": 325624408, "lat": 42.328141, "lon": -71.083447}, {"type": "node", "id": 325626440, "lat": 42.3381257, "lon": -71.0878117}, {"type": "node", "id": 325626593, "lat": 42.3282841, "lon": -71.0835367}, {"type": "node", "id": 325628556, "lat": 42.3281434, "lon": -71.0834942}, {"type": "node", "id": 325629091, "lat": 42.3488003, "lon": -71.0789804}, {"type": "node", "id": 325631068, "lat": 42.3280165, "lon": -71.083872}, {"type": "node", "id": 325632791, "lat": 42.3496459, "lon": -71.077838}, {"type": "node", "id": 325635088, "lat": 42.3498471, "lon": -71.0775944}, {"type": "node", "id": 325636154, "lat": 42.3386223, "lon": -71.0884735}, {"type": "node", "id": 325638303, "lat": 42.3490876, "lon": -71.0781122}, {"type": "node", "id": 325639294, "lat": 42.3282621, "lon": -71.0837549}, {"type": "node", "id": 325643914, "lat": 42.3384377, "lon": -71.0873837}, {"type": "node", "id": 325646290, "lat": 42.3490399, "lon": -71.0780873}, {"type": "node", "id": 325653884, "lat": 42.328162, "lon": -71.0834451}, {"type": "node", "id": 325654603, "lat": 42.3282219, "lon": -71.0838535}, {"type": "node", "id": 325656735, "lat": 42.3282847, "lon": -71.0835498}, {"type": "node", "id": 325663067, "lat": 42.3281657, "lon": -71.0835198}, {"type": "node", "id": 325664018, "lat": 42.3280089, "lon": -71.0837202}, {"type": "node", "id": 325665453, "lat": 42.3495913, "lon": -71.0783773}, {"type": "node", "id": 325668210, "lat": 42.328291, "lon": -71.0837523}, {"type": "node", "id": 325670633, "lat": 42.3379939, "lon": -71.0879424}, {"type": "node", "id": 325676255, "lat": 42.3385945, "lon": -71.0884533}, {"type": "node", "id": 325679183, "lat": 42.349394, "lon": -71.0792691}, {"type": "node", "id": 325679631, "lat": 42.3278329, "lon": -71.0837361}, {"type": "node", "id": 325680946, "lat": 42.3386479, "lon": -71.0884614}, {"type": "node", "id": 325687083, "lat": 42.3282199, "lon": -71.0838128}, {"type": "node", "id": 325689802, "lat": 42.3492867, "lon": -71.0776511}, {"type": "node", "id": 325691845, "lat": 42.3382774, "lon": -71.088318}, {"type": "node", "id": 325729702, "lat": 42.3401513, "lon": -71.1017195}, {"type": "node", "id": 325730002, "lat": 42.3400355, "lon": -71.1015426}, {"type": "node", "id": 325733904, "lat": 42.3401029, "lon": -71.1016751}, {"type": "node", "id": 325750496, "lat": 42.3401372, "lon": -71.1017088}, {"type": "node", "id": 325751064, "lat": 42.3400374, "lon": -71.1015494}, {"type": "node", "id": 325754844, "lat": 42.3401062, "lon": -71.1016788}, {"type": "node", "id": 325785753, "lat": 42.340614, "lon": -71.1019582}, {"type": "node", "id": 325788442, "lat": 42.3400454, "lon": -71.1016523}, {"type": "node", "id": 325789398, "lat": 42.3401094, "lon": -71.1016824}, {"type": "node", "id": 325795324, "lat": 42.4079042, "lon": -71.0091913}, {"type": "node", "id": 325795331, "lat": 42.407927, "lon": -71.0092322}, {"type": "node", "id": 325795332, "lat": 42.4079777, "lon": -71.0093232}, {"type": "node", "id": 325795339, "lat": 42.4081208, "lon": -71.0091782}, {"type": "node", "id": 325795348, "lat": 42.408046, "lon": -71.0090439}, {"type": "node", "id": 325795357, "lat": 42.4080069, "lon": -71.0090836}, {"type": "node", "id": 325795363, "lat": 42.4079901, "lon": -71.0090534}, {"type": "node", "id": 325795371, "lat": 42.4079172, "lon": -71.0091273}, {"type": "node", "id": 325795378, "lat": 42.4079353, "lon": -71.0091597}, {"type": "node", "id": 325804599, "lat": 42.3407297, "lon": -71.101747}, {"type": "node", "id": 325822043, "lat": 42.3406555, "lon": -71.1019698}, {"type": "node", "id": 325826668, "lat": 42.3401161, "lon": -71.1016896}, {"type": "node", "id": 325842418, "lat": 42.340227, "lon": -71.1015709}, {"type": "node", "id": 325847204, "lat": 42.3401195, "lon": -71.1016929}, {"type": "node", "id": 325848916, "lat": 42.3400139, "lon": -71.1015648}, {"type": "node", "id": 325851480, "lat": 42.3400327, "lon": -71.1015318}, {"type": "node", "id": 325853188, "lat": 42.3400737, "lon": -71.1016338}, {"type": "node", "id": 325864349, "lat": 42.3407062, "lon": -71.1017897}, {"type": "node", "id": 325865085, "lat": 42.34013, "lon": -71.1017027}, {"type": "node", "id": 325866042, "lat": 42.340034, "lon": -71.1015373}, {"type": "node", "id": 325869921, "lat": 42.3400763, "lon": -71.1016381}, {"type": "node", "id": 325879889, "lat": 42.3400792, "lon": -71.1016425}, {"type": "node", "id": 325879895, "lat": 42.3401128, "lon": -71.1016861}, {"type": "node", "id": 325890269, "lat": 42.3403105, "lon": -71.1013275}, {"type": "node", "id": 325895198, "lat": 42.340082, "lon": -71.1016468}, {"type": "node", "id": 325907394, "lat": 42.3407374, "lon": -71.101821}, {"type": "node", "id": 325991879, "lat": 42.3139408, "lon": -71.0956649}, {"type": "node", "id": 326002332, "lat": 42.3141293, "lon": -71.0959431}, {"type": "node", "id": 326049811, "lat": 42.3142714, "lon": -71.0957682}, {"type": "node", "id": 326063691, "lat": 42.3140829, "lon": -71.0954902}, {"type": "node", "id": 326147380, "lat": 42.3731936, "lon": -71.1157799}, {"type": "node", "id": 326149551, "lat": 42.3731217, "lon": -71.1157963}, {"type": "node", "id": 326152933, "lat": 42.3727386, "lon": -71.1158199}, {"type": "node", "id": 326153452, "lat": 42.3730949, "lon": -71.1158304}, {"type": "node", "id": 326155481, "lat": 42.3731887, "lon": -71.1157786}, {"type": "node", "id": 326156011, "lat": 42.3731176, "lon": -71.1158}, {"type": "node", "id": 326157523, "lat": 42.3491975, "lon": -71.1401706}, {"type": "node", "id": 326157626, "lat": 42.3662132, "lon": -71.1227297}, {"type": "node", "id": 326158744, "lat": 42.3729616, "lon": -71.1157501}, {"type": "node", "id": 326161186, "lat": 42.3731304, "lon": -71.1157898}, {"type": "node", "id": 326161496, "lat": 42.3732031, "lon": -71.1157836}, {"type": "node", "id": 326162046, "lat": 42.3730993, "lon": -71.1158227}, {"type": "node", "id": 326167576, "lat": 42.372641, "lon": -71.1157763}, {"type": "node", "id": 326168194, "lat": 42.373126, "lon": -71.1157928}, {"type": "node", "id": 326169610, "lat": 42.3731985, "lon": -71.1157816}, {"type": "node", "id": 326171451, "lat": 42.3727266, "lon": -71.1157495}, {"type": "node", "id": 326176219, "lat": 42.3666653, "lon": -71.123174}, {"type": "node", "id": 326176658, "lat": 42.373106, "lon": -71.1158129}, {"type": "node", "id": 326178739, "lat": 42.3732124, "lon": -71.1157887}, {"type": "node", "id": 326179977, "lat": 42.3731396, "lon": -71.1157845}, {"type": "node", "id": 326181833, "lat": 42.3665974, "lon": -71.1225923}, {"type": "node", "id": 326182088, "lat": 42.3731025, "lon": -71.1158177}, {"type": "node", "id": 326185452, "lat": 42.3732078, "lon": -71.1157859}, {"type": "node", "id": 326185853, "lat": 42.3725577, "lon": -71.1152885}, {"type": "node", "id": 326185935, "lat": 42.373135, "lon": -71.1157869}, {"type": "node", "id": 326186323, "lat": 42.3731135, "lon": -71.1158041}, {"type": "node", "id": 326189426, "lat": 42.3666073, "lon": -71.1228671}, {"type": "node", "id": 326189710, "lat": 42.3662277, "lon": -71.1227247}, {"type": "node", "id": 326190653, "lat": 42.3731491, "lon": -71.1157805}, {"type": "node", "id": 326190846, "lat": 42.3732213, "lon": -71.1157949}, {"type": "node", "id": 326193850, "lat": 42.3731097, "lon": -71.1158083}, {"type": "node", "id": 326196645, "lat": 42.3731443, "lon": -71.1157824}, {"type": "node", "id": 326197492, "lat": 42.3732169, "lon": -71.1157915}, {"type": "node", "id": 326200672, "lat": 42.3731589, "lon": -71.1157779}, {"type": "node", "id": 326201187, "lat": 42.366164, "lon": -71.1224252}, {"type": "node", "id": 326201711, "lat": 42.3733301, "lon": -71.1157665}, {"type": "node", "id": 326203565, "lat": 42.3663311, "lon": -71.1232829}, {"type": "node", "id": 326206790, "lat": 42.3732254, "lon": -71.1157985}, {"type": "node", "id": 326207444, "lat": 42.373154, "lon": -71.1157791}, {"type": "node", "id": 326210745, "lat": 42.3666467, "lon": -71.1228535}, {"type": "node", "id": 326211143, "lat": 42.3665555, "lon": -71.1226068}, {"type": "node", "id": 326216022, "lat": 42.3731639, "lon": -71.1157772}, {"type": "node", "id": 326216293, "lat": 42.3733645, "lon": -71.1159706}, {"type": "node", "id": 326217384, "lat": 42.3664981, "lon": -71.1223028}, {"type": "node", "id": 326218867, "lat": 42.3730018, "lon": -71.1158589}, {"type": "node", "id": 326219346, "lat": 42.3726391, "lon": -71.115263}, {"type": "node", "id": 326219549, "lat": 42.3731739, "lon": -71.1157766}, {"type": "node", "id": 326221028, "lat": 42.3662352, "lon": -71.1229371}, {"type": "node", "id": 326222680, "lat": 42.3492349, "lon": -71.1401091}, {"type": "node", "id": 326223252, "lat": 42.3730375, "lon": -71.1160707}, {"type": "node", "id": 326223403, "lat": 42.3731688, "lon": -71.1157768}, {"type": "node", "id": 326226933, "lat": 42.3728557, "lon": -71.11513}, {"type": "node", "id": 326227217, "lat": 42.3731838, "lon": -71.1157775}, {"type": "node", "id": 326227389, "lat": 42.3492797, "lon": -71.1399455}, {"type": "node", "id": 326230516, "lat": 42.3662527, "lon": -71.1229311}, {"type": "node", "id": 326231161, "lat": 42.3731788, "lon": -71.115777}, {"type": "node", "id": 326231441, "lat": 42.3726285, "lon": -71.1152011}, {"type": "node", "id": 326295099, "lat": 42.2536065, "lon": -71.0772824}, {"type": "node", "id": 326295101, "lat": 42.2537477, "lon": -71.0774435}, {"type": "node", "id": 326295103, "lat": 42.253834, "lon": -71.077567}, {"type": "node", "id": 326295104, "lat": 42.2538484, "lon": -71.077544}, {"type": "node", "id": 326295105, "lat": 42.2538838, "lon": -71.0774874}, {"type": "node", "id": 326295107, "lat": 42.2539201, "lon": -71.0775289}, {"type": "node", "id": 326295108, "lat": 42.2538966, "lon": -71.0775665}, {"type": "node", "id": 326295109, "lat": 42.2539569, "lon": -71.0776354}, {"type": "node", "id": 326295111, "lat": 42.2540074, "lon": -71.0776335}, {"type": "node", "id": 326295112, "lat": 42.2540641, "lon": -71.077475}, {"type": "node", "id": 326295115, "lat": 42.2540457, "lon": -71.0773924}, {"type": "node", "id": 326295116, "lat": 42.253984, "lon": -71.0773219}, {"type": "node", "id": 326295123, "lat": 42.2538999, "lon": -71.077226}, {"type": "node", "id": 326295124, "lat": 42.2537492, "lon": -71.077054}, {"type": "node", "id": 326329375, "lat": 42.3412521, "lon": -71.0770323}, {"type": "node", "id": 326329376, "lat": 42.3414035, "lon": -71.0771784}, {"type": "node", "id": 326329377, "lat": 42.3415528, "lon": -71.0768971}, {"type": "node", "id": 326329378, "lat": 42.3413954, "lon": -71.0767453}, {"type": "node", "id": 326400463, "lat": 42.393422, "lon": -71.0318938}, {"type": "node", "id": 326400464, "lat": 42.3935357, "lon": -71.0322911}, {"type": "node", "id": 326400465, "lat": 42.3935822, "lon": -71.0323031}, {"type": "node", "id": 326400466, "lat": 42.3937292, "lon": -71.0320463}, {"type": "node", "id": 326400468, "lat": 42.3936514, "lon": -71.0317743}, {"type": "node", "id": 326614153, "lat": 42.3777637, "lon": -71.1139717}, {"type": "node", "id": 326614154, "lat": 42.3778112, "lon": -71.1137386}, {"type": "node", "id": 326614155, "lat": 42.3779983, "lon": -71.1138079}, {"type": "node", "id": 326614156, "lat": 42.3780286, "lon": -71.1136595}, {"type": "node", "id": 326614157, "lat": 42.3775571, "lon": -71.1134846}, {"type": "node", "id": 326614158, "lat": 42.3775191, "lon": -71.113671}, {"type": "node", "id": 326614159, "lat": 42.3773865, "lon": -71.1136217}, {"type": "node", "id": 326615031, "lat": 42.3768284, "lon": -71.1469471}, {"type": "node", "id": 326615033, "lat": 42.3769392, "lon": -71.1469963}, {"type": "node", "id": 326615035, "lat": 42.3769834, "lon": -71.1468181}, {"type": "node", "id": 326615037, "lat": 42.376872, "lon": -71.1467728}, {"type": "node", "id": 326632071, "lat": 42.3736469, "lon": -71.1099941}, {"type": "node", "id": 326632106, "lat": 42.3740693, "lon": -71.1111227}, {"type": "node", "id": 326632108, "lat": 42.374204, "lon": -71.1110135}, {"type": "node", "id": 326632110, "lat": 42.3741581, "lon": -71.1109012}, {"type": "node", "id": 326632112, "lat": 42.3743406, "lon": -71.1107637}, {"type": "node", "id": 326632116, "lat": 42.3743308, "lon": -71.1107362}, {"type": "node", "id": 326632118, "lat": 42.3743347, "lon": -71.1107295}, {"type": "node", "id": 326632120, "lat": 42.3743367, "lon": -71.1107249}, {"type": "node", "id": 326632122, "lat": 42.3743383, "lon": -71.11072}, {"type": "node", "id": 326632124, "lat": 42.3743394, "lon": -71.1107148}, {"type": "node", "id": 326632126, "lat": 42.37434, "lon": -71.1107096}, {"type": "node", "id": 326632128, "lat": 42.37434, "lon": -71.1107042}, {"type": "node", "id": 326632130, "lat": 42.3743397, "lon": -71.1106989}, {"type": "node", "id": 326632132, "lat": 42.3743388, "lon": -71.1106937}, {"type": "node", "id": 326632134, "lat": 42.3743376, "lon": -71.1106886}, {"type": "node", "id": 326632136, "lat": 42.3743358, "lon": -71.1106839}, {"type": "node", "id": 326632138, "lat": 42.3743337, "lon": -71.1106794}, {"type": "node", "id": 326632140, "lat": 42.374331, "lon": -71.1106753}, {"type": "node", "id": 326632142, "lat": 42.3743281, "lon": -71.1106716}, {"type": "node", "id": 326632144, "lat": 42.374325, "lon": -71.1106685}, {"type": "node", "id": 326632146, "lat": 42.3743215, "lon": -71.110666}, {"type": "node", "id": 326632148, "lat": 42.3743178, "lon": -71.1106639}, {"type": "node", "id": 326632150, "lat": 42.374314, "lon": -71.1106626}, {"type": "node", "id": 326632152, "lat": 42.37431, "lon": -71.1106618}, {"type": "node", "id": 326632154, "lat": 42.3743061, "lon": -71.1106618}, {"type": "node", "id": 326632156, "lat": 42.3743021, "lon": -71.1106623}, {"type": "node", "id": 326632158, "lat": 42.3742914, "lon": -71.1106347}, {"type": "node", "id": 326632160, "lat": 42.3741746, "lon": -71.1107269}, {"type": "node", "id": 326632164, "lat": 42.3741542, "lon": -71.110684}, {"type": "node", "id": 326632167, "lat": 42.37421, "lon": -71.1106474}, {"type": "node", "id": 326632169, "lat": 42.3741607, "lon": -71.1105286}, {"type": "node", "id": 326632175, "lat": 42.3741288, "lon": -71.1104514}, {"type": "node", "id": 326632229, "lat": 42.3739283, "lon": -71.1099254}, {"type": "node", "id": 327338674, "lat": 42.3763882, "lon": -71.1237421}, {"type": "node", "id": 327341886, "lat": 42.3513916, "lon": -71.1081656}, {"type": "node", "id": 327346724, "lat": 42.3762429, "lon": -71.1244402}, {"type": "node", "id": 327348300, "lat": 42.3763264, "lon": -71.123713}, {"type": "node", "id": 327357658, "lat": 42.3763251, "lon": -71.1243827}, {"type": "node", "id": 327359678, "lat": 42.3762452, "lon": -71.1240269}, {"type": "node", "id": 327363362, "lat": 42.3511762, "lon": -71.108325}, {"type": "node", "id": 327463057, "lat": 42.3755844, "lon": -71.1231435}, {"type": "node", "id": 327463058, "lat": 42.3758545, "lon": -71.1232616}, {"type": "node", "id": 327463060, "lat": 42.37587, "lon": -71.1231979}, {"type": "node", "id": 327463277, "lat": 42.3758786, "lon": -71.1231595}, {"type": "node", "id": 327463284, "lat": 42.3758982, "lon": -71.1230801}, {"type": "node", "id": 327463285, "lat": 42.3757901, "lon": -71.1230328}, {"type": "node", "id": 327463287, "lat": 42.3757955, "lon": -71.1230106}, {"type": "node", "id": 327463288, "lat": 42.3757418, "lon": -71.1229871}, {"type": "node", "id": 327463290, "lat": 42.3757369, "lon": -71.1230075}, {"type": "node", "id": 327463291, "lat": 42.3756285, "lon": -71.12296}, {"type": "node", "id": 327464375, "lat": 42.3730641, "lon": -71.1163257}, {"type": "node", "id": 327464376, "lat": 42.3731665, "lon": -71.116915}, {"type": "node", "id": 327464377, "lat": 42.3731875, "lon": -71.1169083}, {"type": "node", "id": 327464379, "lat": 42.3732042, "lon": -71.1170046}, {"type": "node", "id": 327464380, "lat": 42.3733295, "lon": -71.1169647}, {"type": "node", "id": 327464381, "lat": 42.3733237, "lon": -71.1169314}, {"type": "node", "id": 327464383, "lat": 42.3737146, "lon": -71.1168069}, {"type": "node", "id": 327464384, "lat": 42.3737196, "lon": -71.1168355}, {"type": "node", "id": 327464385, "lat": 42.3738566, "lon": -71.1167919}, {"type": "node", "id": 327464387, "lat": 42.3738341, "lon": -71.1166625}, {"type": "node", "id": 327464388, "lat": 42.3738599, "lon": -71.1166543}, {"type": "node", "id": 327464389, "lat": 42.3737707, "lon": -71.1161415}, {"type": "node", "id": 327464390, "lat": 42.3737505, "lon": -71.1161479}, {"type": "node", "id": 327464392, "lat": 42.3737311, "lon": -71.1160366}, {"type": "node", "id": 327464393, "lat": 42.3737176, "lon": -71.1160409}, {"type": "node", "id": 327464394, "lat": 42.3737146, "lon": -71.1160235}, {"type": "node", "id": 327464396, "lat": 42.3735985, "lon": -71.1160605}, {"type": "node", "id": 327464397, "lat": 42.3736014, "lon": -71.1160773}, {"type": "node", "id": 327464398, "lat": 42.3731925, "lon": -71.1162075}, {"type": "node", "id": 327464400, "lat": 42.3731886, "lon": -71.116185}, {"type": "node", "id": 327464402, "lat": 42.3730726, "lon": -71.116222}, {"type": "node", "id": 327496893, "lat": 42.4057748, "lon": -71.1186627}, {"type": "node", "id": 327496894, "lat": 42.4057628, "lon": -71.1186711}, {"type": "node", "id": 327496896, "lat": 42.4057986, "lon": -71.1187651}, {"type": "node", "id": 327496897, "lat": 42.4058129, "lon": -71.1187551}, {"type": "node", "id": 327496898, "lat": 42.4058395, "lon": -71.118825}, {"type": "node", "id": 327496900, "lat": 42.4058992, "lon": -71.1187837}, {"type": "node", "id": 327496902, "lat": 42.4059341, "lon": -71.1188753}, {"type": "node", "id": 327496903, "lat": 42.4059126, "lon": -71.1188901}, {"type": "node", "id": 327496905, "lat": 42.4059131, "lon": -71.1188958}, {"type": "node", "id": 327496906, "lat": 42.4059135, "lon": -71.1189012}, {"type": "node", "id": 327496908, "lat": 42.4059141, "lon": -71.1189065}, {"type": "node", "id": 327496909, "lat": 42.4059147, "lon": -71.1189118}, {"type": "node", "id": 327496911, "lat": 42.4059155, "lon": -71.1189172}, {"type": "node", "id": 327496912, "lat": 42.4059162, "lon": -71.1189225}, {"type": "node", "id": 327496914, "lat": 42.4059171, "lon": -71.1189279}, {"type": "node", "id": 327496915, "lat": 42.405918, "lon": -71.1189331}, {"type": "node", "id": 327496917, "lat": 42.405919, "lon": -71.1189384}, {"type": "node", "id": 327496918, "lat": 42.4059201, "lon": -71.1189436}, {"type": "node", "id": 327496919, "lat": 42.4059212, "lon": -71.1189489}, {"type": "node", "id": 327496921, "lat": 42.4059223, "lon": -71.118954}, {"type": "node", "id": 327496922, "lat": 42.4059236, "lon": -71.1189592}, {"type": "node", "id": 327496924, "lat": 42.405925, "lon": -71.1189643}, {"type": "node", "id": 327496926, "lat": 42.4059264, "lon": -71.1189694}, {"type": "node", "id": 327496928, "lat": 42.4059278, "lon": -71.1189745}, {"type": "node", "id": 327496929, "lat": 42.4059294, "lon": -71.1189794}, {"type": "node", "id": 327496931, "lat": 42.4059309, "lon": -71.1189844}, {"type": "node", "id": 327496933, "lat": 42.4059325, "lon": -71.1189894}, {"type": "node", "id": 327496935, "lat": 42.4059343, "lon": -71.1189943}, {"type": "node", "id": 327496937, "lat": 42.4059361, "lon": -71.1189992}, {"type": "node", "id": 327496939, "lat": 42.4059379, "lon": -71.119004}, {"type": "node", "id": 327496941, "lat": 42.4059398, "lon": -71.1190088}, {"type": "node", "id": 327496943, "lat": 42.4059417, "lon": -71.1190135}, {"type": "node", "id": 327496944, "lat": 42.4059438, "lon": -71.1190182}, {"type": "node", "id": 327496946, "lat": 42.4059459, "lon": -71.1190228}, {"type": "node", "id": 327496947, "lat": 42.405948, "lon": -71.1190274}, {"type": "node", "id": 327496949, "lat": 42.4059502, "lon": -71.119032}, {"type": "node", "id": 327496951, "lat": 42.4059525, "lon": -71.1190365}, {"type": "node", "id": 327496953, "lat": 42.4059548, "lon": -71.1190409}, {"type": "node", "id": 327496954, "lat": 42.4059572, "lon": -71.1190452}, {"type": "node", "id": 327496956, "lat": 42.4059596, "lon": -71.1190496}, {"type": "node", "id": 327496957, "lat": 42.4059621, "lon": -71.1190538}, {"type": "node", "id": 327496959, "lat": 42.4059646, "lon": -71.1190581}, {"type": "node", "id": 327496961, "lat": 42.4059673, "lon": -71.1190622}, {"type": "node", "id": 327496962, "lat": 42.4059699, "lon": -71.1190663}, {"type": "node", "id": 327496964, "lat": 42.4059726, "lon": -71.1190703}, {"type": "node", "id": 327496965, "lat": 42.4059753, "lon": -71.1190743}, {"type": "node", "id": 327496967, "lat": 42.4059781, "lon": -71.1190781}, {"type": "node", "id": 327496969, "lat": 42.405981, "lon": -71.119082}, {"type": "node", "id": 327496971, "lat": 42.4059839, "lon": -71.1190858}, {"type": "node", "id": 327496972, "lat": 42.4059869, "lon": -71.1190894}, {"type": "node", "id": 327496974, "lat": 42.4059899, "lon": -71.119093}, {"type": "node", "id": 327496975, "lat": 42.4059929, "lon": -71.1190965}, {"type": "node", "id": 327496977, "lat": 42.405996, "lon": -71.1191}, {"type": "node", "id": 327496978, "lat": 42.4059991, "lon": -71.1191034}, {"type": "node", "id": 327496979, "lat": 42.4060023, "lon": -71.1191068}, {"type": "node", "id": 327496980, "lat": 42.4060055, "lon": -71.11911}, {"type": "node", "id": 327496981, "lat": 42.4060235, "lon": -71.1190975}, {"type": "node", "id": 327496982, "lat": 42.4060495, "lon": -71.119166}, {"type": "node", "id": 327496983, "lat": 42.40599, "lon": -71.1192073}, {"type": "node", "id": 327496984, "lat": 42.4060527, "lon": -71.119372}, {"type": "node", "id": 327496989, "lat": 42.4062546, "lon": -71.1196151}, {"type": "node", "id": 327496991, "lat": 42.4064498, "lon": -71.1194798}, {"type": "node", "id": 327496992, "lat": 42.4063993, "lon": -71.1193472}, {"type": "node", "id": 327496994, "lat": 42.406442, "lon": -71.1193177}, {"type": "node", "id": 327496995, "lat": 42.4064595, "lon": -71.1193635}, {"type": "node", "id": 327496997, "lat": 42.4065121, "lon": -71.1193271}, {"type": "node", "id": 327496998, "lat": 42.4064933, "lon": -71.1192778}, {"type": "node", "id": 327496999, "lat": 42.4065294, "lon": -71.1192528}, {"type": "node", "id": 327497000, "lat": 42.4065734, "lon": -71.1193673}, {"type": "node", "id": 327497001, "lat": 42.4067546, "lon": -71.119237}, {"type": "node", "id": 327497002, "lat": 42.40652, "lon": -71.1186202}, {"type": "node", "id": 327497003, "lat": 42.4064137, "lon": -71.1186939}, {"type": "node", "id": 327497004, "lat": 42.4063353, "lon": -71.118488}, {"type": "node", "id": 327497005, "lat": 42.4063793, "lon": -71.1184575}, {"type": "node", "id": 327497007, "lat": 42.4062813, "lon": -71.1182001}, {"type": "node", "id": 327497008, "lat": 42.4062551, "lon": -71.1182182}, {"type": "node", "id": 327497010, "lat": 42.4062316, "lon": -71.1181569}, {"type": "node", "id": 327497011, "lat": 42.406136, "lon": -71.1182232}, {"type": "node", "id": 327497012, "lat": 42.4061628, "lon": -71.1182936}, {"type": "node", "id": 327497014, "lat": 42.4061255, "lon": -71.1183195}, {"type": "node", "id": 327497015, "lat": 42.4061232, "lon": -71.1183143}, {"type": "node", "id": 327497016, "lat": 42.4061201, "lon": -71.1183075}, {"type": "node", "id": 327497018, "lat": 42.4061168, "lon": -71.1183009}, {"type": "node", "id": 327497019, "lat": 42.4061134, "lon": -71.1182945}, {"type": "node", "id": 327497021, "lat": 42.4061097, "lon": -71.1182882}, {"type": "node", "id": 327497022, "lat": 42.4061059, "lon": -71.1182822}, {"type": "node", "id": 327497023, "lat": 42.406102, "lon": -71.1182762}, {"type": "node", "id": 327497025, "lat": 42.4060979, "lon": -71.1182706}, {"type": "node", "id": 327497027, "lat": 42.4060937, "lon": -71.118265}, {"type": "node", "id": 327497028, "lat": 42.4060893, "lon": -71.1182597}, {"type": "node", "id": 327497030, "lat": 42.4060848, "lon": -71.1182546}, {"type": "node", "id": 327497031, "lat": 42.4060802, "lon": -71.1182498}, {"type": "node", "id": 327497032, "lat": 42.4060754, "lon": -71.1182451}, {"type": "node", "id": 327497034, "lat": 42.4060705, "lon": -71.1182406}, {"type": "node", "id": 327497035, "lat": 42.4060655, "lon": -71.1182364}, {"type": "node", "id": 327497037, "lat": 42.4060605, "lon": -71.1182324}, {"type": "node", "id": 327497038, "lat": 42.4060552, "lon": -71.1182287}, {"type": "node", "id": 327497040, "lat": 42.40605, "lon": -71.1182252}, {"type": "node", "id": 327497041, "lat": 42.4060446, "lon": -71.118222}, {"type": "node", "id": 327497042, "lat": 42.4060392, "lon": -71.118219}, {"type": "node", "id": 327497044, "lat": 42.4060336, "lon": -71.1182163}, {"type": "node", "id": 327497045, "lat": 42.406028, "lon": -71.1182139}, {"type": "node", "id": 327497046, "lat": 42.4060224, "lon": -71.1182116}, {"type": "node", "id": 327497048, "lat": 42.4060167, "lon": -71.1182097}, {"type": "node", "id": 327497050, "lat": 42.4060109, "lon": -71.118208}, {"type": "node", "id": 327497051, "lat": 42.4060051, "lon": -71.1182067}, {"type": "node", "id": 327497052, "lat": 42.4059993, "lon": -71.1182055}, {"type": "node", "id": 327497054, "lat": 42.4059934, "lon": -71.1182047}, {"type": "node", "id": 327497055, "lat": 42.4059876, "lon": -71.1182042}, {"type": "node", "id": 327497056, "lat": 42.4059817, "lon": -71.118204}, {"type": "node", "id": 327497057, "lat": 42.4059759, "lon": -71.1182039}, {"type": "node", "id": 327497058, "lat": 42.4059699, "lon": -71.1182041}, {"type": "node", "id": 327497059, "lat": 42.4059641, "lon": -71.1182048}, {"type": "node", "id": 327497060, "lat": 42.4059582, "lon": -71.1182056}, {"type": "node", "id": 327497061, "lat": 42.4059524, "lon": -71.1182067}, {"type": "node", "id": 327497062, "lat": 42.4059466, "lon": -71.1182081}, {"type": "node", "id": 327497063, "lat": 42.4059409, "lon": -71.1182097}, {"type": "node", "id": 327497064, "lat": 42.4059351, "lon": -71.1182116}, {"type": "node", "id": 327497065, "lat": 42.4059295, "lon": -71.1182137}, {"type": "node", "id": 327497066, "lat": 42.4059239, "lon": -71.1182162}, {"type": "node", "id": 327497068, "lat": 42.4059184, "lon": -71.1182189}, {"type": "node", "id": 327497069, "lat": 42.4059129, "lon": -71.118222}, {"type": "node", "id": 327497072, "lat": 42.4059022, "lon": -71.1182286}, {"type": "node", "id": 327497074, "lat": 42.4058971, "lon": -71.1182324}, {"type": "node", "id": 327497075, "lat": 42.405892, "lon": -71.1182363}, {"type": "node", "id": 327497077, "lat": 42.4058869, "lon": -71.1182405}, {"type": "node", "id": 327497078, "lat": 42.4058821, "lon": -71.118245}, {"type": "node", "id": 327497080, "lat": 42.4058773, "lon": -71.1182497}, {"type": "node", "id": 327497082, "lat": 42.4058727, "lon": -71.1182545}, {"type": "node", "id": 327497083, "lat": 42.4058682, "lon": -71.1182597}, {"type": "node", "id": 327497084, "lat": 42.4058638, "lon": -71.1182649}, {"type": "node", "id": 327497086, "lat": 42.4058596, "lon": -71.1182704}, {"type": "node", "id": 327497087, "lat": 42.4058555, "lon": -71.1182761}, {"type": "node", "id": 327497089, "lat": 42.4058515, "lon": -71.118282}, {"type": "node", "id": 327497090, "lat": 42.4058478, "lon": -71.1182881}, {"type": "node", "id": 327497092, "lat": 42.4058442, "lon": -71.1182944}, {"type": "node", "id": 327497093, "lat": 42.4058407, "lon": -71.1183008}, {"type": "node", "id": 327497094, "lat": 42.4058374, "lon": -71.1183074}, {"type": "node", "id": 327497096, "lat": 42.4058342, "lon": -71.1183141}, {"type": "node", "id": 327497098, "lat": 42.4058313, "lon": -71.118321}, {"type": "node", "id": 327497099, "lat": 42.4058285, "lon": -71.1183279}, {"type": "node", "id": 327497101, "lat": 42.4058259, "lon": -71.1183351}, {"type": "node", "id": 327497103, "lat": 42.4058236, "lon": -71.1183424}, {"type": "node", "id": 327497104, "lat": 42.4058214, "lon": -71.1183497}, {"type": "node", "id": 327497105, "lat": 42.4058194, "lon": -71.1183571}, {"type": "node", "id": 327497107, "lat": 42.4058176, "lon": -71.1183647}, {"type": "node", "id": 327497109, "lat": 42.4058159, "lon": -71.1183724}, {"type": "node", "id": 327497110, "lat": 42.4058145, "lon": -71.11838}, {"type": "node", "id": 327497112, "lat": 42.4058132, "lon": -71.1183878}, {"type": "node", "id": 327497114, "lat": 42.4058123, "lon": -71.1183957}, {"type": "node", "id": 327497115, "lat": 42.4058114, "lon": -71.1184035}, {"type": "node", "id": 327497117, "lat": 42.4058108, "lon": -71.1184114}, {"type": "node", "id": 327497118, "lat": 42.4058104, "lon": -71.1184193}, {"type": "node", "id": 327497119, "lat": 42.4058102, "lon": -71.1184273}, {"type": "node", "id": 327497121, "lat": 42.4058102, "lon": -71.1184352}, {"type": "node", "id": 327497122, "lat": 42.4058104, "lon": -71.1184431}, {"type": "node", "id": 327497124, "lat": 42.4058108, "lon": -71.1184511}, {"type": "node", "id": 327497125, "lat": 42.4058114, "lon": -71.118459}, {"type": "node", "id": 327497127, "lat": 42.4058122, "lon": -71.1184668}, {"type": "node", "id": 327497128, "lat": 42.4058133, "lon": -71.1184747}, {"type": "node", "id": 327497130, "lat": 42.4058145, "lon": -71.1184824}, {"type": "node", "id": 327497131, "lat": 42.4058159, "lon": -71.1184901}, {"type": "node", "id": 327497133, "lat": 42.4058175, "lon": -71.1184977}, {"type": "node", "id": 327497134, "lat": 42.4058193, "lon": -71.1185052}, {"type": "node", "id": 327497135, "lat": 42.4058213, "lon": -71.1185127}, {"type": "node", "id": 327497137, "lat": 42.4058235, "lon": -71.1185201}, {"type": "node", "id": 327497138, "lat": 42.4058259, "lon": -71.1185273}, {"type": "node", "id": 327504936, "lat": 42.3704699, "lon": -71.1169817}, {"type": "node", "id": 327507676, "lat": 42.3761465, "lon": -71.1243948}, {"type": "node", "id": 327508846, "lat": 42.3762283, "lon": -71.124019}, {"type": "node", "id": 327510668, "lat": 42.3510934, "lon": -71.1083451}, {"type": "node", "id": 327511875, "lat": 42.3764205, "lon": -71.1240517}, {"type": "node", "id": 327512461, "lat": 42.3763984, "lon": -71.1237025}, {"type": "node", "id": 327513904, "lat": 42.3087231, "lon": -71.1148152}, {"type": "node", "id": 327518466, "lat": 42.3764677, "lon": -71.1241145}, {"type": "node", "id": 327518722, "lat": 42.3510793, "lon": -71.1082409}, {"type": "node", "id": 327524950, "lat": 42.3511623, "lon": -71.1082214}, {"type": "node", "id": 327532198, "lat": 42.3764598, "lon": -71.1240702}, {"type": "node", "id": 327533792, "lat": 42.3085806, "lon": -71.1148254}, {"type": "node", "id": 327534061, "lat": 42.3764987, "lon": -71.1237497}, {"type": "node", "id": 327540979, "lat": 42.3762872, "lon": -71.1240709}, {"type": "node", "id": 327541433, "lat": 42.3764486, "lon": -71.1241882}, {"type": "node", "id": 327541777, "lat": 42.3085855, "lon": -71.1151255}, {"type": "node", "id": 327543216, "lat": 42.3506048, "lon": -71.1081307}, {"type": "node", "id": 327553450, "lat": 42.3085891, "lon": -71.1149606}, {"type": "node", "id": 327554405, "lat": 42.3763445, "lon": -71.124098}, {"type": "node", "id": 328010310, "lat": 42.3672299, "lon": -71.1868694}, {"type": "node", "id": 328010311, "lat": 42.3673061, "lon": -71.1869851}, {"type": "node", "id": 328010312, "lat": 42.3673801, "lon": -71.1868964}, {"type": "node", "id": 328010313, "lat": 42.367405, "lon": -71.1869341}, {"type": "node", "id": 328010315, "lat": 42.3674419, "lon": -71.18689}, {"type": "node", "id": 328010316, "lat": 42.3674895, "lon": -71.1869622}, {"type": "node", "id": 328010317, "lat": 42.3674655, "lon": -71.1869911}, {"type": "node", "id": 328010319, "lat": 42.3675121, "lon": -71.1870618}, {"type": "node", "id": 328010320, "lat": 42.3675346, "lon": -71.1870349}, {"type": "node", "id": 328010321, "lat": 42.3675605, "lon": -71.1870742}, {"type": "node", "id": 328010323, "lat": 42.367539, "lon": -71.1871}, {"type": "node", "id": 328010324, "lat": 42.3675822, "lon": -71.1871654}, {"type": "node", "id": 328010326, "lat": 42.3676049, "lon": -71.1871381}, {"type": "node", "id": 328010328, "lat": 42.3676119, "lon": -71.187142}, {"type": "node", "id": 328010330, "lat": 42.367616, "lon": -71.1871432}, {"type": "node", "id": 328010332, "lat": 42.3676203, "lon": -71.1871438}, {"type": "node", "id": 328010333, "lat": 42.3676246, "lon": -71.1871438}, {"type": "node", "id": 328010334, "lat": 42.3676288, "lon": -71.1871429}, {"type": "node", "id": 328010336, "lat": 42.367633, "lon": -71.1871415}, {"type": "node", "id": 328010337, "lat": 42.3676369, "lon": -71.1871392}, {"type": "node", "id": 328010338, "lat": 42.3676407, "lon": -71.1871364}, {"type": "node", "id": 328010340, "lat": 42.3676441, "lon": -71.187133}, {"type": "node", "id": 328010341, "lat": 42.3676472, "lon": -71.1871291}, {"type": "node", "id": 328010342, "lat": 42.36765, "lon": -71.1871246}, {"type": "node", "id": 328010344, "lat": 42.3676524, "lon": -71.1871199}, {"type": "node", "id": 328010345, "lat": 42.3676542, "lon": -71.1871146}, {"type": "node", "id": 328010347, "lat": 42.3676556, "lon": -71.1871092}, {"type": "node", "id": 328010349, "lat": 42.3676564, "lon": -71.1871035}, {"type": "node", "id": 328010352, "lat": 42.3676569, "lon": -71.1870978}, {"type": "node", "id": 328010353, "lat": 42.3676567, "lon": -71.1870919}, {"type": "node", "id": 328010354, "lat": 42.367656, "lon": -71.1870862}, {"type": "node", "id": 328010357, "lat": 42.3676549, "lon": -71.1870808}, {"type": "node", "id": 328010358, "lat": 42.3676531, "lon": -71.1870754}, {"type": "node", "id": 328010367, "lat": 42.3678882, "lon": -71.1868101}, {"type": "node", "id": 328010370, "lat": 42.3677406, "lon": -71.1865754}, {"type": "node", "id": 328010371, "lat": 42.367698, "lon": -71.1866196}, {"type": "node", "id": 328010373, "lat": 42.3675949, "lon": -71.186452}, {"type": "node", "id": 328010375, "lat": 42.3675761, "lon": -71.1864748}, {"type": "node", "id": 328028566, "lat": 42.3426363, "lon": -71.1634386}, {"type": "node", "id": 328028568, "lat": 42.342748, "lon": -71.1639847}, {"type": "node", "id": 328028570, "lat": 42.3431487, "lon": -71.1638357}, {"type": "node", "id": 328028573, "lat": 42.343037, "lon": -71.1632896}, {"type": "node", "id": 328085977, "lat": 42.336476, "lon": -71.105003}, {"type": "node", "id": 328089588, "lat": 42.3352193, "lon": -71.1033236}, {"type": "node", "id": 328095179, "lat": 42.3365772, "lon": -71.1051685}, {"type": "node", "id": 328100761, "lat": 42.3350571, "lon": -71.1040161}, {"type": "node", "id": 328100977, "lat": 42.3365539, "lon": -71.1051069}, {"type": "node", "id": 328104418, "lat": 42.3858019, "lon": -71.0941313}, {"type": "node", "id": 328105755, "lat": 42.3353961, "lon": -71.1037749}, {"type": "node", "id": 328106688, "lat": 42.3366024, "lon": -71.1052915}, {"type": "node", "id": 328137738, "lat": 42.3365233, "lon": -71.1051278}, {"type": "node", "id": 328154763, "lat": 42.3856123, "lon": -71.0942682}, {"type": "node", "id": 328181949, "lat": 42.3857743, "lon": -71.0946794}, {"type": "node", "id": 328188527, "lat": 42.3365602, "lon": -71.1051801}, {"type": "node", "id": 328193325, "lat": 42.3348804, "lon": -71.1035647}, {"type": "node", "id": 328200941, "lat": 42.3367532, "lon": -71.1048122}, {"type": "node", "id": 328209259, "lat": 42.336866, "lon": -71.10511}, {"type": "node", "id": 328213694, "lat": 42.3859639, "lon": -71.0945426}, {"type": "node", "id": 328290924, "lat": 42.3616583, "lon": -71.0651903}, {"type": "node", "id": 328301702, "lat": 42.3616407, "lon": -71.0650168}, {"type": "node", "id": 328306884, "lat": 42.3616613, "lon": -71.0650174}, {"type": "node", "id": 328316269, "lat": 42.3616629, "lon": -71.0649667}, {"type": "node", "id": 328327598, "lat": 42.3616036, "lon": -71.0648227}, {"type": "node", "id": 328400042, "lat": 42.3614838, "lon": -71.064818}, {"type": "node", "id": 328433850, "lat": 42.3540646, "lon": -71.0748322}, {"type": "node", "id": 328457936, "lat": 42.3541223, "lon": -71.074618}, {"type": "node", "id": 328525280, "lat": 42.3512212, "lon": -71.1679682}, {"type": "node", "id": 328525282, "lat": 42.3512902, "lon": -71.1680057}, {"type": "node", "id": 328525284, "lat": 42.3512974, "lon": -71.1679815}, {"type": "node", "id": 328525287, "lat": 42.3513598, "lon": -71.1680154}, {"type": "node", "id": 328525289, "lat": 42.3514086, "lon": -71.1678523}, {"type": "node", "id": 328525291, "lat": 42.35148, "lon": -71.1678617}, {"type": "node", "id": 328525293, "lat": 42.351487, "lon": -71.1677663}, {"type": "node", "id": 328525296, "lat": 42.3512894, "lon": -71.1677399}, {"type": "node", "id": 328598308, "lat": 42.350785, "lon": -71.1080868}, {"type": "node", "id": 328601964, "lat": 42.3763593, "lon": -71.1243543}, {"type": "node", "id": 328604494, "lat": 42.3763213, "lon": -71.1241877}, {"type": "node", "id": 328604726, "lat": 42.3764504, "lon": -71.1241064}, {"type": "node", "id": 328605119, "lat": 42.3085759, "lon": -71.1149597}, {"type": "node", "id": 328606080, "lat": 42.3087025, "lon": -71.1146949}, {"type": "node", "id": 328606285, "lat": 42.3508109, "lon": -71.1083062}, {"type": "node", "id": 328611913, "lat": 42.3764294, "lon": -71.1241791}, {"type": "node", "id": 328613711, "lat": 42.3086984, "lon": -71.1148137}, {"type": "node", "id": 328617185, "lat": 42.3704313, "lon": -71.1168624}, {"type": "node", "id": 328618703, "lat": 42.3833167, "lon": -71.1327241}, {"type": "node", "id": 328620533, "lat": 42.3507475, "lon": -71.107759}, {"type": "node", "id": 328621210, "lat": 42.3763535, "lon": -71.1243766}, {"type": "node", "id": 328621344, "lat": 42.3761542, "lon": -71.1243049}, {"type": "node", "id": 328622537, "lat": 42.3703392, "lon": -71.1169167}, {"type": "node", "id": 328623896, "lat": 42.3832504, "lon": -71.1325821}, {"type": "node", "id": 328625684, "lat": 42.3762651, "lon": -71.1243544}, {"type": "node", "id": 328626364, "lat": 42.376168, "lon": -71.1243115}, {"type": "node", "id": 328629113, "lat": 42.3507245, "lon": -71.1083229}, {"type": "node", "id": 328629277, "lat": 42.3834311, "lon": -71.1324287}, {"type": "node", "id": 328629812, "lat": 42.3509094, "lon": -71.1077275}, {"type": "node", "id": 328631651, "lat": 42.3086892, "lon": -71.1151321}, {"type": "node", "id": 328631757, "lat": 42.3763814, "lon": -71.1243646}, {"type": "node", "id": 328634839, "lat": 42.3834974, "lon": -71.1325706}, {"type": "node", "id": 328635540, "lat": 42.3506335, "lon": -71.1083451}, {"type": "node", "id": 328636601, "lat": 42.351322, "lon": -71.1076558}, {"type": "node", "id": 328637703, "lat": 42.3763295, "lon": -71.1243653}, {"type": "node", "id": 328638277, "lat": 42.3703778, "lon": -71.1170359}, {"type": "node", "id": 328639113, "lat": 42.3762639, "lon": -71.1241608}, {"type": "node", "id": 329016400, "lat": 42.3602631, "lon": -71.1281661}, {"type": "node", "id": 329071353, "lat": 42.3436508, "lon": -71.1189927}, {"type": "node", "id": 329071878, "lat": 42.3601837, "lon": -71.1280677}, {"type": "node", "id": 329078660, "lat": 42.3603434, "lon": -71.1280482}, {"type": "node", "id": 329079330, "lat": 42.3436962, "lon": -71.1190395}, {"type": "node", "id": 329081845, "lat": 42.3600873, "lon": -71.1279426}, {"type": "node", "id": 329087294, "lat": 42.3436437, "lon": -71.119076}, {"type": "node", "id": 329090585, "lat": 42.3602312, "lon": -71.1283885}, {"type": "node", "id": 329090813, "lat": 42.3601692, "lon": -71.1278271}, {"type": "node", "id": 329094925, "lat": 42.3434562, "lon": -71.1194719}, {"type": "node", "id": 329098531, "lat": 42.360328, "lon": -71.1282465}, {"type": "node", "id": 329102787, "lat": 42.3437765, "lon": -71.1192497}, {"type": "node", "id": 329106781, "lat": 42.3640634, "lon": -71.1038883}, {"type": "node", "id": 329455569, "lat": 42.325147, "lon": -71.1900128}, {"type": "node", "id": 329455990, "lat": 42.3254069, "lon": -71.1900671}, {"type": "node", "id": 329477212, "lat": 42.3251536, "lon": -71.1903265}, {"type": "node", "id": 329485835, "lat": 42.3252662, "lon": -71.1901843}, {"type": "node", "id": 329595982, "lat": 42.3252749, "lon": -71.1898512}, {"type": "node", "id": 329600106, "lat": 42.3254987, "lon": -71.1901991}, {"type": "node", "id": 329695929, "lat": 42.3433691, "lon": -71.1192438}, {"type": "node", "id": 329696383, "lat": 42.3433838, "lon": -71.1189971}, {"type": "node", "id": 329697123, "lat": 42.3980117, "lon": -71.1216873}, {"type": "node", "id": 329697784, "lat": 42.3603696, "lon": -71.1280807}, {"type": "node", "id": 329701423, "lat": 42.3980738, "lon": -71.1218728}, {"type": "node", "id": 329701714, "lat": 42.3604451, "lon": -71.1279698}, {"type": "node", "id": 329702408, "lat": 42.3602655, "lon": -71.1279522}, {"type": "node", "id": 329704434, "lat": 42.343448, "lon": -71.1189816}, {"type": "node", "id": 329706088, "lat": 42.398237, "lon": -71.1217733}, {"type": "node", "id": 329708506, "lat": 42.3434388, "lon": -71.1190208}, {"type": "node", "id": 329711645, "lat": 42.3981739, "lon": -71.1215848}, {"type": "node", "id": 329713390, "lat": 42.3434204, "lon": -71.1188938}, {"type": "node", "id": 329718936, "lat": 42.3434041, "lon": -71.1189627}, {"type": "node", "id": 329720842, "lat": 42.3981228, "lon": -71.1216158}, {"type": "node", "id": 329724603, "lat": 42.325268, "lon": -71.1904907}, {"type": "node", "id": 329728563, "lat": 42.325383, "lon": -71.1900972}, {"type": "node", "id": 329735836, "lat": 42.3253828, "lon": -71.1900063}, {"type": "node", "id": 329740060, "lat": 42.3253493, "lon": -71.1900487}, {"type": "node", "id": 329781751, "lat": 42.3434713, "lon": -71.1188383}, {"type": "node", "id": 329783697, "lat": 42.3981119, "lon": -71.1215832}, {"type": "node", "id": 329785494, "lat": 42.3600093, "lon": -71.1281922}, {"type": "node", "id": 329785768, "lat": 42.3434547, "lon": -71.1189085}, {"type": "node", "id": 329786466, "lat": 42.3638798, "lon": -71.1040254}, {"type": "node", "id": 329787784, "lat": 42.3980494, "lon": -71.1216213}, {"type": "node", "id": 329789061, "lat": 42.3600377, "lon": -71.1281482}, {"type": "node", "id": 329789490, "lat": 42.3435673, "lon": -71.1189568}, {"type": "node", "id": 329790038, "lat": 42.3637243, "lon": -71.1037436}, {"type": "node", "id": 329792895, "lat": 42.3435839, "lon": -71.1188868}, {"type": "node", "id": 329794760, "lat": 42.3640367, "lon": -71.1039162}, {"type": "node", "id": 329795193, "lat": 42.3598095, "lon": -71.1279264}, {"type": "node", "id": 329796748, "lat": 42.3436359, "lon": -71.1190556}, {"type": "node", "id": 329797931, "lat": 42.3980614, "lon": -71.1216571}, {"type": "node", "id": 329798290, "lat": 42.3640176, "lon": -71.1038826}, {"type": "node", "id": 329850414, "lat": 42.4165431, "lon": -71.0465709}, {"type": "node", "id": 329850415, "lat": 42.4166096, "lon": -71.0467178}, {"type": "node", "id": 329850416, "lat": 42.4167024, "lon": -71.0466484}, {"type": "node", "id": 329850417, "lat": 42.4167036, "lon": -71.0466514}, {"type": "node", "id": 329850418, "lat": 42.4167477, "lon": -71.0466142}, {"type": "node", "id": 329850419, "lat": 42.4167461, "lon": -71.0466104}, {"type": "node", "id": 329850421, "lat": 42.4168451, "lon": -71.0465645}, {"type": "node", "id": 329850422, "lat": 42.4167596, "lon": -71.0463931}, {"type": "node", "id": 329914667, "lat": 42.3158562, "lon": -71.0335893}, {"type": "node", "id": 329914668, "lat": 42.3158564, "lon": -71.0335961}, {"type": "node", "id": 329914669, "lat": 42.3158567, "lon": -71.0336028}, {"type": "node", "id": 329914670, "lat": 42.3158572, "lon": -71.0336096}, {"type": "node", "id": 329914671, "lat": 42.3158579, "lon": -71.0336162}, {"type": "node", "id": 329914672, "lat": 42.3158587, "lon": -71.0336228}, {"type": "node", "id": 329914673, "lat": 42.3158597, "lon": -71.0336294}, {"type": "node", "id": 329914674, "lat": 42.3158609, "lon": -71.033636}, {"type": "node", "id": 329914675, "lat": 42.3158622, "lon": -71.0336424}, {"type": "node", "id": 329914676, "lat": 42.3158638, "lon": -71.0336488}, {"type": "node", "id": 329914677, "lat": 42.3158655, "lon": -71.0336552}, {"type": "node", "id": 329914678, "lat": 42.3158673, "lon": -71.0336614}, {"type": "node", "id": 329914679, "lat": 42.3158693, "lon": -71.0336676}, {"type": "node", "id": 329914680, "lat": 42.3158715, "lon": -71.0336738}, {"type": "node", "id": 329914681, "lat": 42.3158738, "lon": -71.0336797}, {"type": "node", "id": 329914682, "lat": 42.3158763, "lon": -71.0336855}, {"type": "node", "id": 329914683, "lat": 42.315879, "lon": -71.0336913}, {"type": "node", "id": 329914684, "lat": 42.3158817, "lon": -71.0336969}, {"type": "node", "id": 329914685, "lat": 42.3158846, "lon": -71.0337023}, {"type": "node", "id": 329914686, "lat": 42.3158877, "lon": -71.0337076}, {"type": "node", "id": 329914687, "lat": 42.3158909, "lon": -71.0337128}, {"type": "node", "id": 329914688, "lat": 42.3158942, "lon": -71.0337179}, {"type": "node", "id": 329914689, "lat": 42.3158977, "lon": -71.0337227}, {"type": "node", "id": 329914690, "lat": 42.3159013, "lon": -71.0337274}, {"type": "node", "id": 329914691, "lat": 42.315905, "lon": -71.033732}, {"type": "node", "id": 329914692, "lat": 42.3159088, "lon": -71.0337363}, {"type": "node", "id": 329914693, "lat": 42.3159127, "lon": -71.0337405}, {"type": "node", "id": 329914694, "lat": 42.3159167, "lon": -71.0337445}, {"type": "node", "id": 329914695, "lat": 42.3159209, "lon": -71.0337482}, {"type": "node", "id": 329914696, "lat": 42.3159251, "lon": -71.0337518}, {"type": "node", "id": 329914697, "lat": 42.3159294, "lon": -71.0337552}, {"type": "node", "id": 329914698, "lat": 42.3159338, "lon": -71.0337585}, {"type": "node", "id": 329914699, "lat": 42.3159383, "lon": -71.0337615}, {"type": "node", "id": 329914700, "lat": 42.3159428, "lon": -71.0337642}, {"type": "node", "id": 329914701, "lat": 42.3159474, "lon": -71.0337667}, {"type": "node", "id": 329914702, "lat": 42.3159521, "lon": -71.0337691}, {"type": "node", "id": 329914703, "lat": 42.3159569, "lon": -71.0337711}, {"type": "node", "id": 329914704, "lat": 42.3159617, "lon": -71.033773}, {"type": "node", "id": 329914705, "lat": 42.3159666, "lon": -71.0337747}, {"type": "node", "id": 329914706, "lat": 42.3159714, "lon": -71.0337761}, {"type": "node", "id": 329914707, "lat": 42.3159764, "lon": -71.0337774}, {"type": "node", "id": 329914708, "lat": 42.3159813, "lon": -71.0337784}, {"type": "node", "id": 329914709, "lat": 42.3159863, "lon": -71.0337791}, {"type": "node", "id": 329914710, "lat": 42.3159912, "lon": -71.0337796}, {"type": "node", "id": 329914711, "lat": 42.3159963, "lon": -71.0337798}, {"type": "node", "id": 329914712, "lat": 42.3160012, "lon": -71.0337799}, {"type": "node", "id": 329914713, "lat": 42.3160063, "lon": -71.0337796}, {"type": "node", "id": 329914714, "lat": 42.3160112, "lon": -71.0337792}, {"type": "node", "id": 329914715, "lat": 42.3160163, "lon": -71.0337786}, {"type": "node", "id": 329914716, "lat": 42.3160212, "lon": -71.0337777}, {"type": "node", "id": 329914717, "lat": 42.3160261, "lon": -71.0337765}, {"type": "node", "id": 329914718, "lat": 42.316031, "lon": -71.0337751}, {"type": "node", "id": 329914719, "lat": 42.3160359, "lon": -71.0337736}, {"type": "node", "id": 329914720, "lat": 42.3160406, "lon": -71.0337717}, {"type": "node", "id": 329914721, "lat": 42.3160454, "lon": -71.0337696}, {"type": "node", "id": 329914722, "lat": 42.3160502, "lon": -71.0337674}, {"type": "node", "id": 329914723, "lat": 42.3160548, "lon": -71.0337648}, {"type": "node", "id": 329914724, "lat": 42.3160593, "lon": -71.0337621}, {"type": "node", "id": 329914725, "lat": 42.3160639, "lon": -71.0337593}, {"type": "node", "id": 329914726, "lat": 42.3160683, "lon": -71.0337561}, {"type": "node", "id": 329914727, "lat": 42.3160726, "lon": -71.0337528}, {"type": "node", "id": 329914728, "lat": 42.3160769, "lon": -71.0337493}, {"type": "node", "id": 329914729, "lat": 42.3160811, "lon": -71.0337455}, {"type": "node", "id": 329914730, "lat": 42.3160851, "lon": -71.0337416}, {"type": "node", "id": 329914736, "lat": 42.3160362, "lon": -71.0345525}, {"type": "node", "id": 329914737, "lat": 42.3161398, "lon": -71.0344351}, {"type": "node", "id": 329914738, "lat": 42.3161439, "lon": -71.0344405}, {"type": "node", "id": 329914739, "lat": 42.3161483, "lon": -71.0344457}, {"type": "node", "id": 329914740, "lat": 42.3161527, "lon": -71.0344508}, {"type": "node", "id": 329914741, "lat": 42.3161572, "lon": -71.0344556}, {"type": "node", "id": 329914742, "lat": 42.3161619, "lon": -71.0344602}, {"type": "node", "id": 329914743, "lat": 42.3161667, "lon": -71.0344646}, {"type": "node", "id": 329914744, "lat": 42.3161717, "lon": -71.0344687}, {"type": "node", "id": 329914745, "lat": 42.3161767, "lon": -71.0344727}, {"type": "node", "id": 329914746, "lat": 42.3161818, "lon": -71.0344764}, {"type": "node", "id": 329914747, "lat": 42.316187, "lon": -71.0344798}, {"type": "node", "id": 329914748, "lat": 42.3161923, "lon": -71.034483}, {"type": "node", "id": 329914749, "lat": 42.3161977, "lon": -71.034486}, {"type": "node", "id": 329914750, "lat": 42.3162031, "lon": -71.0344886}, {"type": "node", "id": 329914751, "lat": 42.3162087, "lon": -71.0344911}, {"type": "node", "id": 329914752, "lat": 42.3162142, "lon": -71.0344933}, {"type": "node", "id": 329914753, "lat": 42.3162199, "lon": -71.0344952}, {"type": "node", "id": 329914754, "lat": 42.3162255, "lon": -71.0344968}, {"type": "node", "id": 329914755, "lat": 42.3162312, "lon": -71.0344981}, {"type": "node", "id": 329914756, "lat": 42.316237, "lon": -71.0344993}, {"type": "node", "id": 329914757, "lat": 42.3162428, "lon": -71.0345001}, {"type": "node", "id": 329914758, "lat": 42.3162485, "lon": -71.0345007}, {"type": "node", "id": 329914759, "lat": 42.3162544, "lon": -71.034501}, {"type": "node", "id": 329914760, "lat": 42.3162601, "lon": -71.0345009}, {"type": "node", "id": 329914761, "lat": 42.316266, "lon": -71.0345007}, {"type": "node", "id": 329914762, "lat": 42.3162717, "lon": -71.0345001}, {"type": "node", "id": 329914763, "lat": 42.3162775, "lon": -71.0344994}, {"type": "node", "id": 329914764, "lat": 42.3162833, "lon": -71.0344983}, {"type": "node", "id": 329914765, "lat": 42.316289, "lon": -71.034497}, {"type": "node", "id": 329914766, "lat": 42.3162947, "lon": -71.0344953}, {"type": "node", "id": 329914767, "lat": 42.3163003, "lon": -71.0344935}, {"type": "node", "id": 329914768, "lat": 42.3163059, "lon": -71.0344913}, {"type": "node", "id": 329914769, "lat": 42.3163114, "lon": -71.0344889}, {"type": "node", "id": 329914770, "lat": 42.3163169, "lon": -71.0344862}, {"type": "node", "id": 329914771, "lat": 42.3163223, "lon": -71.0344834}, {"type": "node", "id": 329914772, "lat": 42.3163276, "lon": -71.0344802}, {"type": "node", "id": 329914773, "lat": 42.3163328, "lon": -71.0344767}, {"type": "node", "id": 329914774, "lat": 42.3163379, "lon": -71.0344731}, {"type": "node", "id": 329914775, "lat": 42.3163429, "lon": -71.0344692}, {"type": "node", "id": 329914776, "lat": 42.3163479, "lon": -71.0344651}, {"type": "node", "id": 329914777, "lat": 42.3163551, "lon": -71.0344584}, {"type": "node", "id": 329914779, "lat": 42.3165059, "lon": -71.0340961}, {"type": "node", "id": 329914780, "lat": 42.3164019, "lon": -71.0338951}, {"type": "node", "id": 329914781, "lat": 42.3164173, "lon": -71.0336419}, {"type": "node", "id": 329914800, "lat": 42.3161046, "lon": -71.0334559}, {"type": "node", "id": 329914801, "lat": 42.3161012, "lon": -71.033451}, {"type": "node", "id": 329914802, "lat": 42.3160977, "lon": -71.0334463}, {"type": "node", "id": 329914803, "lat": 42.316094, "lon": -71.0334418}, {"type": "node", "id": 329914804, "lat": 42.3160901, "lon": -71.0334374}, {"type": "node", "id": 329914805, "lat": 42.3160862, "lon": -71.0334333}, {"type": "node", "id": 329914806, "lat": 42.3160821, "lon": -71.0334293}, {"type": "node", "id": 329914807, "lat": 42.316078, "lon": -71.0334255}, {"type": "node", "id": 329914808, "lat": 42.3160738, "lon": -71.0334219}, {"type": "node", "id": 329914809, "lat": 42.3160695, "lon": -71.0334185}, {"type": "node", "id": 329914810, "lat": 42.316065, "lon": -71.0334153}, {"type": "node", "id": 329914811, "lat": 42.3160606, "lon": -71.0334124}, {"type": "node", "id": 329914812, "lat": 42.316056, "lon": -71.0334095}, {"type": "node", "id": 329914813, "lat": 42.3160514, "lon": -71.033407}, {"type": "node", "id": 329914814, "lat": 42.3160467, "lon": -71.0334047}, {"type": "node", "id": 329914815, "lat": 42.3160419, "lon": -71.0334026}, {"type": "node", "id": 329914816, "lat": 42.3160372, "lon": -71.0334007}, {"type": "node", "id": 329914817, "lat": 42.3160323, "lon": -71.033399}, {"type": "node", "id": 329914818, "lat": 42.3160274, "lon": -71.0333976}, {"type": "node", "id": 329914819, "lat": 42.3160226, "lon": -71.0333964}, {"type": "node", "id": 329914820, "lat": 42.3160176, "lon": -71.0333954}, {"type": "node", "id": 329914821, "lat": 42.3160126, "lon": -71.0333947}, {"type": "node", "id": 329914822, "lat": 42.3160076, "lon": -71.0333942}, {"type": "node", "id": 329914823, "lat": 42.3160026, "lon": -71.0333939}, {"type": "node", "id": 329914824, "lat": 42.3159976, "lon": -71.0333939}, {"type": "node", "id": 329914825, "lat": 42.3159927, "lon": -71.0333941}, {"type": "node", "id": 329914826, "lat": 42.3159876, "lon": -71.0333945}, {"type": "node", "id": 329914827, "lat": 42.3159827, "lon": -71.0333953}, {"type": "node", "id": 329914828, "lat": 42.3159777, "lon": -71.0333962}, {"type": "node", "id": 329914829, "lat": 42.3159728, "lon": -71.0333973}, {"type": "node", "id": 329914830, "lat": 42.3159679, "lon": -71.0333987}, {"type": "node", "id": 329914831, "lat": 42.315963, "lon": -71.0334003}, {"type": "node", "id": 329914832, "lat": 42.3159582, "lon": -71.033402}, {"type": "node", "id": 329914833, "lat": 42.3159534, "lon": -71.0334041}, {"type": "node", "id": 329914834, "lat": 42.3159488, "lon": -71.0334064}, {"type": "node", "id": 329914835, "lat": 42.3159441, "lon": -71.0334089}, {"type": "node", "id": 329914836, "lat": 42.3159395, "lon": -71.0334116}, {"type": "node", "id": 329914837, "lat": 42.315935, "lon": -71.0334145}, {"type": "node", "id": 329914838, "lat": 42.3159305, "lon": -71.0334176}, {"type": "node", "id": 329914839, "lat": 42.3159262, "lon": -71.033421}, {"type": "node", "id": 329914840, "lat": 42.315922, "lon": -71.0334246}, {"type": "node", "id": 329914841, "lat": 42.3159178, "lon": -71.0334283}, {"type": "node", "id": 329914842, "lat": 42.3159138, "lon": -71.0334322}, {"type": "node", "id": 329914843, "lat": 42.3159098, "lon": -71.0334363}, {"type": "node", "id": 329914844, "lat": 42.315906, "lon": -71.0334406}, {"type": "node", "id": 329914845, "lat": 42.3159022, "lon": -71.0334451}, {"type": "node", "id": 329914846, "lat": 42.3158986, "lon": -71.0334497}, {"type": "node", "id": 329914847, "lat": 42.3158951, "lon": -71.0334546}, {"type": "node", "id": 329914848, "lat": 42.3158918, "lon": -71.0334596}, {"type": "node", "id": 329914849, "lat": 42.3158885, "lon": -71.0334647}, {"type": "node", "id": 329914850, "lat": 42.3158855, "lon": -71.03347}, {"type": "node", "id": 329914851, "lat": 42.3158825, "lon": -71.0334755}, {"type": "node", "id": 329914852, "lat": 42.3158797, "lon": -71.0334811}, {"type": "node", "id": 329914853, "lat": 42.315877, "lon": -71.0334867}, {"type": "node", "id": 329914854, "lat": 42.3158745, "lon": -71.0334925}, {"type": "node", "id": 329914855, "lat": 42.3158721, "lon": -71.0334985}, {"type": "node", "id": 329914856, "lat": 42.3158699, "lon": -71.0335045}, {"type": "node", "id": 329914857, "lat": 42.3158678, "lon": -71.0335106}, {"type": "node", "id": 329914858, "lat": 42.3158659, "lon": -71.0335168}, {"type": "node", "id": 329914859, "lat": 42.3158643, "lon": -71.0335231}, {"type": "node", "id": 329914860, "lat": 42.3158627, "lon": -71.0335296}, {"type": "node", "id": 329914861, "lat": 42.3158612, "lon": -71.033536}, {"type": "node", "id": 329914862, "lat": 42.31586, "lon": -71.0335426}, {"type": "node", "id": 329914863, "lat": 42.315859, "lon": -71.0335491}, {"type": "node", "id": 329914864, "lat": 42.3158581, "lon": -71.0335558}, {"type": "node", "id": 329914865, "lat": 42.3158574, "lon": -71.0335625}, {"type": "node", "id": 329914866, "lat": 42.3158568, "lon": -71.0335692}, {"type": "node", "id": 329914867, "lat": 42.3158565, "lon": -71.0335759}, {"type": "node", "id": 329914868, "lat": 42.3158562, "lon": -71.0335826}, {"type": "node", "id": 329914869, "lat": 42.3137374, "lon": -71.0398535}, {"type": "node", "id": 329914870, "lat": 42.3138224, "lon": -71.0397398}, {"type": "node", "id": 329914871, "lat": 42.313496, "lon": -71.0392195}, {"type": "node", "id": 329914872, "lat": 42.3134067, "lon": -71.0393202}, {"type": "node", "id": 329914874, "lat": 42.3134373, "lon": -71.0401793}, {"type": "node", "id": 367777481, "lat": 42.328983, "lon": -71.0956974, "tags": {"addr:state": "MA", "amenity": "library", "ele": "6", "name": "Roxbury Community College Learning Resources Center", "source": "USGS Geonames"}}, {"type": "node", "id": 367777946, "lat": 42.376964, "lon": -71.1170152, "tags": {"addr:state": "MA", "amenity": "library", "ele": "7", "gnis:county_name": "Middlesex", "gnis:feature_id": "1971201", "gnis:import_uuid": "57871b70-0100-4405-bb30-88b2e001a944", "gnis:reviewed": "no", "name": "Edna Kuhn Loeb Music Library", "source": "USGS Geonames"}}, {"type": "node", "id": 367777951, "lat": 42.3780016, "lon": -71.1170381, "tags": {"amenity": "library", "ele": "6", "gnis:county_name": "Middlesex", "gnis:feature_id": "1971004", "gnis:import_uuid": "57871b70-0100-4405-bb30-88b2e001a944", "gnis:reviewed": "no", "name": "McKay and Blue Hill Library", "source": "USGS Geonames"}}, {"type": "node", "id": 367777954, "lat": 42.3485174, "lon": -71.0993601, "tags": {"addr:state": "MA", "amenity": "library", "ele": "6", "gnis:county_name": "Middlesex", "gnis:feature_id": "1970960", "gnis:import_uuid": "57871b70-0100-4405-bb30-88b2e001a944", "gnis:reviewed": "no", "name": "Art Institute of Boston Library", "source": "USGS Geonames"}}, {"type": "node", "id": 367777960, "lat": 42.3418695, "lon": -71.1932226, "tags": {"addr:state": "MA", "amenity": "library", "ele": "45", "gnis:county_name": "Middlesex", "gnis:feature_id": "1948190", "gnis:import_uuid": "57871b70-0100-4405-bb30-88b2e001a944", "gnis:reviewed": "no", "name": "Boston College Law Library", "source": "USGS Geonames"}}, {"type": "node", "id": 367777961, "lat": 42.3363039, "lon": -71.1692911, "tags": {"addr:state": "MA", "amenity": "library", "ele": "48", "gnis:county_name": "Middlesex", "gnis:feature_id": "1948245", "gnis:import_uuid": "57871b70-0100-4405-bb30-88b2e001a944", "gnis:reviewed": "no", "name": "O'Neill Library", "source": "USGS Geonames"}}, {"type": "node", "id": 367777965, "lat": 42.3074545, "lon": -71.1209438, "tags": {"addr:state": "MA", "amenity": "library", "ele": "40", "gnis:county_name": "Suffolk", "gnis:feature_id": "1970957", "gnis:import_uuid": "57871b70-0100-4405-bb30-88b2e001a944", "gnis:reviewed": "no", "name": "Arnold Arboretum Horticulture Library", "source": "USGS Geonames", "toilets:wheelchair": "yes", "wheelchair": "yes", "wheelchair:description": "very tight for wheelchairs. JUST makes codes"}}, {"type": "node", "id": 367777969, "lat": 42.3366991, "lon": -71.1713782, "tags": {"addr:state": "MA", "amenity": "library", "ele": "65", "gnis:county_name": "Middlesex", "gnis:feature_id": "1948187", "gnis:import_uuid": "57871b70-0100-4405-bb30-88b2e001a944", "gnis:reviewed": "no", "name": "Bapst-Burns Library", "operator": "Boston College", "source": "USGS Geonames"}}, {"type": "node", "id": 367778000, "lat": 42.3746771, "lon": -71.1066974, "tags": {"addr:state": "MA", "amenity": "library", "ele": "4", "gnis:county_name": "Middlesex", "gnis:feature_id": "1971883", "gnis:import_uuid": "57871b70-0100-4405-bb30-88b2e001a944", "gnis:reviewed": "no", "name": "Youville Hospital School of Practical Nursing Library", "source": "USGS Geonames"}}, {"type": "node", "id": 367778007, "lat": 42.3785688, "lon": -71.1148047, "tags": {"addr:state": "MA", "amenity": "library", "ele": "6", "gnis:county_name": "Middlesex", "gnis:feature_id": "1971819", "gnis:import_uuid": "57871b70-0100-4405-bb30-88b2e001a944", "gnis:reviewed": "no", "name": "Tozzer Library", "source": "USGS Geonames"}}, {"type": "node", "id": 367778015, "lat": 42.3570412, "lon": -71.1947768, "tags": {"addr:state": "MA", "amenity": "library", "ele": "13", "gnis:county_name": "Norfolk", "gnis:feature_id": "1972005", "gnis:import_uuid": "57871b70-0100-4405-bb30-88b2e001a944", "gnis:reviewed": "no", "name": "Aquinas College at Milton Library", "source": "USGS Geonames"}}, {"type": "node", "id": 367778016, "lat": 42.3575968, "lon": -71.194499, "tags": {"addr:state": "MA", "amenity": "library", "ele": "15", "gnis:county_name": "Middlesex", "gnis:feature_id": "1972006", "gnis:import_uuid": "57871b70-0100-4405-bb30-88b2e001a944", "gnis:reviewed": "no", "name": "Aquinas Newton College Library", "source": "USGS Geonames"}}, {"type": "node", "id": 367778026, "lat": 42.3809298, "lon": -71.1697763, "tags": {"addr:state": "MA", "amenity": "library", "ele": "49", "gnis:county_name": "Middlesex", "gnis:feature_id": "1972097", "gnis:import_uuid": "57871b70-0100-4405-bb30-88b2e001a944", "gnis:reviewed": "no", "name": "Benton Branch Belmont Public Library", "source": "USGS Geonames"}}, {"type": "node", "id": 367778046, "lat": 42.3759405, "lon": -71.1139182, "tags": {"addr:state": "MA", "amenity": "library", "ele": "6", "gnis:county_name": "Middlesex", "gnis:feature_id": "1971260", "gnis:import_uuid": "57871b70-0100-4405-bb30-88b2e001a944", "gnis:reviewed": "no", "name": "Frances Loeb Library", "source": "USGS Geonames", "wheelchair": "limited"}}, {"type": "node", "id": 367778049, "lat": 42.3761636, "lon": -71.1163126, "tags": {"addr:state": "MA", "amenity": "library", "ele": "6", "gnis:county_name": "Middlesex", "gnis:feature_id": "1971285", "gnis:import_uuid": "57871b70-0100-4405-bb30-88b2e001a944", "gnis:reviewed": "no", "name": "Godfrey Lowell Cabot Science Library", "source": "USGS Geonames"}}, {"type": "node", "id": 367778059, "lat": 42.377305, "lon": -71.1172917, "tags": {"addr:state": "MA", "amenity": "library", "ele": "6", "gnis:county_name": "Middlesex", "gnis:feature_id": "1971337", "gnis:import_uuid": "57871b70-0100-4405-bb30-88b2e001a944", "name": "Physics Research Library", "source": "USGS Geonames"}}, {"type": "node", "id": 367778060, "lat": 42.3771216, "lon": -71.1135784, "tags": {"addr:state": "MA", "amenity": "library", "ele": "6", "gnis:county_name": "Middlesex", "gnis:feature_id": "1971338", "gnis:import_uuid": "57871b70-0100-4405-bb30-88b2e001a944", "gnis:reviewed": "no", "name": "Harvard University Psychology Research Library", "source": "USGS Geonames"}}, {"type": "node", "id": 367778062, "lat": 42.3773467, "lon": -71.1138171}, {"type": "node", "id": 367778065, "lat": 42.3749185, "lon": -71.1217096, "tags": {"addr:state": "MA", "amenity": "library", "ele": "7", "gnis:county_name": "Middlesex", "gnis:feature_id": "1971309", "gnis:import_uuid": "57871b70-0100-4405-bb30-88b2e001a944", "gnis:reviewed": "no", "name": "Gutman Library Research Center", "source": "USGS Geonames"}}, {"type": "node", "id": 367778066, "lat": 42.3730893, "lon": -71.1163177}, {"type": "node", "id": 367778069, "lat": 42.3779559, "lon": -71.1185838, "tags": {"amenity": "library", "ele": "7", "gnis:county_name": "Middlesex", "gnis:feature_id": "1971333", "gnis:import_uuid": "57871b70-0100-4405-bb30-88b2e001a944", "name": "Harvard Law School Library", "source": "USGS Geonames", "wheelchair": "limited", "wikidata": "Q18719675"}}, {"type": "node", "id": 367778071, "lat": 42.3782011, "lon": -71.1147103, "tags": {"addr:state": "MA", "amenity": "library", "ele": "6", "gnis:county_name": "Middlesex", "gnis:feature_id": "1971428", "gnis:import_uuid": "57871b70-0100-4405-bb30-88b2e001a944", "gnis:reviewed": "no", "name": "Kummel Library of Geological Sciences", "source": "USGS Geonames"}}, {"type": "node", "id": 367778072, "lat": 42.362633, "lon": -71.070327, "tags": {"addr:state": "MA", "amenity": "library", "ele": "3", "gnis:county_name": "Middlesex", "gnis:feature_id": "1971504", "gnis:import_uuid": "57871b70-0100-4405-bb30-88b2e001a944", "gnis:reviewed": "no", "name": "Massachusetts Eye and Ear Infirmary Libraries", "source": "USGS Geonames"}}, {"type": "node", "id": 367778075, "lat": 42.3809301, "lon": -71.1253307, "tags": {"addr:state": "MA", "amenity": "library", "ele": "8", "gnis:county_name": "Middlesex", "gnis:feature_id": "1971358", "gnis:import_uuid": "57871b70-0100-4405-bb30-88b2e001a944", "gnis:reviewed": "no", "name": "Hilles Library", "source": "USGS Geonames"}}, {"type": "node", "id": 367778076, "lat": 42.3711732, "lon": -71.1216494, "tags": {"addr:state": "MA", "alt_name": "John F Kennedy School of Government Library", "amenity": "library", "ele": "3", "gnis:county_name": "Middlesex", "gnis:feature_id": "1971403", "gnis:import_uuid": "57871b70-0100-4405-bb30-88b2e001a944", "gnis:reviewed": "no", "name": "Harvard Kennedy School Library", "source": "USGS Geonames"}}, {"type": "node", "id": 367778078, "lat": 42.3631529, "lon": -71.0694958, "tags": {"addr:state": "MA", "amenity": "library", "ele": "5", "gnis:county_name": "Suffolk", "gnis:feature_id": "1971632", "gnis:import_uuid": "57871b70-0100-4405-bb30-88b2e001a944", "gnis:reviewed": "no", "name": "Palmer-Davis Library", "source": "USGS Geonames"}}, {"type": "node", "id": 367778079, "lat": 42.364013, "lon": -71.054998, "tags": {"addr:housenumber": "25", "addr:state": "MA", "addr:street": "Parmenter Street", "amenity": "library", "ele": "9", "gnis:county_name": "Suffolk", "gnis:feature_id": "1971601", "gnis:import_uuid": "57871b70-0100-4405-bb30-88b2e001a944", "gnis:reviewed": "no", "name": "Boston Public Library North End Branch", "source": "USGS Geonames"}}, {"type": "node", "id": 367778080, "lat": 42.3737167, "lon": -71.1157815, "tags": {"addr:state": "MA", "amenity": "library", "ele": "10", "gnis:county_name": "Middlesex", "gnis:feature_id": "1971669", "gnis:import_uuid": "57871b70-0100-4405-bb30-88b2e001a944", "gnis:reviewed": "no", "name": "Pusey Library", "source": "USGS Geonames"}}, {"type": "node", "id": 367778081, "lat": 42.3664863, "lon": -71.0547732, "tags": {"addr:state": "MA", "amenity": "library", "ele": "11", "gnis:county_name": "Suffolk", "gnis:feature_id": "1971638", "gnis:import_uuid": "57871b70-0100-4405-bb30-88b2e001a944", "gnis:reviewed": "no", "name": "Paul Revere Pottery and Library Clubhouse", "source": "USGS Geonames"}}, {"type": "node", "id": 367778098, "lat": 42.3445418, "lon": -71.11033, "tags": {"addr:state": "MA", "amenity": "library", "ele": "8", "gnis:county_name": "Norfolk", "gnis:feature_id": "1972920", "gnis:import_uuid": "57871b70-0100-4405-bb30-88b2e001a944", "gnis:reviewed": "no", "name": "Jacob and Rose Grossman Library", "source": "USGS Geonames"}}, {"type": "node", "id": 367778115, "lat": 42.4279236, "lon": -71.0661384, "tags": {"addr:postcode": "02148", "addr:state": "MA", "amenity": "library", "ele": "9", "gnis:county_name": "Middlesex", "gnis:feature_id": "1973089", "gnis:import_uuid": "57871b70-0100-4405-bb30-88b2e001a944", "gnis:reviewed": "no", "internet_access": "wlan", "name": "Malden Public Library", "opening_hours": "Mo-Th 09:00-21:00; Fr-Sa 09:00-18:00", "phone": "(781) 3240218", "source": "USGS Geonames", "website": "http://maldenpubliclibrary.org"}}, {"type": "node", "id": 367778119, "lat": 42.3850968, "lon": -71.1064413, "tags": {"addr:state": "MA", "amenity": "library", "ele": "19", "gnis:county_name": "Middlesex", "gnis:feature_id": "1972240", "gnis:import_uuid": "57871b70-0100-4405-bb30-88b2e001a944", "gnis:reviewed": "no", "name": "Carr Health Sciences Library", "source": "USGS Geonames"}}, {"type": "node", "id": 367778122, "lat": 42.3758355, "lon": -71.064401, "tags": {"addr:state": "MA", "amenity": "library", "ele": "5", "gnis:county_name": "Suffolk", "gnis:feature_id": "1972268", "gnis:import_uuid": "57871b70-0100-4405-bb30-88b2e001a944", "gnis:reviewed": "no", "name": "Charles Hayden Memorial Library", "source": "USGS Geonames"}}, {"type": "node", "id": 367778127, "lat": 42.2775987, "lon": -71.0653281, "tags": {"addr:city": "Dorchester", "addr:housenumber": "2100", "addr:state": "MA", "addr:street": "Dorchester Avenue", "amenity": "library", "attribution": "Office of Geographic and Environmental Information (MassGIS)", "ele": "14", "gnis:county_name": "Suffolk", "gnis:feature_id": "1972353", "gnis:import_uuid": "57871b70-0100-4405-bb30-88b2e001a944", "gnis:reviewed": "no", "name": "Colpoys Library", "office": "Carney Hospital", "region": "Boston", "source": "USGS Geonames", "source_url": "http://mass.gov/mgis/libraries.htm", "type": "Special"}}, {"type": "node", "id": 367778128, "lat": 42.3433294, "lon": -71.1192265}, {"type": "node", "id": 367778138, "lat": 42.3706523, "lon": -71.163665, "tags": {"addr:state": "MA", "amenity": "library", "ele": "19", "gnis:county_name": "Middlesex", "gnis:feature_id": "1972493", "gnis:import_uuid": "57871b70-0100-4405-bb30-88b2e001a944", "gnis:reviewed": "no", "name": "East Library", "source": "USGS Geonames"}}, {"type": "node", "id": 367778141, "lat": 42.3879326, "lon": -71.0835948, "tags": {"addr:state": "MA", "amenity": "library", "ele": "9", "gnis:county_name": "Middlesex", "gnis:feature_id": "1972505", "gnis:import_uuid": "57871b70-0100-4405-bb30-88b2e001a944", "gnis:reviewed": "no", "name": "East Somerville Branch Public Library of the City of Somerville", "source": "USGS Geonames"}}, {"type": "node", "id": 367778149, "lat": 42.4062078, "lon": -71.0567181, "tags": {"addr:state": "MA", "amenity": "library", "ele": "13", "gnis:county_name": "Middlesex", "gnis:feature_id": "1972712", "gnis:import_uuid": "57871b70-0100-4405-bb30-88b2e001a944", "gnis:reviewed": "no", "name": "Frederick E Parlin Memorial Library", "source": "USGS Geonames"}}, {"type": "node", "id": 367778166, "lat": 42.3345802, "lon": -71.1214383, "tags": {"addr:state": "MA", "amenity": "library", "ele": "8", "gnis:county_name": "Norfolk", "gnis:feature_id": "1973527", "gnis:import_uuid": "57871b70-0100-4405-bb30-88b2e001a944", "gnis:reviewed": "no", "name": "Public Library of Brookline", "source": "USGS Geonames"}}, {"type": "node", "id": 367778200, "lat": 42.3270415, "lon": -71.2294997, "tags": {"addr:state": "MA", "amenity": "library", "ele": "39", "gnis:county_name": "Middlesex", "gnis:feature_id": "1973960", "gnis:import_uuid": "57871b70-0100-4405-bb30-88b2e001a944", "gnis:reviewed": "no", "name": "Waban Branch Newton Free Library", "source": "USGS Geonames"}}, {"type": "node", "id": 367778204, "lat": 42.2514688, "lon": -71.0008979, "tags": {"addr:state": "MA", "amenity": "library", "ele": "10", "gnis:county_name": "Norfolk", "gnis:feature_id": "1973878", "gnis:import_uuid": "57871b70-0100-4405-bb30-88b2e001a944", "gnis:reviewed": "no", "name": "Thomas Crane Public Library", "source": "USGS Geonames", "wikidata": "Q7788678"}}, {"type": "node", "id": 367778258, "lat": 42.3300972, "lon": -71.1958877, "tags": {"addr:state": "MA", "amenity": "library", "ele": "47", "gnis:county_name": "Middlesex", "gnis:feature_id": "1973336", "gnis:import_uuid": "57871b70-0100-4405-bb30-88b2e001a944", "gnis:reviewed": "no", "name": "Newton Centre Branch Library", "source": "USGS Geonames", "wikidata": "Q7020161"}}, {"type": "node", "id": 367778332, "lat": 42.2737101, "lon": -71.0253269, "tags": {"addr:state": "MA", "amenity": "library", "ele": "8", "gnis:county_name": "Norfolk", "gnis:feature_id": "1974446", "gnis:import_uuid": "57871b70-0100-4405-bb30-88b2e001a944", "gnis:reviewed": "no", "name": "North Quincy Branch Library Thomas Crane Public Library", "source": "USGS Geonames"}}, {"type": "node", "id": 367778337, "lat": 42.3681524, "lon": -71.1558869, "tags": {"addr:state": "MA", "amenity": "library", "ele": "12", "gnis:county_name": "Middlesex", "gnis:feature_id": "1974262", "gnis:import_uuid": "57871b70-0100-4405-bb30-88b2e001a944", "gnis:reviewed": "no", "name": "Earthwatch Library", "source": "USGS Geonames"}}, {"type": "node", "id": 367778351, "lat": 42.2668216, "lon": -71.0179025, "tags": {"addr:state": "MA", "amenity": "library", "ele": "5", "gnis:county_name": "Norfolk", "gnis:feature_id": "1974682", "gnis:import_uuid": "57871b70-0100-4405-bb30-88b2e001a944", "gnis:reviewed": "no", "name": "Wollaston Branch Thomas Crane Public Library", "source": "USGS Geonames"}}, {"type": "node", "id": 367778367, "lat": 42.2561821, "lon": -71.01117, "tags": {"addr:state": "MA", "amenity": "library", "ele": "4", "gnis:county_name": "Norfolk", "gnis:feature_id": "1974589", "gnis:import_uuid": "57871b70-0100-4405-bb30-88b2e001a944", "gnis:reviewed": "no", "name": "Stone Library", "source": "USGS Geonames"}}, {"type": "node", "id": 367778801, "lat": 42.3593032, "lon": -71.0624351, "tags": {"addr:state": "MA", "amenity": "library", "ele": "22", "gnis:county_name": "Suffolk", "gnis:feature_id": "2341658", "gnis:import_uuid": "57871b70-0100-4405-bb30-88b2e001a944", "gnis:reviewed": "no", "name": "Office of the Attorney General of Massachusetts Law Library", "source": "USGS Geonames", "wheelchair": "yes"}}, {"type": "node", "id": 367778814, "lat": 42.3389765, "lon": -71.1892015, "tags": {"addr:city": "Newton", "addr:housenumber": "385", "addr:postcode": "02459", "addr:state": "MA", "addr:street": "Ward Street", "amenity": "library", "attribution": "Office of Geographic and Environmental Information (MassGIS)", "ele": "48", "gnis:county_name": "Middlesex", "gnis:feature_id": "2341756", "gnis:import_uuid": "57871b70-0100-4405-bb30-88b2e001a944", "gnis:reviewed": "no", "name": "Rabbi Marshall R. Lifson Library", "office": "Temple Emanuel", "region": "Metrowest", "source": "USGS Geonames", "source_url": "http://mass.gov/mgis/libraries.htm", "type": "School"}}, {"type": "node", "id": 367778970, "lat": 42.3009101, "lon": -71.1173949, "tags": {"addr:state": "MA", "amenity": "library", "ele": "24", "gnis:county_name": "Suffolk", "gnis:feature_id": "2341461", "gnis:import_uuid": "57871b70-0100-4405-bb30-88b2e001a944", "gnis:reviewed": "no", "name": "Massachusetts State Laboratory Institute Medical Center Library", "source": "USGS Geonames"}}, {"type": "node", "id": 367779039, "lat": 42.2743234, "lon": -71.0667942, "tags": {"addr:city": "Dorchester", "addr:housenumber": "2214", "addr:postcode": "02124", "addr:state": "MA", "addr:street": "Dorchester Avenue", "amenity": "library", "attribution": "Office of Geographic and Environmental Information (MassGIS)", "ele": "15", "gnis:county_name": "Suffolk", "gnis:feature_id": "2341525", "gnis:import_uuid": "57871b70-0100-4405-bb30-88b2e001a944", "gnis:reviewed": "no", "name": "Monsignor Ryan Memorial High School Library", "office": "Elizabeth Seton Academy", "region": "Boston", "source": "USGS Geonames", "source_url": "http://mass.gov/mgis/libraries.htm", "type": "School"}}, {"type": "node", "id": 367779045, "lat": 42.3392519, "lon": -71.0908403, "tags": {"addr:state": "MA", "amenity": "library", "ele": "5", "gnis:county_name": "Suffolk", "gnis:feature_id": "2341638", "gnis:import_uuid": "57871b70-0100-4405-bb30-88b2e001a944", "gnis:reviewed": "no", "name": "Northeastern University School of Law Library", "source": "USGS Geonames"}}, {"type": "node", "id": 367779073, "lat": 42.4077642, "lon": -71.1221642, "tags": {"addr:state": "MA", "amenity": "library", "ele": "30", "gnis:county_name": "Middlesex", "gnis:feature_id": "2342236", "gnis:import_uuid": "57871b70-0100-4405-bb30-88b2e001a944", "gnis:reviewed": "no", "name": "Edwin Ginn Library", "source": "USGS Geonames"}}, {"type": "node", "id": 367779160, "lat": 42.3376504, "lon": -71.1010185, "tags": {"addr:city": "Boston", "addr:housenumber": "78", "addr:postcode": "02115", "addr:state": "MA", "addr:street": "Avenue Louis Pasteur", "amenity": "library", "attribution": "Office of Geographic and Environmental Information (MassGIS)", "ele": "5", "gnis:county_name": "Suffolk", "gnis:feature_id": "2341997", "gnis:import_uuid": "57871b70-0100-4405-bb30-88b2e001a944", "gnis:reviewed": "no", "name": "Boston Latin School Library", "office": "Boston Latin School", "operator": "Boston Public Schools", "region": "Boston", "source": "USGS Geonames", "source_url": "http://mass.gov/mgis/libraries.htm", "type": "School"}}, {"type": "node", "id": 367779162, "lat": 42.3505, "lon": -71.1072, "tags": {"addr:state": "MA", "amenity": "library", "ele": "5", "gnis:county_name": "Norfolk", "gnis:feature_id": "2342005", "gnis:import_uuid": "57871b70-0100-4405-bb30-88b2e001a944", "gnis:reviewed": "no", "name": "Boston University School of Theology Library", "source": "USGS Geonames"}}, {"type": "node", "id": 367779196, "lat": 42.3566, "lon": -71.059, "tags": {"addr:state": "MA", "amenity": "library", "ele": "10", "gnis:county_name": "Suffolk", "gnis:feature_id": "2342114", "gnis:import_uuid": "57871b70-0100-4405-bb30-88b2e001a944", "gnis:reviewed": "no", "name": "Children's Trust Fund Resource Library", "source": "USGS Geonames"}}, {"type": "node", "id": 367779197, "lat": 42.3632, "lon": -71.2015, "tags": {"addr:state": "MA", "amenity": "library", "ele": "10", "gnis:county_name": "Middlesex", "gnis:feature_id": "2342113", "gnis:import_uuid": "57871b70-0100-4405-bb30-88b2e001a944", "gnis:reviewed": "no", "name": "Children's Safety Network Library", "source": "USGS Geonames"}}, {"type": "node", "id": 367779222, "lat": 42.352203, "lon": -71.1206362, "tags": {"addr:state": "MA", "amenity": "library", "ele": "14", "gnis:county_name": "Suffolk", "gnis:feature_id": "2345040", "gnis:import_uuid": "57871b70-0100-4405-bb30-88b2e001a944", "gnis:reviewed": "no", "name": "William Howard Taft Middle School Library", "source": "USGS Geonames"}}, {"type": "node", "id": 367779311, "lat": 42.3023201, "lon": -71.150053, "tags": {"addr:state": "MA", "amenity": "library", "ele": "56", "gnis:county_name": "Norfolk", "gnis:feature_id": "607198", "gnis:import_uuid": "57871b70-0100-4405-bb30-88b2e001a944", "gnis:reviewed": "no", "name": "Putterham Branch Library", "source": "USGS Geonames"}}, {"type": "node", "id": 367779376, "lat": 42.3632, "lon": -71.2015, "tags": {"addr:state": "MA", "amenity": "library", "ele": "10", "gnis:county_name": "Middlesex", "gnis:feature_id": "2342435", "gnis:import_uuid": "57871b70-0100-4405-bb30-88b2e001a944", "gnis:reviewed": "no", "name": "Higher Education Center Library", "source": "USGS Geonames"}}, {"type": "node", "id": 367779426, "lat": 42.3540666, "lon": -71.0747696}, {"type": "node", "id": 367779430, "lat": 42.3451224, "lon": -71.0862018, "tags": {"access": "yes", "addr:state": "MA", "amenity": "library", "contact:facebook": "https://www.facebook.com/mbelibrary", "contact:instagram": "https://www.instagram.com/mbelibrary/", "contact:twitter": "https://twitter.com/MBELibrary", "ele": "4", "email": "librarymail@mbelibrary.org", "gnis:county_name": "Suffolk", "gnis:feature_id": "2344903", "gnis:import_uuid": "57871b70-0100-4405-bb30-88b2e001a944", "gnis:reviewed": "no", "internet_access": "yes", "name": "The Mary Baker Eddy Library for the Betterment of Humanity", "phone": "+1-617-450-7000", "source": "USGS Geonames", "website": "https://www.marybakereddylibrary.org/", "wikidata": "Q6778995", "wikipedia": "en:Mary Baker Eddy Library"}}, {"type": "node", "id": 367779431, "lat": 42.325304, "lon": -71.1888012, "tags": {"addr:city": "Newton Centre", "addr:housenumber": "160", "addr:postcode": "02459", "addr:state": "MA", "addr:street": "Herrick Road", "amenity": "library", "attribution": "Office of Geographic and Environmental Information (MassGIS)", "ele": "45", "gnis:county_name": "Middlesex", "gnis:feature_id": "2344908", "gnis:import_uuid": "57871b70-0100-4405-bb30-88b2e001a944", "gnis:reviewed": "no", "name": "The Rae and Joseph Gann Library", "office": "Hebrew College", "region": "Metrowest", "source": "USGS Geonames", "source_url": "http://mass.gov/mgis/libraries.htm", "type": "Academic"}}, {"type": "node", "id": 367781121, "lat": 42.3785878, "lon": -71.1155943, "tags": {"addr:state": "MA", "amenity": "library", "ele": "6", "gnis:county_name": "Middlesex", "gnis:feature_id": "1971335", "gnis:import_uuid": "57871b70-0100-4405-bb30-88b2e001a944", "gnis:reviewed": "no", "name": "Harvard University Museum of Comparative Zoology Library", "source": "USGS Geonames"}}, {"type": "node", "id": 367781132, "lat": 42.3515213, "lon": -71.049933, "tags": {"addr:state": "MA", "amenity": "library", "ele": "0", "gnis:county_name": "Suffolk", "gnis:feature_id": "2342111", "gnis:import_uuid": "57871b70-0100-4405-bb30-88b2e001a944", "gnis:reviewed": "no", "name": "Children's Museum Resource Center", "source": "USGS Geonames"}}, {"type": "node", "id": 367951744, "lat": 42.3638832, "lon": -71.1035702}, {"type": "node", "id": 371247606, "lat": 42.3700745, "lon": -71.1219298, "tags": {"amenity": "library", "building": "yes", "created_by": "Potlatch 0.10f", "name": "Eliot House Library"}}, {"type": "node", "id": 389964664, "lat": 42.3731137, "lon": -71.1166113, "tags": {"entrance": "yes"}}, {"type": "node", "id": 389966268, "lat": 42.3725834, "lon": -71.1152805}, {"type": "node", "id": 542909153, "lat": 42.3738086, "lon": -71.1103983, "tags": {"entrance": "main"}}, {"type": "node", "id": 542909208, "lat": 42.3738788, "lon": -71.1105792}, {"type": "node", "id": 542909212, "lat": 42.3739375, "lon": -71.1105405}, {"type": "node", "id": 542909216, "lat": 42.3739737, "lon": -71.110638}, {"type": "node", "id": 542909219, "lat": 42.3739334, "lon": -71.110717}, {"type": "node", "id": 542909317, "lat": 42.3740611, "lon": -71.1105979}, {"type": "node", "id": 542909320, "lat": 42.3740306, "lon": -71.1105206}, {"type": "node", "id": 597845244, "lat": 42.3640012, "lon": -71.1038996, "tags": {"entrance": "yes", "wheelchair": "yes"}}, {"type": "node", "id": 666583188, "lat": 42.2988842, "lon": -71.0603971, "tags": {"amenity": "library", "name": "Fields Corner Library", "opening_hours": "Mo-Th 14:00-18:00; Fr 13:00-16:00", "operator": "Boston Public Library"}}, {"type": "node", "id": 1080135277, "lat": 42.4064138, "lon": -71.1193372}, {"type": "node", "id": 1080135279, "lat": 42.4067355, "lon": -71.1191861}, {"type": "node", "id": 1080135289, "lat": 42.4065765, "lon": -71.1187685}, {"type": "node", "id": 1080135328, "lat": 42.4067097, "lon": -71.1191183}, {"type": "node", "id": 1080135443, "lat": 42.4065704, "lon": -71.1193605}, {"type": "node", "id": 1325838452, "lat": 42.3579246, "lon": -71.0617739}, {"type": "node", "id": 1325838609, "lat": 42.3579592, "lon": -71.061767}, {"type": "node", "id": 1325838647, "lat": 42.3580047, "lon": -71.0618072}, {"type": "node", "id": 1325838662, "lat": 42.3579849, "lon": -71.0617831}, {"type": "node", "id": 1325838664, "lat": 42.35809, "lon": -71.0619225}, {"type": "node", "id": 1325838669, "lat": 42.3579572, "lon": -71.0623088}, {"type": "node", "id": 1975213054, "lat": 42.3509699, "lon": -71.1072918, "tags": {"amenity": "library", "name": "School of Law Library"}}, {"type": "node", "id": 1976086727, "lat": 42.3503152, "lon": -71.0970259, "tags": {"amenity": "library", "name": "Shelton Hall 9th Floor Study Lounge"}}, {"type": "node", "id": 1977285694, "lat": 42.3496876, "lon": -71.1006718, "tags": {"amenity": "library", "designation": "Study Spot", "name": "Pickering Educational Resources Library", "source": "Kelsey Lynne Anderson"}}, {"type": "node", "id": 1977409948, "lat": 42.3496167, "lon": -71.0996764, "tags": {"amenity": "library", "name": "Frederick S Pardee Management Library"}}, {"type": "node", "id": 1977930470, "lat": 42.3494549, "lon": -71.1040876, "tags": {"amenity": "library", "designation": "Study Spot", "name": "Warren Towers Quiet Study Lounge", "source": "Molly Binger"}}, {"type": "node", "id": 1978109447, "lat": 42.3498525, "lon": -71.1021483, "tags": {"amenity": "library", "designation": "Study ", "name": "Makechnie Study"}}, {"type": "node", "id": 1978505195, "lat": 42.3494594, "lon": -71.0986788, "tags": {"amenity": "library", "designation": "Study spot", "name": "Hojo Study Lounge", "source": "Justin Liu"}}, {"type": "node", "id": 1978841868, "lat": 42.3540783, "lon": -71.121003, "tags": {"amenity": "library", "name": "Athlete Study Hall"}}, {"type": "node", "id": 1978952664, "lat": 42.3496719, "lon": -71.1000179, "tags": {"amenity": "library", "name": "Undergraduate Study Lounge"}}, {"type": "node", "id": 1979412543, "lat": 42.3508927, "lon": -71.1089901, "tags": {"amenity": "library", "name": "George Sherman Union- Study spot", "source": "Bing"}}, {"type": "node", "id": 1982224208, "lat": 42.3597611, "lon": -71.0920607, "tags": {"amenity": "library", "name": "Barker Library"}}, {"type": "node", "id": 1982225129, "lat": 42.359254, "lon": -71.093242, "tags": {"amenity": "library", "name": "Rotch Library"}}, {"type": "node", "id": 1982225149, "lat": 42.3611465, "lon": -71.0837124, "tags": {"amenity": "library", "name": "Dewey Library", "wheelchair": "yes"}}, {"type": "node", "id": 2056435933, "lat": 42.392702, "lon": -71.128603, "tags": {"addr:city": "Cambridge", "addr:housenumber": "70", "addr:postcode": "02140", "addr:street": "Rindge Avenue", "alt_name": "O'Neill Library", "amenity": "library", "name": "Cambridge Library O'Neill Branch", "opening_hours": "Mo,We 10:00-20:00; Th,Fr 10:00-18:00; Tu off", "operator": "City of Cambridge", "phone": "(617) 349-4023", "source": "Bing", "website": "https://www.cambridgema.gov/cpl/hoursandlocations/oneillbranch.aspx", "wifi": "free"}}, {"type": "node", "id": 2267934764, "lat": 42.3164678, "lon": -71.0346259}, {"type": "node", "id": 2267942723, "lat": 42.3161951, "lon": -71.0336026}, {"type": "node", "id": 2295907759, "lat": 42.338086, "lon": -71.088224}, {"type": "node", "id": 2295907761, "lat": 42.3380503, "lon": -71.0883215}, {"type": "node", "id": 2295907763, "lat": 42.3381489, "lon": -71.0882656}, {"type": "node", "id": 2295907765, "lat": 42.3382145, "lon": -71.0876641}, {"type": "node", "id": 2295907768, "lat": 42.3382389, "lon": -71.087673}, {"type": "node", "id": 2295907770, "lat": 42.3383262, "lon": -71.0875219}, {"type": "node", "id": 2295907772, "lat": 42.3383495, "lon": -71.087536}, {"type": "node", "id": 2295907774, "lat": 42.3386426, "lon": -71.0884227}, {"type": "node", "id": 2295907776, "lat": 42.3386505, "lon": -71.0884563}, {"type": "node", "id": 2295907777, "lat": 42.3386887, "lon": -71.088112}, {"type": "node", "id": 2295907780, "lat": 42.3387939, "lon": -71.0878544}, {"type": "node", "id": 2295934090, "lat": 42.3384858, "lon": -71.087417}, {"type": "node", "id": 2295934096, "lat": 42.3385758, "lon": -71.0883715}, {"type": "node", "id": 2295943700, "lat": 42.3384081, "lon": -71.0874621}, {"type": "node", "id": 2295943701, "lat": 42.3383841, "lon": -71.0874441}, {"type": "node", "id": 2295943702, "lat": 42.3382895, "lon": -71.0876081}, {"type": "node", "id": 2295943703, "lat": 42.3382677, "lon": -71.0875973}, {"type": "node", "id": 2295943704, "lat": 42.3381843, "lon": -71.0877414}, {"type": "node", "id": 2295943705, "lat": 42.3381617, "lon": -71.0877198}, {"type": "node", "id": 2295943706, "lat": 42.3380725, "lon": -71.0878892}, {"type": "node", "id": 2295943707, "lat": 42.3380538, "lon": -71.087873}, {"type": "node", "id": 2295954752, "lat": 42.338773, "lon": -71.0878392}, {"type": "node", "id": 2375735312, "lat": 42.3349609, "lon": -71.1035074}, {"type": "node", "id": 2375735315, "lat": 42.3353551, "lon": -71.1038041}, {"type": "node", "id": 2375735949, "lat": 42.3352334, "lon": -71.1038906}, {"type": "node", "id": 2430594935, "lat": 42.3675404, "lon": -71.1864118}, {"type": "node", "id": 2430594936, "lat": 42.3673819, "lon": -71.1865955}, {"type": "node", "id": 2430594937, "lat": 42.3674185, "lon": -71.1866478}, {"type": "node", "id": 2494962252, "lat": 42.3495497, "lon": -71.0774506, "tags": {"entrance": "main"}}, {"type": "node", "id": 2577065807, "lat": 42.3085833, "lon": -71.1151253}, {"type": "node", "id": 2577065809, "lat": 42.3085952, "lon": -71.1148264}, {"type": "node", "id": 2577065811, "lat": 42.3086, "lon": -71.1146883}, {"type": "node", "id": 2577065816, "lat": 42.3086938, "lon": -71.1149988}, {"type": "node", "id": 2577065818, "lat": 42.3087167, "lon": -71.1150003}, {"type": "node", "id": 2582705633, "lat": 42.2540888, "lon": -71.0775032}, {"type": "node", "id": 2582705634, "lat": 42.2539786, "lon": -71.0776007}, {"type": "node", "id": 2582705635, "lat": 42.2537386, "lon": -71.0774581}, {"type": "node", "id": 2592763061, "lat": 42.2540866, "lon": -71.077439}, {"type": "node", "id": 2948724747, "lat": 42.377804, "lon": -71.0283104}, {"type": "node", "id": 2948724748, "lat": 42.3778628, "lon": -71.0277096}, {"type": "node", "id": 2948724749, "lat": 42.3780569, "lon": -71.0280258}, {"type": "node", "id": 2948724751, "lat": 42.3775186, "lon": -71.0280241}, {"type": "node", "id": 2948724752, "lat": 42.3777589, "lon": -71.0284154}, {"type": "node", "id": 2948724754, "lat": 42.3778237, "lon": -71.0283425}, {"type": "node", "id": 2948724756, "lat": 42.377721, "lon": -71.0277964}, {"type": "node", "id": 2948724757, "lat": 42.3777474, "lon": -71.0278394}, {"type": "node", "id": 3125846833, "lat": 42.3211959, "lon": -71.1546449}, {"type": "node", "id": 3125846834, "lat": 42.3211961, "lon": -71.1546731}, {"type": "node", "id": 3125846836, "lat": 42.3212061, "lon": -71.1546552}, {"type": "node", "id": 3125846840, "lat": 42.3212614, "lon": -71.1544089}, {"type": "node", "id": 3125846841, "lat": 42.3212623, "lon": -71.1547401}, {"type": "node", "id": 3125846842, "lat": 42.3212746, "lon": -71.154718}, {"type": "node", "id": 3125846843, "lat": 42.3212939, "lon": -71.1543476}, {"type": "node", "id": 3125846845, "lat": 42.3213019, "lon": -71.1544547}, {"type": "node", "id": 3125846846, "lat": 42.321322, "lon": -71.1543818}, {"type": "node", "id": 3125846847, "lat": 42.3213597, "lon": -71.1543142}, {"type": "node", "id": 3125846848, "lat": 42.3213694, "lon": -71.1550899}, {"type": "node", "id": 3125846849, "lat": 42.3213726, "lon": -71.1548172}, {"type": "node", "id": 3125846850, "lat": 42.3213903, "lon": -71.1545992}, {"type": "node", "id": 3125846851, "lat": 42.3214741, "lon": -71.154684}, {"type": "node", "id": 3125846852, "lat": 42.3214808, "lon": -71.1544368}, {"type": "node", "id": 3125846853, "lat": 42.3214918, "lon": -71.154679}, {"type": "node", "id": 3125846854, "lat": 42.3215137, "lon": -71.1546838}, {"type": "node", "id": 3125846855, "lat": 42.3215287, "lon": -71.1548114}, {"type": "node", "id": 3125846856, "lat": 42.321529, "lon": -71.1549268}, {"type": "node", "id": 3125846857, "lat": 42.3215324, "lon": -71.1546999}, {"type": "node", "id": 3125846858, "lat": 42.3215428, "lon": -71.1547884}, {"type": "node", "id": 3125846859, "lat": 42.321543, "lon": -71.154719}, {"type": "node", "id": 3125846860, "lat": 42.3215462, "lon": -71.1549267}, {"type": "node", "id": 3125846861, "lat": 42.3215466, "lon": -71.155089}, {"type": "node", "id": 3125846862, "lat": 42.3215486, "lon": -71.1547418}, {"type": "node", "id": 3125846863, "lat": 42.3215491, "lon": -71.1547598}, {"type": "node", "id": 3519261979, "lat": 42.3598671, "lon": -71.1278383}, {"type": "node", "id": 3545381089, "lat": 42.3599028, "lon": -71.1278874}, {"type": "node", "id": 3545381090, "lat": 42.3599671, "lon": -71.1277903}, {"type": "node", "id": 3545381091, "lat": 42.3600025, "lon": -71.1278343}, {"type": "node", "id": 3545381092, "lat": 42.3600826, "lon": -71.1277168}, {"type": "node", "id": 3545396793, "lat": 42.3600638, "lon": -71.1276937}, {"type": "node", "id": 3545396794, "lat": 42.3601364, "lon": -71.1275872}, {"type": "node", "id": 3687227164, "lat": 42.2769535, "lon": -71.0931301}, {"type": "node", "id": 3687227165, "lat": 42.2769671, "lon": -71.0928646}, {"type": "node", "id": 3687227166, "lat": 42.2769721, "lon": -71.0931295}, {"type": "node", "id": 3687227168, "lat": 42.2770309, "lon": -71.0932394}, {"type": "node", "id": 3687227170, "lat": 42.2770692, "lon": -71.0927903}, {"type": "node", "id": 3687227171, "lat": 42.2770705, "lon": -71.092861}, {"type": "node", "id": 3687227172, "lat": 42.2771568, "lon": -71.0928933}, {"type": "node", "id": 3687227173, "lat": 42.2771604, "lon": -71.0930828}, {"type": "node", "id": 3687227174, "lat": 42.2772472, "lon": -71.0928901}, {"type": "node", "id": 3687227175, "lat": 42.2772509, "lon": -71.0930796}, {"type": "node", "id": 3687227179, "lat": 42.2774391, "lon": -71.0927777}, {"type": "node", "id": 3687227180, "lat": 42.2774438, "lon": -71.0931504}, {"type": "node", "id": 3687227181, "lat": 42.2774448, "lon": -71.0930839}, {"type": "node", "id": 3687227182, "lat": 42.2774452, "lon": -71.0932252}, {"type": "node", "id": 3687227183, "lat": 42.2774593, "lon": -71.0931499}, {"type": "node", "id": 3687227184, "lat": 42.2774598, "lon": -71.0931768}, {"type": "node", "id": 3687227185, "lat": 42.2774985, "lon": -71.0931755}, {"type": "node", "id": 3687227186, "lat": 42.2774994, "lon": -71.0932215}, {"type": "node", "id": 3687227201, "lat": 42.2776703, "lon": -71.0930762}, {"type": "node", "id": 3687227204, "lat": 42.2776729, "lon": -71.0932155}, {"type": "node", "id": 3946796273, "lat": 42.3614044, "lon": -71.0651831}, {"type": "node", "id": 3946796275, "lat": 42.3614205, "lon": -71.0649593}, {"type": "node", "id": 3946796276, "lat": 42.361438, "lon": -71.0650058}, {"type": "node", "id": 4075406794, "lat": 42.354137, "lon": -71.0748686}, {"type": "node", "id": 4075406797, "lat": 42.3541956, "lon": -71.0746559}, {"type": "node", "id": 4080745755, "lat": 42.3577488, "lon": -71.0621142}, {"type": "node", "id": 4329266296, "lat": 42.3590664, "lon": -71.0891802, "tags": {"amenity": "library", "name": "Hayden Memorial Library"}}, {"type": "node", "id": 4329266297, "lat": 42.359328, "lon": -71.0890183, "tags": {"amenity": "library", "name": "Lewis Music Library"}}, {"type": "node", "id": 4503189175, "lat": 42.3665426, "lon": -71.1232098}, {"type": "node", "id": 4503189176, "lat": 42.3665438, "lon": -71.123216}, {"type": "node", "id": 4503189177, "lat": 42.3663719, "lon": -71.1223464}, {"type": "node", "id": 4503189178, "lat": 42.3663731, "lon": -71.1223528}, {"type": "node", "id": 4503189179, "lat": 42.3661976, "lon": -71.1226031}, {"type": "node", "id": 4503189180, "lat": 42.3662043, "lon": -71.1226008}, {"type": "node", "id": 4503189181, "lat": 42.3663037, "lon": -71.1231064}, {"type": "node", "id": 4503189182, "lat": 42.3662981, "lon": -71.1231084}, {"type": "node", "id": 4503189183, "lat": 42.3662241, "lon": -71.1227878}, {"type": "node", "id": 4503189184, "lat": 42.366208, "lon": -71.1227934}, {"type": "node", "id": 4503189185, "lat": 42.3662631, "lon": -71.1229862}, {"type": "node", "id": 4503189186, "lat": 42.3662799, "lon": -71.1229804}, {"type": "node", "id": 4691217117, "lat": 42.354083, "lon": -71.0747578}, {"type": "node", "id": 4691217118, "lat": 42.3541179, "lon": -71.0746312}, {"type": "node", "id": 4691217119, "lat": 42.3541028, "lon": -71.0746359}, {"type": "node", "id": 4691217120, "lat": 42.3540954, "lon": -71.074667}, {"type": "node", "id": 4691217121, "lat": 42.354102, "lon": -71.0746825}, {"type": "node", "id": 4691217122, "lat": 42.3540998, "lon": -71.0746925}, {"type": "node", "id": 4691217123, "lat": 42.3540822, "lon": -71.0746987}, {"type": "node", "id": 4691217124, "lat": 42.3540732, "lon": -71.0747376}, {"type": "node", "id": 4691217125, "lat": 42.3540583, "lon": -71.0748059}, {"type": "node", "id": 4786907848, "lat": 42.3493492, "lon": -71.0783282, "tags": {"amenity": "library", "level": "2", "name": "Norman B. Leventhal Map Center", "wikidata": "Q7051939"}}, {"type": "node", "id": 5071953989, "lat": 42.369487, "lon": -71.1167487}, {"type": "node", "id": 5071953990, "lat": 42.3694955, "lon": -71.1167792}, {"type": "node", "id": 5071953995, "lat": 42.3694678, "lon": -71.1166779}, {"type": "node", "id": 5071953996, "lat": 42.3695062, "lon": -71.116831}, {"type": "node", "id": 5071953997, "lat": 42.3693047, "lon": -71.116923}, {"type": "node", "id": 5071953998, "lat": 42.3692662, "lon": -71.1167699}, {"type": "node", "id": 5266324709, "lat": 42.4061643, "lon": -71.1193779}, {"type": "node", "id": 5266324710, "lat": 42.4060844, "lon": -71.1194333}, {"type": "node", "id": 5266324711, "lat": 42.4060594, "lon": -71.1193674}, {"type": "node", "id": 5266324720, "lat": 42.4057488, "lon": -71.1185838}, {"type": "node", "id": 5266325321, "lat": 42.4058139, "lon": -71.1185361}, {"type": "node", "id": 5266325326, "lat": 42.4059114, "lon": -71.1182229}, {"type": "node", "id": 5888701146, "lat": 42.3134175, "lon": -71.0393097}, {"type": "node", "id": 5888701157, "lat": 42.3134839, "lon": -71.0392331}, {"type": "node", "id": 5888701158, "lat": 42.3134389, "lon": -71.0392868}, {"type": "node", "id": 5888701159, "lat": 42.3137736, "lon": -71.039794}, {"type": "node", "id": 5888701160, "lat": 42.3137429, "lon": -71.0398317}, {"type": "node", "id": 5916121659, "lat": 42.3131114, "lon": -71.039655}, {"type": "node", "id": 5918175456, "lat": 42.3131693, "lon": -71.0397464}, {"type": "node", "id": 6546721023, "lat": 42.3492154, "lon": -71.1400989}, {"type": "node", "id": 7115579042, "lat": 42.3599706, "lon": -71.1281117}, {"type": "node", "id": 7115579043, "lat": 42.3598409, "lon": -71.1279746}, {"type": "node", "id": 7442740419, "lat": 42.3662264, "lon": -71.1228904, "tags": {"access_control": "rfid", "entrance": "yes"}}, {"type": "node", "id": 7442740420, "lat": 42.3666266, "lon": -71.1227468, "tags": {"access_control": "rfid", "entrance": "yes"}}, {"type": "node", "id": 7594031047, "lat": 42.357875, "lon": -71.0624705, "tags": {"amenity": "library", "name": "Congregational Library and Archives", "website": "http://www.congregationallibrary.org/"}}, {"type": "node", "id": 7618650775, "lat": 42.3495903, "lon": -71.0774702, "tags": {"country": "US", "flag:type": "national", "height": "6", "lit": "yes", "man_made": "flagpole"}}, {"type": "node", "id": 7618650776, "lat": 42.3495617, "lon": -71.0774564, "tags": {"country": "US", "flag:type": "national", "height": "6", "lit": "yes", "man_made": "flagpole"}}, {"type": "node", "id": 7618650777, "lat": 42.3495012, "lon": -71.0774272, "tags": {"country": "US", "flag:type": "national", "height": "6", "lit": "yes", "man_made": "flagpole"}}, {"type": "node", "id": 7618721688, "lat": 42.3495144, "lon": -71.0774336, "tags": {"access": "yes", "door": "hinged", "entrance": "main"}}, {"type": "node", "id": 7620743964, "lat": 42.3521678, "lon": -71.0630441, "tags": {"amenity": "library", "name": "Boston Public Library Chinatown", "website": "https://www.bpl.org/locations/83/"}}, {"type": "node", "id": 7624557254, "lat": 42.351948, "lon": -71.0868521, "tags": {"access": "private", "amenity": "library", "email": "library@neco.edu", "internet_access": "wlan", "internet_access:fee": "customers", "name": "New England College of Optometry Library", "phone": "+1-617-587-5589", "website": "https://library.neco.edu/"}}, {"type": "node", "id": 7633585159, "lat": 42.3079423, "lon": -71.0812108, "tags": {"amenity": "library", "name": "Boston Public Library Grove Hall Branch"}}, {"type": "node", "id": 7644322064, "lat": 42.340609, "lon": -71.086368, "tags": {"amenity": "library", "name": "New England Conservatory of Music Performance Library", "operator": "New England Conservatory of Music"}}, {"type": "node", "id": 7644322072, "lat": 42.3406817, "lon": -71.0862634, "tags": {"amenity": "library", "name": "Isabelle Firestone Audio Library", "operator": "New England Conservatory of Music"}}, {"type": "node", "id": 7644779176, "lat": 42.3495027, "lon": -71.0788719, "tags": {"access": "yes", "addr:city": "Boston", "addr:housenumber": "700", "addr:postcode": "02116", "addr:state": "MA", "addr:street": "Boylston Street", "door": "automatic", "entrance": "main", "level": "0", "wheelchair": "yes"}}, {"type": "node", "id": 7644779178, "lat": 42.34917, "lon": -71.0791586}, {"type": "node", "id": 7644779181, "lat": 42.3492538, "lon": -71.0792003}, {"type": "node", "id": 7644779182, "lat": 42.3492773, "lon": -71.0792116, "tags": {"access": "yes", "door": "hinged", "entrance": "main", "level": "0"}}, {"type": "node", "id": 7644795792, "lat": 42.3490723, "lon": -71.0781662, "tags": {"access": "permit", "amenity": "loading_dock", "door": "sliding", "level": "0"}}, {"type": "node", "id": 7645031441, "lat": 42.349383, "lon": -71.0780997, "tags": {"door": "no", "entrance": "yes"}}, {"type": "node", "id": 7650719947, "lat": 42.3864275, "lon": -71.1185743, "tags": {"amenity": "library", "name": "Moriarty Library", "operator": "Lesley University"}}, {"type": "node", "id": 7653904115, "lat": 42.3365133, "lon": -71.1013817, "tags": {"amenity": "library", "name": "Henrietta DeBenedictis Library"}}, {"type": "node", "id": 7706104666, "lat": 42.3497033, "lon": -71.0781371}, {"type": "node", "id": 7706104668, "lat": 42.3497664, "lon": -71.0779058}, {"type": "node", "id": 7711828656, "lat": 42.3464702, "lon": -71.089955, "tags": {"addr:city": "Boston", "addr:housenumber": "1154", "addr:postcode": "02215", "addr:state": "MA", "addr:street": "Boylston Street", "amenity": "library", "fax": "+1-617-859-0074", "name": "Massachusetts Historical Society", "opening_hours:covid19": "closed", "phone": "+1-617-536-1608", "website": "http://www.masshist.org/"}}, {"type": "node", "id": 7722290022, "lat": 42.3162109, "lon": -71.0335835}, {"type": "node", "id": 7722290023, "lat": 42.316396, "lon": -71.0336093}, {"type": "node", "id": 7722290024, "lat": 42.3163915, "lon": -71.0339067}, {"type": "node", "id": 7727727715, "lat": 42.3511692, "lon": -71.1082727, "tags": {"amenity": "loading_dock", "door": "no"}}, {"type": "node", "id": 7747033145, "lat": 42.3164832, "lon": -71.0340585}, {"type": "node", "id": 7747033152, "lat": 42.3160686, "lon": -71.0340146}, {"type": "node", "id": 7747240147, "lat": 42.3161116, "lon": -71.0334672}, {"type": "node", "id": 7761545638, "lat": 42.3495822, "lon": -71.0774663, "tags": {"access": "yes", "door": "hinged", "entrance": "main"}}, {"type": "node", "id": 7761545639, "lat": 42.3497116, "lon": -71.0775289, "tags": {"country": "US", "flag:type": "national", "height": "6", "lit": "yes", "man_made": "flagpole"}}, {"type": "node", "id": 7761545640, "lat": 42.3493874, "lon": -71.0773722, "tags": {"country": "US", "flag:type": "national", "height": "6", "lit": "yes", "man_made": "flagpole"}}, {"type": "node", "id": 7761545641, "lat": 42.3496057, "lon": -71.0774777, "tags": {"direction": "70", "height": "3", "highway": "street_lamp", "lamp_mount": "wall", "lamp_type": "electric"}}, {"type": "node", "id": 7761545642, "lat": 42.3495714, "lon": -71.0774611, "tags": {"direction": "70", "height": "3", "highway": "street_lamp", "lamp_mount": "wall", "lamp_type": "electric"}}, {"type": "node", "id": 7761545643, "lat": 42.3495333, "lon": -71.0774427, "tags": {"direction": "70", "height": "3", "highway": "street_lamp", "lamp_mount": "wall", "lamp_type": "electric"}}, {"type": "node", "id": 7761545644, "lat": 42.3494894, "lon": -71.0774215, "tags": {"direction": "70", "height": "3", "highway": "street_lamp", "lamp_mount": "wall", "lamp_type": "electric"}}, {"type": "node", "id": 7814552121, "lat": 42.3614051, "lon": -71.065075}, {"type": "node", "id": 8040648038, "lat": 42.3572176, "lon": -71.0694294, "tags": {"access": "private", "addr:city": "Boston", "addr:housenumber": "57A", "addr:postcode": "02108", "addr:state": "MA", "addr:street": "Chestnut Street", "amenity": "library", "email": "info@hmaboston.org", "level": "0", "library": "music", "name": "Harvard Musical Association", "office": "charity", "phone": "+1-617-523-2897", "start_date": "1892", "website": "https://hmaboston.org/"}}, {"type": "node", "id": 8121726667, "lat": 42.3509135, "lon": -71.107748}, {"type": "node", "id": 8121726668, "lat": 42.3513344, "lon": -71.107653}, {"type": "node", "id": 8261036649, "lat": 42.3358202, "lon": -71.038751, "tags": {"addr:city": "Boston", "addr:housenumber": "646", "addr:postcode": "02127", "addr:street": "East Broadway", "amenity": "library", "name": "South Boston Branch Library", "website": "http://www.bpl.org"}}, {"type": "node", "id": 8261036650, "lat": 42.3139767, "lon": -71.0348135, "tags": {"addr:city": "Boston", "addr:housenumber": "220", "addr:postcode": "02125", "addr:street": "Morrissey Blvd", "amenity": "library", "name": "Massachusetts State Archives", "website": "http://www.sec.state.ma.us/arc"}}, {"type": "node", "id": 8261036651, "lat": 42.3147979, "lon": -71.067633, "tags": {"addr:city": "Boston", "addr:housenumber": "500", "addr:postcode": "02125", "addr:street": "Columbia Road", "amenity": "library", "name": "Uphams Corner Branch Library", "website": "http://www.bpl.org"}}, {"type": "node", "id": 8261036652, "lat": 42.3324772, "lon": -71.0990632, "tags": {"addr:city": "Boston", "addr:housenumber": "1497", "addr:postcode": "02120", "addr:street": "Tremont Street", "amenity": "library", "name": "Parker Hill Branch Library", "website": "http://www.bpl.org"}}, {"type": "node", "id": 8261036653, "lat": 42.3206446, "lon": -71.1110929, "tags": {"addr:city": "Boston", "addr:housenumber": "433", "addr:postcode": "02130", "addr:street": "Centre Street", "amenity": "library", "name": "Connolly Branch Library", "website": "http://www.bpl.org"}}, {"type": "node", "id": 8261036654, "lat": 42.2863002, "lon": -71.0544044, "tags": {"addr:city": "Boston", "addr:housenumber": "690", "addr:postcode": "02122", "addr:street": "Adams Street", "amenity": "library", "name": "Adams Street Branch Library", "website": "http://www.bpl.org"}}, {"type": "node", "id": 8261036655, "lat": 42.2875284, "lon": -71.0708517, "tags": {"addr:city": "Boston", "addr:housenumber": "690", "addr:postcode": "02124", "addr:street": "Washington Street", "amenity": "library", "name": "Codman Square Branch Library", "website": "http://www.bpl.org"}}, {"type": "node", "id": 8261036656, "lat": 42.2855958, "lon": -71.1285567, "tags": {"addr:city": "Boston", "addr:housenumber": "4246", "addr:postcode": "02131", "addr:street": "Washington Street", "amenity": "library", "name": "Roslindale Branch Library", "website": "http://www.bpl.org"}}, {"type": "node", "id": 8261036658, "lat": 42.3475587, "lon": -71.1527181, "tags": {"addr:city": "Boston", "addr:housenumber": "40", "addr:postcode": "02135", "addr:street": "Academy Hill Road", "amenity": "library", "name": "Brighton Branch Library", "website": "http://www.bpl.org"}}, {"type": "node", "id": 8261036659, "lat": 42.3704407, "lon": -71.0848233, "tags": {"addr:city": "Cambridge", "addr:housenumber": "48", "addr:postcode": "02141", "addr:street": "Sixth Street", "amenity": "library", "name": "O'Connell Branch Library", "website": "http://www.cambridgepubliclibrary.org"}}, {"type": "node", "id": 8261036660, "lat": 42.3721548, "lon": -71.0902467, "tags": {"addr:city": "Cambridge", "addr:housenumber": "826", "addr:postcode": "02141", "addr:street": "Cambridge Street", "amenity": "library", "name": "Valente Branch Library", "website": "http://www.cambridgepubliclibrary.org"}}, {"type": "node", "id": 8366161763, "lat": 42.4166606, "lon": -71.0464744, "tags": {"access": "no", "entrance": "service"}}, {"type": "node", "id": 8366161772, "lat": 42.4167545, "lon": -71.046604}, {"type": "node", "id": 8366161775, "lat": 42.4166946, "lon": -71.0466551}, {"type": "node", "id": 8366161781, "lat": 42.4168227, "lon": -71.0465828, "tags": {"entrance": "yes"}}, {"type": "node", "id": 8366161788, "lat": 42.4168081, "lon": -71.0465947}, {"type": "node", "id": 8366161795, "lat": 42.4166409, "lon": -71.0466926, "tags": {"entrance": "yes"}}, {"type": "node", "id": 8366161814, "lat": 42.4167322, "lon": -71.046644, "tags": {"entrance": "main"}}, {"type": "node", "id": 8366161815, "lat": 42.416744, "lon": -71.0466337}, {"type": "node", "id": 8366161816, "lat": 42.416833, "lon": -71.0465365}, {"type": "node", "id": 8366171217, "lat": 42.4168366, "lon": -71.0465331}, {"type": "node", "id": 8366171218, "lat": 42.4167938, "lon": -71.046574}, {"type": "node", "id": 8366171219, "lat": 42.4168048, "lon": -71.0465975}, {"type": "node", "id": 8366171220, "lat": 42.4167199, "lon": -71.0466548}, {"type": "node", "id": 8366171221, "lat": 42.4166518, "lon": -71.0466915}, {"type": "node", "id": 8366171222, "lat": 42.4166491, "lon": -71.046686}, {"type": "node", "id": 8630629504, "lat": 42.3740229, "lon": -71.1109546}, {"type": "node", "id": 8630629505, "lat": 42.3740271, "lon": -71.1110298}, {"type": "node", "id": 8630629506, "lat": 42.3740104, "lon": -71.111021}, {"type": "node", "id": 8630629507, "lat": 42.3740041, "lon": -71.1110109}, {"type": "node", "id": 8630629508, "lat": 42.3740007, "lon": -71.110997}, {"type": "node", "id": 8630629509, "lat": 42.3740005, "lon": -71.110978}, {"type": "node", "id": 8630629510, "lat": 42.3740071, "lon": -71.1109663}, {"type": "node", "id": 8630629511, "lat": 42.3740145, "lon": -71.1109579}, {"type": "node", "id": 8630629512, "lat": 42.3739343, "lon": -71.1106827}, {"type": "node", "id": 8630629513, "lat": 42.3739449, "lon": -71.1106559}, {"type": "node", "id": 8630629514, "lat": 42.3739588, "lon": -71.1106432}, {"type": "node", "id": 8635423717, "lat": 42.3738233, "lon": -71.1104362}, {"type": "node", "id": 8635423804, "lat": 42.3737985, "lon": -71.1103731}, {"type": "node", "id": 8635423811, "lat": 42.3738544, "lon": -71.1099434}, {"type": "node", "id": 8635443626, "lat": 42.3739492, "lon": -71.1105719}, {"type": "node", "id": 8699605008, "lat": 42.3775558, "lon": -71.1138951, "tags": {"entrance": "yes"}}, {"type": "node", "id": 8723387673, "lat": 42.3738119, "lon": -71.1163786, "tags": {"entrance": "main"}}, {"type": "node", "id": 8723387678, "lat": 42.3728618, "lon": -71.1157813, "tags": {"entrance": "yes"}}, {"type": "way", "id": 29513034, "nodes": [325344710, 325344711, 325344712, 326227389, 326222680, 6546721023, 326157523, 325344710], "tags": {"addr:state": "MA", "amenity": "library", "building": "yes", "ele": "21", "gnis:county_name": "Suffolk", "gnis:feature_id": "1972696", "gnis:import_uuid": "57871b70-0100-4405-bb30-88b2e001a944", "gnis:reviewed": "no", "name": "Franciscan Childrens Hospital Medical Library", "source": "USGS Geonames"}}, {"type": "way", "id": 29513254, "nodes": [325346555, 325346556, 325346557, 325346558, 325346560, 325346561, 325346563, 325346564, 325346565, 325346566, 325346555], "tags": {"addr:city": "Boston", "addr:housenumber": "132", "addr:postcode": "02215", "addr:state": "MA", "addr:street": "Riverway", "amenity": "library", "attribution": "Office of Geographic and Environmental Information (MassGIS)", "building": "yes", "ele": "9", "gnis:county_name": "Norfolk", "gnis:feature_id": "2345024", "gnis:import_uuid": "57871b70-0100-4405-bb30-88b2e001a944", "gnis:reviewed": "no", "name": "Wheelock College Library", "office": "Wheelock College", "region": "Boston", "source": "USGS Geonames", "source_url": "http://mass.gov/mgis/libraries.htm", "type": "Academic"}}, {"type": "way", "id": 29513588, "nodes": [5071953998, 5071953997, 5071953996, 5071953990, 5071953989, 5071953995, 5071953998], "tags": {"addr:city": "Cambridge", "addr:housenumber": "28", "addr:postcode": "02138", "addr:state": "MA", "addr:street": "DeWolfe Street", "amenity": "library", "building": "yes", "name": "Leverett House Library"}}, {"type": "way", "id": 29532042, "nodes": [325506469, 325506470, 325506471, 325506473, 325506469], "tags": {"addr:city": "Somerville", "addr:housenumber": "230", "addr:state": "MA", "addr:street": "Highland Avenue", "amenity": "library", "attribution": "Office of Geographic and Environmental Information (MassGIS)", "building": "yes", "name": "Carr Health Sciences Library", "office": "Somerville Hospital", "region": "Metrowest", "source_url": "http://mass.gov/mgis/libraries.htm", "type": "Special"}}, {"type": "way", "id": 29551175, "nodes": [325629091, 7644779178, 7644779181, 7644779182, 325679183, 7644779176, 325302857, 325620430, 325665453, 325588691, 7706104666, 7706104668, 325635088, 7761545639, 7761545641, 7618650775, 7761545638, 7761545642, 7618650776, 2494962252, 7761545643, 7618721688, 7618650777, 7761545644, 7761545640, 325591003, 325646290, 325638303, 7644795792, 325575636, 325317464, 325629091]}, {"type": "way", "id": 29554877, "nodes": [325339726, 325689802, 325621432, 325443193, 325308184, 325539344, 325632791, 325552107, 7645031441, 325339726], "tags": {"access": "yes", "addr:city": "Boston", "addr:housenumber": "230", "addr:postcode": "02116", "addr:state": "MA", "addr:street": "Dartmouth Street", "building:architecture": "italianate", "man_made": "courtyard", "name": "McKim Courtyard", "owner": "City of Boston", "website": "https://www.bpl.org/mckim-points-of-interest/#courtyard"}}, {"type": "way", "id": 29562922, "nodes": [325795324, 325795331, 325795332, 325795339, 325795348, 325795357, 325795363, 325795371, 325795378, 325795324], "tags": {"addr:housenumber": "179", "addr:street": "Beach Street", "amenity": "library", "building": "yes", "name": "Revere Public Library"}}, {"type": "way", "id": 29566437, "nodes": [325552846, 2295907761, 2295907759, 2295907763, 325536151, 325691845, 325605904, 325299994, 325676255, 325636154, 325680946, 2295907776, 2295907774, 325581650, 2295934096, 2295907777, 325616594, 2295907780, 2295954752, 325339567, 325344342, 2295934090, 325643914, 2295943700, 2295943701, 2295907772, 2295907770, 2295943702, 2295943703, 2295907768, 2295907765, 2295943704, 2295943705, 325626440, 325323338, 2295943706, 2295943707, 325617672, 325670633, 325552846], "tags": {"addr:city": "Boston", "addr:housename": "Snell Library, Northeastern University", "addr:housenumber": "360", "addr:postcode": "02115", "addr:state": "MA", "addr:street": "Huntington Avenue", "alt_name": "Snell Library, Northeastern University", "amenity": "library", "building": "university", "building:levels": "5", "campusbuilding": "yes", "ele": "3", "fax": "+1 617 373 5409", "gnis:county_name": "Suffolk", "gnis:feature_id": "1971939", "gnis:import_uuid": "57871b70-0100-4405-bb30-88b2e001a944", "gnis:reviewed": "no", "internet_access": "yes", "name": "Snell Library", "operator": "Northeastern University", "phone": "+1 617 373 8778", "source": "MassGIS Buildings (http://www.mass.gov/mgis/lidarbuildingfp2d.htm);USGS Geonames", "toilets:wheelchair": "yes", "website": "https://library.northeastern.edu/", "wheelchair": "yes", "wheelchair:description": "Persons with Disabilities webpage: http://library.northeastern.edu/gateways/persons-with-disabilities", "wikipedia": "en:Northeastern University"}}, {"type": "way", "id": 29575199, "nodes": [325443960, 325679631, 325664018, 325631068, 325654603, 325687083, 325621792, 325639294, 325668210, 325441825, 325522394, 325431370, 325656735, 325626593, 325553493, 325313931, 325607415, 325617121, 325663067, 325653884, 325624408, 325628556, 325613978, 325546917, 325443960], "tags": {"addr:city": "Boston", "addr:housenumber": "65", "addr:postcode": "02119", "addr:state": "MA", "addr:street": "Warren Street", "amenity": "library", "building": "yes", "building:levels": "2", "name": "Roxbury Branch of the Boston Public Library", "old_name": "Dudley Branch Boston Public Library", "wikidata": "Q69862719"}}, {"type": "way", "id": 29582287, "nodes": [325848916, 325788442, 325853188, 325869921, 325879889, 325895198, 325461369, 325468216, 325473525, 325481447, 325491611, 325500981, 325733904, 325754844, 325789398, 325879895, 325826668, 325847204, 325479669, 325459693, 325865085, 325471775, 325750496, 325489789, 325466772, 325729702, 325842418, 325785753, 325498978, 325822043, 325907394, 325864349, 325804599, 325890269, 325472182, 325479965, 325851480, 325866042, 325730002, 325751064, 325848916], "tags": {"addr:city": "Boston", "addr:housenumber": "400", "addr:postcode": "02115", "addr:state": "MA", "addr:street": "Fenway", "amenity": "library", "attribution": "Office of Geographic and Environmental Information (MassGIS)", "building": "yes", "name": "Cardinal Cushing Library", "office": "Emmanuel College", "region": "Boston", "source:url": "http://mass.gov/mgis/libraries.htm", "type": "Academic"}}, {"type": "way", "id": 29628272, "nodes": [325991879, 326002332, 326049811, 326063691, 325991879], "tags": {"addr:housenumber": "2044", "addr:street": "Columbus Avenue", "amenity": "library", "building": "yes", "name": "Boston Public Library: Egleston Square Branch"}}, {"type": "way", "id": 29633581, "nodes": [326218867, 326223252, 326216293, 326201711, 326206790, 326190846, 326197492, 326178739, 326185452, 326161496, 326169610, 326147380, 326155481, 326227217, 326231161, 326219549, 326223403, 326216022, 326200672, 326207444, 326190653, 326196645, 326179977, 326185935, 326161186, 326168194, 326149551, 326156011, 326186323, 326193850, 326176658, 326182088, 326162046, 326153452, 326218867], "tags": {"addr:state": "MA", "amenity": "library", "building": "yes", "ele": "11", "gnis:county_name": "Middlesex", "gnis:feature_id": "1971375", "gnis:import_uuid": "57871b70-0100-4405-bb30-88b2e001a944", "gnis:reviewed": "no", "name": "Houghton Library", "source": "USGS Geonames", "wikidata": "Q3719374", "wikipedia": "en:Houghton Library"}}, {"type": "way", "id": 29634503, "nodes": [326185853, 326167576, 326171451, 326152933, 8723387678, 326158744, 326226933, 326231441, 326219346, 389966268, 326185853], "tags": {"addr:housenumber": "11", "addr:state": "MA", "addr:street": "Quincy Street", "amenity": "library", "building": "yes", "ele": "12", "gnis:county_name": "Middlesex", "gnis:feature_id": "1971433", "gnis:import_uuid": "57871b70-0100-4405-bb30-88b2e001a944", "gnis:reviewed": "no", "name": "Lamont Library", "source": "USGS Geonames", "wikidata": "Q6482212", "wikipedia": "en:Lamont Library"}}, {"type": "way", "id": 29646385, "nodes": [326295112, 2592763061, 326295115, 326295116, 326295123, 326295124, 326295099, 326295101, 2582705635, 326295103, 326295104, 326295105, 326295107, 326295108, 326295109, 2582705634, 326295111, 2582705633, 326295112], "tags": {"addr:city": "Milton", "addr:housenumber": "476", "addr:state": "MA", "addr:street": "Canton Avenue", "amenity": "library", "attribution": "Office of Geographic and Environmental Information (MassGIS)", "building": "yes", "gnis:feature_id": "1973228", "gnis:import_uuid": "57871b70-0100-4405-bb30-88b2e001a944", "name": "Milton Public Library", "office": "Milton", "region": "Southeastern", "source_url": "http://mass.gov/mgis/libraries.htm", "type": "Public"}}, {"type": "way", "id": 29650815, "nodes": [326329375, 326329376, 326329377, 326329378, 326329375], "tags": {"addr:housenumber": "685", "addr:street": "Tremont Street", "amenity": "library", "building": "yes", "name": "South End Branch - Boston Public Library"}}, {"type": "way", "id": 29660975, "nodes": [326400463, 326400464, 326400465, 326400466, 326400468, 326400463], "tags": {"addr:city": "Chelsea", "addr:housenumber": "569", "addr:postcode": "02150", "addr:state": "MA", "addr:street": "Broadway", "amenity": "library", "attribution": "Office of Geographic and Environmental Information (MassGIS)", "building": "yes", "name": "Chelsea Public Library", "office": "Chelsea", "opening_hours": "Su off; Mo-Th 09:00-20:00; Fr 09:00-17:00; Sa 10:00-13:00", "region": "Boston", "source:url": "http://mass.gov/mgis/libraries.htm", "type": "Public", "website": "https://www.ci.chelsea.ma.us/public_documents/ChelseaMA_LIbrary/index"}}, {"type": "way", "id": 29684442, "nodes": [367778062, 8699605008, 326614153, 326614154, 326614155, 326614156, 326614157, 326614158, 326614159, 367778062], "tags": {"addr:city": "Cambridge", "addr:housenumber": "2", "addr:postcode": "02138", "addr:state": "MA", "addr:street": "Divinity Avenue", "amenity": "library", "building": "yes", "ele": "6", "gnis:county_name": "Middlesex", "gnis:feature_id": "1971342", "gnis:import_uuid": "57871b70-0100-4405-bb30-88b2e001a944", "gnis:reviewed": "no", "name": "Harvard-Yenching Library", "ref:isil": "US-mhhy", "source": "USGS Geonames", "wikidata": "Q5676691", "wikipedia": "en:Harvard\u2013Yenching Library"}}, {"type": "way", "id": 29684500, "nodes": [326615031, 326615033, 326615035, 326615037, 326615031], "tags": {"addr:housenumber": "64", "addr:postcode": "02138", "addr:street": "Aberdeen Avenue", "alt_name": "Collins Library", "amenity": "library", "building": "yes", "name": "Cambridge Library Collins Branch", "opening_hours": "Mo,Tu,Fr 10:00-18:00; Th 13:00-20:00; We off", "operator": "City of Cambridge", "phone": "(617) 349-4021", "website": "https://www.cambridgema.gov/cpl/hoursandlocations/collinsbranch.aspx", "wifi": "free"}}, {"type": "way", "id": 29685756, "nodes": [326632071, 8635423804, 542909153, 8635423717, 542909208, 542909212, 8635443626, 542909216, 8630629514, 8630629513, 8630629512, 542909219, 8630629504, 8630629511, 8630629510, 8630629509, 8630629508, 8630629507, 8630629506, 8630629505, 326632106, 326632108, 326632110, 326632112, 326632116, 326632118, 326632120, 326632122, 326632124, 326632126, 326632128, 326632130, 326632132, 326632134, 326632136, 326632138, 326632140, 326632142, 326632144, 326632146, 326632148, 326632150, 326632152, 326632154, 326632156, 326632158, 326632160, 326632164, 326632167, 326632169, 542909317, 542909320, 326632175, 326632229, 8635423811, 326632071], "tags": {"addr:city": "Cambridge", "addr:housenumber": "449", "addr:postcode": "02138", "addr:state": "MA", "addr:street": "Broadway", "amenity": "library", "building": "civic", "internet_access": "yes", "internet_access:fee": "no", "internet_access:ssid": "Cambridge Public Internet", "name": "Cambridge Public Library", "opening_hours": "Mo-Th 09:00-21:00; Fr-Sa 09:00-17:00; Sep-Jun: Su 13:00-17:00; PH off", "ref:isil": "US-mc", "website": "https://www.cambridgema.gov/cpl/hoursandlocations/mainlibrary", "wheelchair": "yes", "wikidata": "Q5025501", "wikipedia": "en:Cambridge Public Library"}}, {"type": "way", "id": 29725638, "nodes": [327464375, 389964664, 327464376, 327464377, 327464379, 327464380, 327464381, 327464383, 327464384, 327464385, 327464387, 327464388, 8723387673, 327464389, 327464390, 327464392, 327464393, 327464394, 327464396, 327464397, 327464398, 327464400, 327464402, 367778066, 327464375], "tags": {"addr:state": "MA", "amenity": "library", "building": "yes", "ele": "9", "gnis:county_name": "Middlesex", "gnis:feature_id": "1971320", "name": "Harry Elkins Widener Memorial Library", "name:zh": "\u56fe\u4e66\u9986", "source": "USGS Geonames", "wikidata": "Q1060854", "wikipedia": "en:Widener Library"}}, {"type": "way", "id": 29730354, "nodes": [5266324720, 327496893, 327496894, 327496896, 327496897, 327496898, 327496900, 327496902, 327496903, 327496905, 327496906, 327496908, 327496909, 327496911, 327496912, 327496914, 327496915, 327496917, 327496918, 327496919, 327496921, 327496922, 327496924, 327496926, 327496928, 327496929, 327496931, 327496933, 327496935, 327496937, 327496939, 327496941, 327496943, 327496944, 327496946, 327496947, 327496949, 327496951, 327496953, 327496954, 327496956, 327496957, 327496959, 327496961, 327496962, 327496964, 327496965, 327496967, 327496969, 327496971, 327496972, 327496974, 327496975, 327496977, 327496978, 327496979, 327496980, 327496981, 327496982, 327496983, 327496984, 5266324711, 5266324710, 5266324709, 327496989, 327496991, 327496992, 1080135277, 327496994, 327496995, 327496997, 327496998, 327496999, 1080135443, 327497000, 327497001, 1080135279, 1080135328, 1080135289, 327497002, 327497003, 327497004, 327497005, 327497007, 327497008, 327497010, 327497011, 327497012, 327497014, 327497015, 327497016, 327497018, 327497019, 327497021, 327497022, 327497023, 327497025, 327497027, 327497028, 327497030, 327497031, 327497032, 327497034, 327497035, 327497037, 327497038, 327497040, 327497041, 327497042, 327497044, 327497045, 327497046, 327497048, 327497050, 327497051, 327497052, 327497054, 327497055, 327497056, 327497057, 327497058, 327497059, 327497060, 327497061, 327497062, 327497063, 327497064, 327497065, 327497066, 327497068, 327497069, 5266325326, 327497072, 327497074, 327497075, 327497077, 327497078, 327497080, 327497082, 327497083, 327497084, 327497086, 327497087, 327497089, 327497090, 327497092, 327497093, 327497094, 327497096, 327497098, 327497099, 327497101, 327497103, 327497104, 327497105, 327497107, 327497109, 327497110, 327497112, 327497114, 327497115, 327497117, 327497118, 327497119, 327497121, 327497122, 327497124, 327497125, 327497127, 327497128, 327497130, 327497131, 327497133, 327497134, 327497135, 327497137, 327497138, 5266325321, 5266324720], "tags": {"addr:housenumber": "35", "addr:state": "MA", "addr:street": "Professors Row", "amenity": "library", "building": "yes", "ele": "35", "gnis:county_name": "Middlesex", "gnis:feature_id": "1973884", "gnis:import_uuid": "57871b70-0100-4405-bb30-88b2e001a944", "gnis:reviewed": "no", "name": "Tisch Library", "source": "USGS Geonames", "wikidata": "Q31431614"}}, {"type": "way", "id": 29778289, "nodes": [328010310, 328010311, 328010312, 328010313, 328010315, 328010316, 328010317, 328010319, 328010320, 328010321, 328010323, 328010324, 328010326, 328010328, 328010330, 328010332, 328010333, 328010334, 328010336, 328010337, 328010338, 328010340, 328010341, 328010342, 328010344, 328010345, 328010347, 328010349, 328010352, 328010353, 328010354, 328010357, 328010358, 328010367, 328010370, 328010371, 328010373, 328010375, 2430594935, 2430594936, 2430594937, 328010310], "tags": {"addr:city": "Watertown", "addr:housenumber": "123", "addr:state": "MA", "addr:street": "Main Street", "amenity": "library", "attribution": "Office of Geographic and Environmental Information (MassGIS)", "building": "yes", "name": "Watertown Free Public Library", "office": "Watertown", "region": "Metrowest", "source:url": "http://mass.gov/mgis/libraries.htm", "type": "Public"}}, {"type": "way", "id": 29779620, "nodes": [328028566, 328028568, 328028570, 328028573, 328028566], "tags": {"addr:housenumber": "117", "addr:state": "MA", "addr:street": "Lake Street", "amenity": "library", "building": "yes", "ele": "48", "gnis:county_name": "Middlesex", "gnis:feature_id": "1973645", "gnis:import_uuid": "57871b70-0100-4405-bb30-88b2e001a944", "gnis:reviewed": "no", "name": "Boston College Theology and Ministry Library", "source": "USGS Geonames"}}, {"type": "way", "id": 29788932, "nodes": [328193325, 328100761, 2375735949, 2375735315, 328105755, 328089588, 2375735312, 328193325], "tags": {"addr:housenumber": "10", "addr:state": "MA", "amenity": "library", "building": "yes", "ele": "11", "gnis:county_name": "Suffolk", "gnis:feature_id": "1971259", "gnis:import_uuid": "57871b70-0100-4405-bb30-88b2e001a944", "gnis:reviewed": "no", "name": "Frances A. Countway Library of Medicine", "source": "USGS Geonames"}}, {"type": "way", "id": 29794889, "nodes": [328154763, 328181949, 328213694, 328104418, 328154763], "tags": {"addr:city": "Somerville", "addr:housenumber": "79", "addr:postcode": "02143", "addr:state": "MA", "addr:street": "Highland Avenue", "amenity": "library", "attribution": "Office of Geographic and Environmental Information (MassGIS)", "building": "yes", "contact:email": "library@somervillema.gov", "contact:phone": "+1 617 623-5000", "contact:website": "http://www.somervillepubliclibrary.org/", "ele": "28", "email": "library@somervillema.gov", "gnis:county_name": "Middlesex", "gnis:feature_id": "1980780;2343439", "gnis:import_uuid": "57871b70-0100-4405-bb30-88b2e001a944", "gnis:reviewed": "no", "internet_access": "wlan", "internet_access:fee": "no", "internet_access:ssid": "somlibrary_5GHz", "name": "Somerville Central Library", "office": "Somerville", "opening_hours": "Mo-Th 09:00-21:00; Fr 09:00-18:00; Sa 09:00-17:00; Jun-Aug: Su off; Sep-May: Su 13:00-17:00", "phone": "+1 617 623-5000", "ref:isil": "US-mso", "region": "Metrowest", "source": "USGS Geonames", "source:url": "http://mass.gov/mgis/libraries.htm", "type": "Public", "website": "https://www.somervillepubliclibrary.org/"}}, {"type": "way", "id": 29795258, "nodes": [328085977, 328137738, 328100977, 328095179, 328188527, 328106688, 328209259, 328200941, 328085977], "tags": {"addr:city": "Boston", "addr:housenumber": "300", "addr:state": "MA", "addr:street": "Longwood Avenue", "amenity": "library", "attribution": "Office of Geographic and Environmental Information (MassGIS)", "building": "yes", "ele": "6", "gnis:county_name": "Suffolk", "gnis:feature_id": "2342109", "gnis:import_uuid": "57871b70-0100-4405-bb30-88b2e001a944", "gnis:reviewed": "no", "name": "Children's Hospital Library", "office": "Children's Hospital", "region": "Boston", "source": "USGS Geonames", "source_url": "http://mass.gov/mgis/libraries.htm", "type": "Special"}}, {"type": "way", "id": 29811822, "nodes": [328525280, 328525282, 328525284, 328525287, 328525289, 328525291, 328525293, 328525296, 328525280], "tags": {"addr:city": "Brighton", "addr:housenumber": "419", "addr:postcode": "02135", "addr:state": "MA", "addr:street": "Faneuil Street", "amenity": "library", "building": "yes", "email": "faneuil@bpl.org", "internet_access": "wlan", "name": "Faneuil Branch of the Boston Public Library", "opening_hours": "Mo,We,Th 10:00-18:00; Tu 12:00-20:00; Fr 09:00-17:00; Sa 09:00-14:00", "phone": "+1-617-782-6705", "website": "https://www.bpl.org/", "wikidata": "Q69862681"}}, {"type": "way", "id": 29824210, "nodes": [328605119, 327553450, 2577065807, 327541777, 328631651, 2577065816, 2577065818, 327513904, 328613711, 328606080, 2577065811, 2577065809, 327533792, 328605119], "tags": {"amenity": "library", "building": "yes", "name": "Boston Public Library Jamaica Plain Branch", "opening_date": "2017-08-21", "source": "MassGIS Buildings (http://www.mass.gov/mgis/lidarbuildingfp2d.htm)", "website": "http://www.bpl.org/branches/jamaica.php", "wikidata": "Q69862716"}}, {"type": "way", "id": 29824393, "nodes": [328623896, 328618703, 328634839, 328629277, 328623896], "tags": {"addr:housenumber": "245", "addr:postcode": "02138", "addr:street": "Concord Avenue", "amenity": "library", "building": "yes", "name": "Cambridge Library Boudreau Branch", "opening_hours": "Mo,We,Fr 10:00-18:00; Tu 10:00-20:00; Th off", "operator": "Cambridge Public Library", "operator:type": "government"}}, {"type": "way", "id": 29825693, "nodes": [328639113, 327540979, 327554405, 328604494, 328639113]}, {"type": "way", "id": 29826765, "nodes": [328622537, 328638277, 327504936, 328617185, 328622537], "tags": {"amenity": "library", "building": "yes", "name": "Qube (Quincy Library)"}}, {"type": "way", "id": 29829070, "nodes": [327507676, 327346724, 328625684, 327357658, 328637703, 328621210, 328601964, 328631757, 328611913, 327541433, 327518466, 328604726, 327532198, 327511875, 327534061, 327512461, 327338674, 327348300, 327359678, 327508846, 328621344, 328626364, 327507676]}, {"type": "way", "id": 29930153, "nodes": [329455569, 329485835, 329477212, 329724603, 329600106, 329455990, 329728563, 329740060, 329735836, 329595982, 329455569], "tags": {"addr:city": "Newton Centre", "addr:housenumber": "169", "addr:postcode": "02459", "addr:state": "MA", "addr:street": "Herrick Road", "amenity": "library", "attribution": "Office of Geographic and Environmental Information (MassGIS)", "building": "yes", "ele": "86", "gnis:county_name": "Middlesex", "gnis:feature_id": "1972709", "gnis:import_uuid": "57871b70-0100-4405-bb30-88b2e001a944", "gnis:reviewed": "no", "name": "Franklin Trask Library", "office": "Andover Newton Theological School", "region": "Metrowest", "source": "USGS Geonames", "source_url": "http://mass.gov/mgis/libraries.htm", "type": "Academic"}}, {"type": "way", "id": 29932104, "nodes": [329790038, 329786466, 597845244, 329798290, 329794760, 329106781, 367951744, 329790038], "tags": {"amenity": "library", "building": "yes", "ele": "5", "gnis:county_name": "Middlesex", "gnis:feature_id": "1971095", "gnis:import_uuid": "57871b70-0100-4405-bb30-88b2e001a944", "internet_access": "yes", "internet_access:fee": "no", "name": "Cambridge Library Central Square Branch", "opening_hours": "Mo,We,Fr 10:00-18:00; Tu,Th 10:00-21:00; Sep-Jun: Sa 10:00-14:00", "operator": "Cambridge Public Library", "source": "USGS Geonames"}}, {"type": "way", "id": 29932471, "nodes": [329081845, 329090813, 329702408, 329071878, 329081845]}, {"type": "way", "id": 29933964, "nodes": [329697123, 329701423, 329706088, 329711645, 329720842, 329783697, 329787784, 329797931, 329697123], "tags": {"addr:city": "Somerville", "addr:housenumber": "40", "addr:postcode": "02144", "addr:state": "MA", "addr:street": "College Avenue", "amenity": "library", "building": "yes", "contact:email": "library@somervillema.gov", "contact:phone": "+1 617 623-5000", "contact:website": "http://www.somervillepubliclibrary.org/", "ele": "8", "email": "library@somervillema.gov", "gnis:county_name": "Middlesex", "gnis:feature_id": "1974022", "gnis:import_uuid": "57871b70-0100-4405-bb30-88b2e001a944", "internet_access": "wlan", "internet_access:fee": "no", "name": "Somerville Library West Branch", "opening_hours": "Mo 10:00-21:00; Tu 10:00-18:00; We 10:00-18:00; Th 10:00-21:00; Fr 14:00-18:00; Sa-Su off", "operator": "Somerville Public Library", "phone": "+1 617 623-5000", "source": "USGS Geonames", "website": "https://www.somervillepubliclibrary.org/"}}, {"type": "way", "id": 29935493, "nodes": [367778128, 329695929, 329094925, 329102787, 329079330, 329087294, 329796748, 329071353, 329789490, 329792895, 329781751, 329785768, 329713390, 329718936, 329704434, 329708506, 329696383, 367778128], "tags": {"addr:city": "Brookline", "addr:housenumber": "31", "addr:postcode": "02446", "addr:state": "MA", "addr:street": "Pleasant Street", "amenity": "library", "building": "yes", "ele": "13;17", "gnis:county_name": "Norfolk", "gnis:feature_id": "1972382;607136", "gnis:import_uuid": "57871b70-0100-4405-bb30-88b2e001a944", "gnis:reviewed": "no", "name": "Coolidge Corner Branch Public Library of Brookline;Brookline Branch Library", "source": "USGS Geonames"}}, {"type": "way", "id": 29939208, "nodes": [329795193, 7115579043, 7115579042, 329785494, 329789061, 329090585, 329098531, 329016400, 329078660, 329697784, 329701714, 3545396794, 3545396793, 3545381092, 3545381091, 3545381090, 3545381089, 3519261979, 329795193]}, {"type": "way", "id": 29954309, "nodes": [329850414, 329850415, 8366161795, 8366171222, 8366171221, 8366161775, 329850416, 329850417, 8366171220, 8366161814, 8366161815, 329850418, 329850419, 8366161772, 8366171218, 8366171219, 8366161788, 8366161781, 329850421, 8366161816, 8366171217, 329850422, 8366161763, 329850414], "tags": {"addr:housenumber": "777;781", "addr:state": "MA", "addr:street": "Broadway", "amenity": "library", "building": "yes", "ele": "23", "gnis:county_name": "Middlesex", "gnis:feature_id": "1973740", "gnis:import_uuid": "57871b70-0100-4405-bb30-88b2e001a944", "gnis:reviewed": "no", "name": "Shute Memorial Library", "source": "USGS Geonames"}}, {"type": "way", "id": 29964257, "nodes": [329914869, 5888701160, 5888701159, 329914870, 329914871, 5888701157, 5888701158, 5888701146, 329914872, 5916121659, 5918175456, 329914874, 329914869], "tags": {"amenity": "library", "building": "yes", "internet_access:fee": "no", "layer": "3", "name": "Healey Library", "operator": "University of Massachusetts Boston"}}, {"type": "way", "id": 33529303, "nodes": [326189710, 326157626, 4503189183, 4503189184, 7442740419, 326221028, 326230516, 4503189185, 4503189186, 4503189181, 4503189182, 326203565, 4503189175, 4503189176, 326176219, 326189426, 326210745, 7442740420, 326181833, 326211143, 326217384, 4503189177, 4503189178, 326201187, 4503189179, 4503189180, 326189710], "tags": {"addr:state": "MA", "amenity": "library", "building": "yes", "ele": "3", "gnis:county_name": "Middlesex", "gnis:feature_id": "1970976", "gnis:import_uuid": "57871b70-0100-4405-bb30-88b2e001a944", "gnis:reviewed": "no", "name": "Baker Library / Bloomberg Center", "source": "MassGIS Buildings (http://www.mass.gov/mgis/lidarbuildingfp2d.htm);USGS Geonames"}}, {"type": "way", "id": 40038032, "nodes": [327463277, 327463284, 327463285, 327463287, 327463288, 327463290, 327463291, 327463057, 327463058, 327463060, 327463277], "tags": {"addr:housenumber": "3", "addr:state": "MA", "addr:street": "James Street", "alt_name": "Arthur and Elizabeth Schlesinger Library on the History of Women in America", "amenity": "library", "building": "yes", "ele": "8", "gnis:county_name": "Middlesex", "gnis:feature_id": "1970961", "gnis:import_uuid": "57871b70-0100-4405-bb30-88b2e001a944", "name": "Schlesinger Library", "source": "MassGIS Buildings (http://www.mass.gov/mgis/lidarbuildingfp2d.htm); USGS Geonames", "wikidata": "Q7431696"}}, {"type": "way", "id": 130209089, "nodes": [328629113, 328606285, 327518722, 327510668, 327363362, 7727727715, 327524950, 327341886, 8121726668, 328636601, 8121726667, 328629812, 328620533, 328598308, 327543216, 328635540, 328629113], "tags": {"access": "private", "addr:city": "Boston", "addr:housenumber": "771", "addr:postcode": "02215", "addr:state": "MA", "addr:street": "Commonwealth Avenue", "air_conditioning": "yes", "amenity": "library", "architect": "Sert, Jackson & Gourley", "building": "university", "building:levels": "6", "internet_access": "yes", "name": "Mugar Memorial Library", "official_name": "Stephen P. Mugar Memorial Library", "operator": "Boston University", "operator:type": "university", "phone": "+1-617-353-2700", "start_date": "1966", "website": "https://www.bu.edu/library/mugar-memorial/", "wheelchair": "yes", "wikidata": "Q6932084", "wikipedia": "en:Mugar Memorial Library"}}, {"type": "way", "id": 217512570, "nodes": [329914779, 7747033145, 7722290024, 329914780, 329914781, 7722290023, 7722290022, 2267942723, 7747240147, 329914800, 329914801, 329914802, 329914803, 329914804, 329914805, 329914806, 329914807, 329914808, 329914809, 329914810, 329914811, 329914812, 329914813, 329914814, 329914815, 329914816, 329914817, 329914818, 329914819, 329914820, 329914821, 329914822, 329914823, 329914824, 329914825, 329914826, 329914827, 329914828, 329914829, 329914830, 329914831, 329914832, 329914833, 329914834, 329914835, 329914836, 329914837, 329914838, 329914839, 329914840, 329914841, 329914842, 329914843, 329914844, 329914845, 329914846, 329914847, 329914848, 329914849, 329914850, 329914851, 329914852, 329914853, 329914854, 329914855, 329914856, 329914857, 329914858, 329914859, 329914860, 329914861, 329914862, 329914863, 329914864, 329914865, 329914866, 329914867, 329914868, 329914667, 329914668, 329914669, 329914670, 329914671, 329914672, 329914673, 329914674, 329914675, 329914676, 329914677, 329914678, 329914679, 329914680, 329914681, 329914682, 329914683, 329914684, 329914685, 329914686, 329914687, 329914688, 329914689, 329914690, 329914691, 329914692, 329914693, 329914694, 329914695, 329914696, 329914697, 329914698, 329914699, 329914700, 329914701, 329914702, 329914703, 329914704, 329914705, 329914706, 329914707, 329914708, 329914709, 329914710, 329914711, 329914712, 329914713, 329914714, 329914715, 329914716, 329914717, 329914718, 329914719, 329914720, 329914721, 329914722, 329914723, 329914724, 329914725, 329914726, 329914727, 329914728, 329914729, 329914730, 7747033152, 329914736, 329914737, 329914738, 329914739, 329914740, 329914741, 329914742, 329914743, 329914744, 329914745, 329914746, 329914747, 329914748, 329914749, 329914750, 329914751, 329914752, 329914753, 329914754, 329914755, 329914756, 329914757, 329914758, 329914759, 329914760, 329914761, 329914762, 329914763, 329914764, 329914765, 329914766, 329914767, 329914768, 329914769, 329914770, 329914771, 329914772, 329914773, 329914774, 329914775, 329914776, 329914777, 2267934764, 329914779], "tags": {"amenity": "library", "building": "yes", "name": "John F. Kennedy Presidential Library and Museum", "tourism": "museum", "website": "https://www.jfklibrary.org/", "wikidata": "Q2007919", "wikipedia": "en:John F. Kennedy Presidential Library and Museum"}}, {"type": "way", "id": 291407294, "nodes": [2948724749, 2948724748, 2948724757, 2948724756, 2948724751, 2948724752, 2948724754, 2948724747, 2948724749], "tags": {"addr:housenumber": "365", "addr:street": "Bremen Street", "amenity": "library", "building": "yes", "name": "East Boston Branch Library", "operator": "Boston Public Library", "source": "Bing"}}, {"type": "way", "id": 307440719, "nodes": [3125846840, 3125846845, 3125846833, 3125846836, 3125846834, 3125846841, 3125846842, 3125846849, 3125846848, 3125846861, 3125846860, 3125846856, 3125846855, 3125846858, 3125846863, 3125846862, 3125846859, 3125846857, 3125846854, 3125846853, 3125846851, 3125846850, 3125846852, 3125846847, 3125846846, 3125846843, 3125846840], "tags": {"addr:state": "MA", "amenity": "library", "building": "yes", "ele": "65", "gnis:county_name": "Norfolk", "gnis:feature_id": "1972000", "gnis:import_uuid": "57871b70-0100-4405-bb30-88b2e001a944", "gnis:reviewed": "no", "name": "Anneberg Library and Communications Center", "source": "USGS Geonames"}}, {"type": "way", "id": 364674256, "nodes": [3687227182, 3687227168, 3687227164, 3687227166, 3687227165, 3687227171, 3687227170, 3687227179, 3687227181, 3687227201, 3687227204, 3687227186, 3687227185, 3687227184, 3687227183, 3687227180, 3687227182]}, {"type": "way", "id": 364674258, "nodes": [3687227175, 3687227173, 3687227172, 3687227174, 3687227175]}, {"type": "way", "id": 391465002, "nodes": [328327598, 328400042, 3946796275, 3946796276, 7814552121, 3946796273, 328290924, 328306884, 328301702, 328316269, 328327598], "tags": {"addr:city": "Boston", "addr:housenumber": "151", "addr:state": "MA", "addr:street": "Cambridge Street", "amenity": "library", "building": "yes", "building:levels": "1", "ele": "10", "gnis:county_name": "Middlesex", "gnis:feature_id": "1971852", "name": "West End Branch Boston Public Library", "source": "USGS Geonames", "wheelchair": "yes"}}, {"type": "way", "id": 405334631, "nodes": [4075406797, 328457936, 4691217118, 4691217119, 4691217120, 4691217121, 4691217122, 4691217123, 4691217124, 4691217117, 257537517, 367779426, 4691217125, 328433850, 4075406794, 4075406797], "tags": {"addr:city": "Boston", "addr:housenumber": "53", "addr:postcode": "02116", "addr:state": "MA", "addr:street": "Marlborough Street", "amenity": "library", "building": "residential", "gnis:feature_id": "2344895", "name": "French Cultural Center", "phone": "+1 617 912 0400", "region": "Boston", "website": "https://frenchculturalcenter.org/"}}, {"type": "way", "id": 405941805, "nodes": [4080745755, 257537368, 1325838452, 1325838609, 1325838662, 1325838647, 1325838664, 1325838669, 4080745755], "tags": {"addr:city": "Boston", "addr:housenumber": "10", "addr:state": "MA", "addr:street": "Beacon Street", "amenity": "library", "attribution": "Office of Geographic and Environmental Information (MassGIS)", "building": "yes", "building:levels": "6", "name": "Boston Athenaeum Library", "office": "Boston Athenaeum", "region": "Boston", "source:url": "http://mass.gov/mgis/libraries.htm", "type": "Special", "website": "https://www.bostonathenaeum.org"}}, {"type": "relation", "id": 63755, "members": [{"type": "way", "ref": 29551175, "role": "outer"}, {"type": "way", "ref": 29554877, "role": "inner"}], "tags": {"addr:city": "Boston", "addr:housenumber": "700", "addr:postcode": "02116", "addr:state": "MA", "addr:street": "Boylston Street", "amenity": "library", "architect": "Charles Follen McKim", "attribution": "Office of Geographic and Environmental Information (MassGIS)", "building": "yes", "heritage:website": "https://catalog.archives.gov/id/63796738", "name": "Boston Public Library", "office": "Boston Massachusetts Regional Library System", "ref:nrhp": "73000317", "region": "Boston", "source:url": "http://mass.gov/mgis/libraries.htm", "type": "multipolygon", "website": "http://bpl.org/", "wikidata": "Q894583", "wikipedia": "en:Boston Public Library"}}, {"type": "relation", "id": 64846, "members": [{"type": "way", "ref": 29825693, "role": "inner"}, {"type": "way", "ref": 29829070, "role": "outer"}], "tags": {"addr:housenumber": "89", "addr:street": "Brattle Street", "amenity": "library", "building": "yes", "name": "Sherrill Library", "type": "multipolygon"}}, {"type": "relation", "id": 65389, "members": [{"type": "way", "ref": 29932471, "role": "inner"}, {"type": "way", "ref": 29939208, "role": "outer"}], "tags": {"amenity": "library", "building": "yes", "name": "Honan-Allston Branch Library", "type": "multipolygon", "wikidata": "Q14715554"}}, {"type": "relation", "id": 5422061, "members": [{"type": "way", "ref": 364674256, "role": "outer"}, {"type": "way", "ref": 364674258, "role": "inner"}], "tags": {"addr:city": "Mattapan", "addr:housenumber": "1350", "addr:postcode": "02126", "addr:street": "Blue Hill Avenue", "amenity": "library", "building": "yes", "name": "Mattapan Branch of the Boston Public Library", "opening_hours": "Mo,We 10:00-18:00; Tu,Th 12:00-20:00; Fr,Sa 09:00-17:00", "operator": "Boston Public Library", "phone": "+1 617 298 9218", "type": "multipolygon", "website": "http://www.bpl.org/branches/mattapan.php", "wikidata": "Q69862706"}}]}